{"type":"FeatureCollection","features":[{"type": "Feature", "id": "layer_data_map.fid--27e80436_1a098c1eed1_-585d", "geometry": {"type": "Polygon", "coordinates": [[[107.02333662, 47.92856857], [107.01761124, 47.92524124], [107.01684704, 47.92412769], [107.01664842, 47.92301004], [107.01078284, 47.92323477], [107.00770744, 47.9188162], [107.00733999, 47.91742166], [107.01007857, 47.9172969], [107.01051605, 47.91276717], [107.01331266, 47.91277862], [107.0161531, 47.91223011], [107.01619567, 47.91514054], [107.01646077, 47.91693339], [107.01832053, 47.91687632], [107.01818731, 47.91506901], [107.0203231, 47.91507283], [107.02209105, 47.91552587], [107.02453114, 47.91562728], [107.02342133, 47.92008235], [107.02418755, 47.92675049], [107.02395624, 47.92785905], [107.02333662, 47.92856857]]]}, "geometry_name": "geom", "properties": {"guid": 3115121, "id": 3115121, "object_no": null, "object_name": "Төлөвлөлтийн хил хязгаар", "layer_type_id": 955, "valid_to": null, "address_no": null, "border_type": "solid", "border_width": 1, "border_color": "#16537e", "border_opacity": 1, "border_wellknown": "shape://horizline", "fill_type": "color", "fill_color": "#9fc5e8", "fill_opacity": 0.36, "fill_wellknown": null, "fill_shape_color": null, "fill_shape_width": null, "fill_shape_size": null, "fill_img_url": null, "marker_img_url": null}},{"type": "Feature", "id": "layer_data_map.fid--27e80436_1a098c1eed1_-585c", "geometry": {"type": "Polygon", "coordinates": [[[106.75910476, 47.86955047], [106.75899559, 47.86802395], [106.75930408, 47.8678264], [106.75961478, 47.86657643], [106.76385759, 47.86672807], [106.76417704, 47.86719653], [106.76422835, 47.86928315], [106.76397939, 47.86963087], [106.75910476, 47.86955047]]]}, "geometry_name": "geom", "properties": {"guid": 3115164, "id": 3115164, "object_no": null, "object_name": "Төлөвлөлтийн хил хязгаар", "layer_type_id": 955, "valid_to": null, "address_no": null, "border_type": "solid", "border_width": 1, "border_color": "#16537e", "border_opacity": 1, "border_wellknown": "shape://horizline", "fill_type": "color", "fill_color": "#9fc5e8", "fill_opacity": 0.36, "fill_wellknown": null, "fill_shape_color": null, "fill_shape_width": null, "fill_shape_size": null, "fill_img_url": null, "marker_img_url": null}},{"type": "Feature", "id": "layer_data_map.fid--27e80436_1a098c1eed1_-585b", "geometry": {"type": "Polygon", "coordinates": [[[106.90341647, 47.94679015], [106.90414875, 47.94625361], [106.90384451, 47.94582452], [106.90240819, 47.94496744], [106.90202764, 47.94550902], [106.90063822, 47.94604142], [106.89836036, 47.94720789], [106.89783815, 47.94768167], [106.89735662, 47.9485985], [106.89850279, 47.94877714], [106.8988723, 47.94851396], [106.90069299, 47.94873775], [106.90388589, 47.94947702], [106.90475429, 47.949214], [106.90380491, 47.94747347], [106.9034031, 47.94717745], [106.90341647, 47.94679015]]]}, "geometry_name": "geom", "properties": {"guid": 3115166, "id": 3115166, "object_no": null, "object_name": "Төлөвлөлтийн хил хязгаар", "layer_type_id": 955, "valid_to": null, "address_no": null, "border_type": "solid", "border_width": 1, "border_color": "#16537e", "border_opacity": 1, "border_wellknown": "shape://horizline", "fill_type": "color", "fill_color": "#9fc5e8", "fill_opacity": 0.36, "fill_wellknown": null, "fill_shape_color": null, "fill_shape_width": null, "fill_shape_size": null, "fill_img_url": null, "marker_img_url": null}},{"type": "Feature", "id": "layer_data_map.fid--27e80436_1a098c1eed1_-585a", "geometry": {"type": "Polygon", "coordinates": [[[106.87062881, 47.93286406], [106.87091191, 47.93095424], [106.87157716, 47.92986434], [106.87277885, 47.93005091], [106.87289585, 47.92998614], [106.87386898, 47.93010454], [106.87415426, 47.92994133], [106.87594436, 47.93075895], [106.87545857, 47.93121859], [106.87511134, 47.93232689], [106.87510974, 47.93304777], [106.87436464, 47.9336446], [106.87329083, 47.93310362], [106.87251013, 47.93292005], [106.87062881, 47.93286406]]]}, "geometry_name": "geom", "properties": {"guid": 3115170, "id": 3115170, "object_no": null, "object_name": "Төлөвлөлтийн хил хязгаар", "layer_type_id": 955, "valid_to": null, "address_no": null, "border_type": "solid", "border_width": 1, "border_color": "#16537e", "border_opacity": 1, "border_wellknown": "shape://horizline", "fill_type": "color", "fill_color": "#9fc5e8", "fill_opacity": 0.36, "fill_wellknown": null, "fill_shape_color": null, "fill_shape_width": null, "fill_shape_size": null, "fill_img_url": null, "marker_img_url": null}},{"type": "Feature", "id": "layer_data_map.fid--27e80436_1a098c1eed1_-5859", "geometry": {"type": "Polygon", "coordinates": [[[107.11695946, 47.86910234], [107.11942525, 47.86731535], [107.12029194, 47.866523], [107.12071183, 47.86593019], [107.12101182, 47.86526977], [107.12115482, 47.8643406], [107.1241775, 47.8662064], [107.11873164, 47.87014922], [107.11695946, 47.86910234]]]}, "geometry_name": "geom", "properties": {"guid": 3115562, "id": 3115562, "object_no": null, "object_name": "Төлөвлөлтийн хил хязгаар", "layer_type_id": 955, "valid_to": null, "address_no": null, "border_type": "solid", "border_width": 1, "border_color": "#16537e", "border_opacity": 1, "border_wellknown": "shape://horizline", "fill_type": "color", "fill_color": "#9fc5e8", "fill_opacity": 0.36, "fill_wellknown": null, "fill_shape_color": null, "fill_shape_width": null, "fill_shape_size": null, "fill_img_url": null, "marker_img_url": null}},{"type": "Feature", "id": "layer_data_map.fid--27e80436_1a098c1eed1_-5858", "geometry": {"type": "Polygon", "coordinates": [[[106.78039291, 47.91626673], [106.78041933, 47.9154569], [106.78068449, 47.91482318], [106.78151819, 47.91388976], [106.78447805, 47.9146033], [106.78454677, 47.91530717], [106.78612031, 47.91609575], [106.78774193, 47.91645452], [106.79034833, 47.91653522], [106.7911758, 47.91606346], [106.79202093, 47.91774633], [106.79128581, 47.91850768], [106.79230629, 47.91934286], [106.79253819, 47.91995057], [106.7842812, 47.9195006], [106.78297863, 47.91927134], [106.78138136, 47.91844675], [106.78039291, 47.91626673]]]}, "geometry_name": "geom", "properties": {"guid": 3118643, "id": 3118643, "object_no": null, "object_name": "Төлөвлөлтийн хил хязгаар", "layer_type_id": 955, "valid_to": null, "address_no": null, "border_type": "solid", "border_width": 1, "border_color": "#16537e", "border_opacity": 1, "border_wellknown": "shape://horizline", "fill_type": "color", "fill_color": "#9fc5e8", "fill_opacity": 0.36, "fill_wellknown": null, "fill_shape_color": null, "fill_shape_width": null, "fill_shape_size": null, "fill_img_url": null, "marker_img_url": null}},{"type": "Feature", "id": "layer_data_map.fid--27e80436_1a098c1eed1_-5857", "geometry": {"type": "Polygon", "coordinates": [[[106.70731899, 47.89255938], [106.70729504, 47.89281035], [106.70726195, 47.89306085], [106.70721976, 47.89331073], [106.70716848, 47.89355984], [106.70710815, 47.89380803], [106.70641401, 47.89625182], [106.70516553, 47.90034207], [106.70115493, 47.90020543], [106.69899634, 47.90012779], [106.6963614, 47.90002791], [106.68727555, 47.89969233], [106.66836624, 47.8989912], [106.66814142, 47.89895912], [106.66791879, 47.89892073], [106.66769875, 47.89887611], [106.66748168, 47.89882534], [106.66726796, 47.8987685], [106.66705797, 47.89870569], [106.66685207, 47.89863703], [106.66665063, 47.89856263], [106.66645399, 47.89848262], [106.66554725, 47.89808544], [106.66289973, 47.89692567], [106.66210751, 47.89658683], [106.66041644, 47.89585537], [106.65989043, 47.89562589], [106.66141294, 47.89243377], [106.66440917, 47.88614912], [106.66447706, 47.88601836], [106.66455483, 47.88589012], [106.66464228, 47.88576474], [106.66473917, 47.88564253], [106.66484526, 47.88552383], [106.66496025, 47.88540894], [106.66508385, 47.88529817], [106.66521574, 47.88519182], [106.66535556, 47.88509015], [106.66550295, 47.88499344], [106.66565752, 47.88490194], [106.66581886, 47.88481589], [106.66598655, 47.88473553], [106.66616015, 47.88466105], [106.66633919, 47.88459266], [106.66652322, 47.88453054], [106.66671174, 47.88447485], [106.66690425, 47.88442574], [106.66710026, 47.88438333], [106.66729924, 47.88434774], [106.66750068, 47.88431906], [106.66770403, 47.88429737], [106.66790877, 47.88428272], [106.67917143, 47.8836725], [106.67953134, 47.88365298], [106.6820172, 47.88351838], [106.68344948, 47.88524672], [106.68547068, 47.88448881], [106.68563716, 47.88443044], [106.68580825, 47.88437844], [106.68598342, 47.88433299], [106.68616209, 47.88429423], [106.68634372, 47.88426227], [106.68652773, 47.88423722], [106.68671355, 47.88421915], [106.68690057, 47.88420813], [106.68708822, 47.88420419], [106.6872759, 47.88420734], [106.68746303, 47.88421758], [106.68764901, 47.88423486], [106.68783324, 47.88425913], [106.68801517, 47.88429033], [106.6881942, 47.88432834], [106.68836978, 47.88437305], [106.68854136, 47.88442432], [106.68870838, 47.88448199], [106.68887033, 47.88454588], [106.68902669, 47.88461578], [106.68917698, 47.88469147], [106.68932071, 47.88477272], [106.68945743, 47.88485926], [106.68958672, 47.88495083], [106.68970816, 47.88504714], [106.68982137, 47.88514788], [106.6899211, 47.88523723], [106.69002731, 47.88532313], [106.69013972, 47.88540538], [106.69025807, 47.88548377], [106.69579809, 47.88897485], [106.69793756, 47.8888523], [106.69809746, 47.88883566], [106.69825545, 47.88881215], [106.69841086, 47.88878187], [106.69856306, 47.88874494], [106.69871142, 47.8887015], [106.69885532, 47.88865175], [106.69889988, 47.88862275], [106.70183151, 47.88688459], [106.70396773, 47.88847499], [106.70401973, 47.88850968], [106.70407706, 47.88854034], [106.70413903, 47.8885666], [106.7042049, 47.88858814], [106.70427388, 47.8886047], [106.70586071, 47.88892104], [106.70600061, 47.88895825], [106.70613645, 47.88900174], [106.7062676, 47.88905132], [106.70639346, 47.88910675], [106.70651346, 47.88916778], [106.70662704, 47.88923412], [106.7067337, 47.88930549], [106.70683293, 47.88938155], [106.70692428, 47.88946195], [106.70700733, 47.88954632], [106.70708171, 47.88963427], [106.70714707, 47.88972541], [106.70720311, 47.88981932], [106.70724958, 47.88991556], [106.70728626, 47.89001369], [106.70731299, 47.89011327], [106.70732964, 47.89021383], [106.70733613, 47.89031493], [106.70731899, 47.89255938]]]}, "geometry_name": "geom", "properties": {"guid": 3118719, "id": 3118719, "object_no": null, "object_name": "Төлөвлөлтийн хил хязгаар", "layer_type_id": 955, "valid_to": null, "address_no": null, "border_type": "solid", "border_width": 1, "border_color": "#16537e", "border_opacity": 1, "border_wellknown": "shape://horizline", "fill_type": "color", "fill_color": "#9fc5e8", "fill_opacity": 0.36, "fill_wellknown": null, "fill_shape_color": null, "fill_shape_width": null, "fill_shape_size": null, "fill_img_url": null, "marker_img_url": null}},{"type": "Feature", "id": "layer_data_map.fid--27e80436_1a098c1eed1_-5856", "geometry": {"type": "Polygon", "coordinates": [[[107.26141408, 47.76590082], [107.26076739, 47.76634706], [107.25944559, 47.76691034], [107.25878881, 47.76711233], [107.25653758, 47.76756897], [107.25642978, 47.76759427], [107.25619646, 47.76708879], [107.25776831, 47.76677351], [107.25750648, 47.76601905], [107.25735803, 47.765737], [107.2555872, 47.76611987], [107.25523793, 47.76583447], [107.25445544, 47.76529281], [107.25485199, 47.76517093], [107.25926758, 47.76409776], [107.26050201, 47.76471772], [107.26172592, 47.76511297], [107.2620394, 47.7651982], [107.26141408, 47.76590082]]]}, "geometry_name": "geom", "properties": {"guid": 3241270, "id": 3241270, "object_no": null, "object_name": "Төлөвлөлтийн хил хязгаар", "layer_type_id": 955, "valid_to": null, "address_no": null, "border_type": "solid", "border_width": 1, "border_color": "#16537e", "border_opacity": 1, "border_wellknown": "shape://horizline", "fill_type": "color", "fill_color": "#9fc5e8", "fill_opacity": 0.36, "fill_wellknown": null, "fill_shape_color": null, "fill_shape_width": null, "fill_shape_size": null, "fill_img_url": null, "marker_img_url": null}},{"type": "Feature", "id": "layer_data_map.fid--27e80436_1a098c1eed1_-5855", "geometry": {"type": "Polygon", "coordinates": [[[107.26260686, 47.77032272], [107.2625204, 47.77035668], [107.26243041, 47.77038618], [107.26233739, 47.77041104], [107.26224187, 47.77043114], [107.26036828, 47.77077389], [107.26009037, 47.77018459], [107.26005148, 47.77009396], [107.26001969, 47.77000209], [107.2599951, 47.76990921], [107.25997775, 47.7698156], [107.25993341, 47.76951156], [107.25992251, 47.76940354], [107.25992127, 47.76929527], [107.25992969, 47.76918715], [107.25994775, 47.76907956], [107.25997538, 47.76897291], [107.26001247, 47.76886756], [107.2600589, 47.76876391], [107.26016891, 47.76854259], [107.26022377, 47.76844225], [107.26028737, 47.76834428], [107.26035949, 47.76824903], [107.26043988, 47.76815684], [107.26052825, 47.76806804], [107.26062429, 47.76798293], [107.26072767, 47.76790182], [107.26083801, 47.76782499], [107.26095492, 47.76775272], [107.26137846, 47.76750613], [107.26145458, 47.76755521], [107.2615362, 47.76760008], [107.26195816, 47.76781393], [107.26455126, 47.76928081], [107.26432683, 47.769426], [107.26409675, 47.76956712], [107.26386117, 47.76970405], [107.26362026, 47.76983671], [107.2633742, 47.76996499], [107.26312317, 47.77008881], [107.26286732, 47.77020809], [107.26260686, 47.77032272]]]}, "geometry_name": "geom", "properties": {"guid": 3241271, "id": 3241271, "object_no": null, "object_name": "Төлөвлөлтийн хил хязгаар", "layer_type_id": 955, "valid_to": null, "address_no": null, "border_type": "solid", "border_width": 1, "border_color": "#16537e", "border_opacity": 1, "border_wellknown": "shape://horizline", "fill_type": "color", "fill_color": "#9fc5e8", "fill_opacity": 0.36, "fill_wellknown": null, "fill_shape_color": null, "fill_shape_width": null, "fill_shape_size": null, "fill_img_url": null, "marker_img_url": null}},{"type": "Feature", "id": "layer_data_map.fid--27e80436_1a098c1eed1_-5854", "geometry": {"type": "Polygon", "coordinates": [[[107.2383662, 47.78357485], [107.23835248, 47.78267581], [107.24507153, 47.78254447], [107.24515818, 47.7825396], [107.24524354, 47.78252841], [107.24532659, 47.78251105], [107.24540637, 47.78248773], [107.24548191, 47.78245871], [107.24555235, 47.78242435], [107.24561684, 47.78238503], [107.24713708, 47.78135172], [107.24956464, 47.781189], [107.24955341, 47.78042055], [107.25172699, 47.78037791], [107.25180596, 47.78037571], [107.2518841, 47.78036775], [107.2519605, 47.78035413], [107.25203425, 47.78033499], [107.25210449, 47.78031057], [107.25217039, 47.78028116], [107.25223115, 47.7802471], [107.25228608, 47.7802088], [107.25248867, 47.78006406], [107.25691634, 47.78065653], [107.25694508, 47.78106899], [107.25653943, 47.78271471], [107.25411942, 47.78249429], [107.25067734, 47.78203894], [107.25055384, 47.78202577], [107.2504292, 47.78201913], [107.25030417, 47.78201906], [107.25017951, 47.78202557], [107.2495615, 47.78207426], [107.24956678, 47.78315557], [107.24634497, 47.78340932], [107.24468834, 47.78344671], [107.2383662, 47.78357485]]]}, "geometry_name": "geom", "properties": {"guid": 3241282, "id": 3241282, "object_no": null, "object_name": "Төлөвлөлтийн хил хязгаар", "layer_type_id": 955, "valid_to": null, "address_no": null, "border_type": "solid", "border_width": 1, "border_color": "#16537e", "border_opacity": 1, "border_wellknown": "shape://horizline", "fill_type": "color", "fill_color": "#9fc5e8", "fill_opacity": 0.36, "fill_wellknown": null, "fill_shape_color": null, "fill_shape_width": null, "fill_shape_size": null, "fill_img_url": null, "marker_img_url": null}},{"type": "Feature", "id": "layer_data_map.fid--27e80436_1a098c1eed1_-5853", "geometry": {"type": "Polygon", "coordinates": [[[107.26200082, 47.78807637], [107.26572774, 47.78758909], [107.26827668, 47.79214096], [107.26633807, 47.79252573], [107.26423127, 47.79053427], [107.26213169, 47.78937384], [107.26225939, 47.78882187], [107.26200082, 47.78807637]]]}, "geometry_name": "geom", "properties": {"guid": 3241284, "id": 3241284, "object_no": null, "object_name": "Төлөвлөлтийн хил хязгаар", "layer_type_id": 955, "valid_to": null, "address_no": null, "border_type": "solid", "border_width": 1, "border_color": "#16537e", "border_opacity": 1, "border_wellknown": "shape://horizline", "fill_type": "color", "fill_color": "#9fc5e8", "fill_opacity": 0.36, "fill_wellknown": null, "fill_shape_color": null, "fill_shape_width": null, "fill_shape_size": null, "fill_img_url": null, "marker_img_url": null}},{"type": "Feature", "id": "layer_data_map.fid--27e80436_1a098c1eed1_-5852", "geometry": {"type": "Polygon", "coordinates": [[[107.27181153, 47.77412566], [107.27213845, 47.77058105], [107.27671967, 47.77128876], [107.28272754, 47.77398084], [107.28384462, 47.77484863], [107.280989, 47.77436102], [107.27629411, 47.77409217], [107.27181153, 47.77412566]]]}, "geometry_name": "geom", "properties": {"guid": 3241309, "id": 3241309, "object_no": null, "object_name": "Төлөвлөлтийн хил хязгаар", "layer_type_id": 955, "valid_to": null, "address_no": null, "border_type": "solid", "border_width": 1, "border_color": "#16537e", "border_opacity": 1, "border_wellknown": "shape://horizline", "fill_type": "color", "fill_color": "#9fc5e8", "fill_opacity": 0.36, "fill_wellknown": null, "fill_shape_color": null, "fill_shape_width": null, "fill_shape_size": null, "fill_img_url": null, "marker_img_url": null}}]}