{"type":"FeatureCollection","features":[{"type": "Feature", "id": "layer_data_map.fid--27e80436_1a098b908f8_6f6f", "geometry": {"type": "Point", "coordinates": [106.92929764, 47.92255752]}, "geometry_name": "geom", "properties": {"guid": 3815, "id": 3815, "object_no": null, "object_name": null, "layer_type_id": 210, "valid_to": null, "address_no": null, "border_type": "solid", "border_width": null, "border_color": null, "border_opacity": null, "border_wellknown": "shape://horizline", "fill_type": "img", "fill_color": null, "fill_opacity": null, "fill_wellknown": null, "fill_shape_color": null, "fill_shape_width": null, "fill_shape_size": null, "fill_img_url": null, "marker_img_url": "marker_img_url/6397cea91a007.png"}},{"type": "Feature", "id": "layer_data_map.fid--27e80436_1a098b908f8_6f70", "geometry": {"type": "Point", "coordinates": [106.91610368, 47.92675982]}, "geometry_name": "geom", "properties": {"guid": 3816, "id": 3816, "object_no": null, "object_name": null, "layer_type_id": 210, "valid_to": null, "address_no": null, "border_type": "solid", "border_width": null, "border_color": null, "border_opacity": null, "border_wellknown": "shape://horizline", "fill_type": "img", "fill_color": null, "fill_opacity": null, "fill_wellknown": null, "fill_shape_color": null, "fill_shape_width": null, "fill_shape_size": null, "fill_img_url": null, "marker_img_url": "marker_img_url/6397cea91a007.png"}},{"type": "Feature", "id": "layer_data_map.fid--27e80436_1a098b908f8_6f71", "geometry": {"type": "Point", "coordinates": [106.90631811, 47.9124626]}, "geometry_name": "geom", "properties": {"guid": 3817, "id": 3817, "object_no": null, "object_name": null, "layer_type_id": 210, "valid_to": null, "address_no": null, "border_type": "solid", "border_width": null, "border_color": null, "border_opacity": null, "border_wellknown": "shape://horizline", "fill_type": "img", "fill_color": null, "fill_opacity": null, "fill_wellknown": null, "fill_shape_color": null, "fill_shape_width": null, "fill_shape_size": null, "fill_img_url": null, "marker_img_url": "marker_img_url/6397cea91a007.png"}},{"type": "Feature", "id": "layer_data_map.fid--27e80436_1a098b908f8_6f72", "geometry": {"type": "Point", "coordinates": [106.93528677, 47.91785156]}, "geometry_name": "geom", "properties": {"guid": 3818, "id": 3818, "object_no": null, "object_name": null, "layer_type_id": 210, "valid_to": null, "address_no": null, "border_type": "solid", "border_width": null, "border_color": null, "border_opacity": null, "border_wellknown": "shape://horizline", "fill_type": "img", "fill_color": null, "fill_opacity": null, "fill_wellknown": null, "fill_shape_color": null, "fill_shape_width": null, "fill_shape_size": null, "fill_img_url": null, "marker_img_url": "marker_img_url/6397cea91a007.png"}},{"type": "Feature", "id": "layer_data_map.fid--27e80436_1a098b908f8_6f73", "geometry": {"type": "Point", "coordinates": [106.898794, 47.89834341]}, "geometry_name": "geom", "properties": {"guid": 3819, "id": 3819, "object_no": null, "object_name": null, "layer_type_id": 210, "valid_to": null, "address_no": null, "border_type": "solid", "border_width": null, "border_color": null, "border_opacity": null, "border_wellknown": "shape://horizline", "fill_type": "img", "fill_color": null, "fill_opacity": null, "fill_wellknown": null, "fill_shape_color": null, "fill_shape_width": null, "fill_shape_size": null, "fill_img_url": null, "marker_img_url": "marker_img_url/6397cea91a007.png"}},{"type": "Feature", "id": "layer_data_map.fid--27e80436_1a098b908f8_6f74", "geometry": {"type": "Point", "coordinates": [106.91717092, 47.92588025]}, "geometry_name": "geom", "properties": {"guid": 3820, "id": 3820, "object_no": null, "object_name": null, "layer_type_id": 210, "valid_to": null, "address_no": null, "border_type": "solid", "border_width": null, "border_color": null, "border_opacity": null, "border_wellknown": "shape://horizline", "fill_type": "img", "fill_color": null, "fill_opacity": null, "fill_wellknown": null, "fill_shape_color": null, "fill_shape_width": null, "fill_shape_size": null, "fill_img_url": null, "marker_img_url": "marker_img_url/6397cea91a007.png"}},{"type": "Feature", "id": "layer_data_map.fid--27e80436_1a098b908f8_6f75", "geometry": {"type": "Point", "coordinates": [106.97609798, 47.91208384]}, "geometry_name": "geom", "properties": {"guid": 3821, "id": 3821, "object_no": null, "object_name": null, "layer_type_id": 210, "valid_to": null, "address_no": null, "border_type": "solid", "border_width": null, "border_color": null, "border_opacity": null, "border_wellknown": "shape://horizline", "fill_type": "img", "fill_color": null, "fill_opacity": null, "fill_wellknown": null, "fill_shape_color": null, "fill_shape_width": null, "fill_shape_size": null, "fill_img_url": null, "marker_img_url": "marker_img_url/6397cea91a007.png"}},{"type": "Feature", "id": "layer_data_map.fid--27e80436_1a098b908f8_6f76", "geometry": {"type": "Point", "coordinates": [106.99421736, 47.90778752]}, "geometry_name": "geom", "properties": {"guid": 3822, "id": 3822, "object_no": null, "object_name": null, "layer_type_id": 210, "valid_to": null, "address_no": null, "border_type": "solid", "border_width": null, "border_color": null, "border_opacity": null, "border_wellknown": "shape://horizline", "fill_type": "img", "fill_color": null, "fill_opacity": null, "fill_wellknown": null, "fill_shape_color": null, "fill_shape_width": null, "fill_shape_size": null, "fill_img_url": null, "marker_img_url": "marker_img_url/6397cea91a007.png"}},{"type": "Feature", "id": "layer_data_map.fid--27e80436_1a098b908f8_6f77", "geometry": {"type": "Point", "coordinates": [106.94180896, 47.917441]}, "geometry_name": "geom", "properties": {"guid": 3823, "id": 3823, "object_no": null, "object_name": null, "layer_type_id": 210, "valid_to": null, "address_no": null, "border_type": "solid", "border_width": null, "border_color": null, "border_opacity": null, "border_wellknown": "shape://horizline", "fill_type": "img", "fill_color": null, "fill_opacity": null, "fill_wellknown": null, "fill_shape_color": null, "fill_shape_width": null, "fill_shape_size": null, "fill_img_url": null, "marker_img_url": "marker_img_url/6397cea91a007.png"}},{"type": "Feature", "id": "layer_data_map.fid--27e80436_1a098b908f8_6f78", "geometry": {"type": "Point", "coordinates": [106.90857351, 47.91362683]}, "geometry_name": "geom", "properties": {"guid": 3824, "id": 3824, "object_no": null, "object_name": null, "layer_type_id": 210, "valid_to": null, "address_no": null, "border_type": "solid", "border_width": null, "border_color": null, "border_opacity": null, "border_wellknown": "shape://horizline", "fill_type": "img", "fill_color": null, "fill_opacity": null, "fill_wellknown": null, "fill_shape_color": null, "fill_shape_width": null, "fill_shape_size": null, "fill_img_url": null, "marker_img_url": "marker_img_url/6397cea91a007.png"}},{"type": "Feature", "id": "layer_data_map.fid--27e80436_1a098b908f8_6f79", "geometry": {"type": "Point", "coordinates": [106.91464222, 47.92496652]}, "geometry_name": "geom", "properties": {"guid": 3825, "id": 3825, "object_no": null, "object_name": null, "layer_type_id": 210, "valid_to": null, "address_no": null, "border_type": "solid", "border_width": null, "border_color": null, "border_opacity": null, "border_wellknown": "shape://horizline", "fill_type": "img", "fill_color": null, "fill_opacity": null, "fill_wellknown": null, "fill_shape_color": null, "fill_shape_width": null, "fill_shape_size": null, "fill_img_url": null, "marker_img_url": "marker_img_url/6397cea91a007.png"}},{"type": "Feature", "id": "layer_data_map.fid--27e80436_1a098b908f8_6f7a", "geometry": {"type": "Point", "coordinates": [106.90115218, 47.90258031]}, "geometry_name": "geom", "properties": {"guid": 3826, "id": 3826, "object_no": null, "object_name": null, "layer_type_id": 210, "valid_to": null, "address_no": null, "border_type": "solid", "border_width": null, "border_color": null, "border_opacity": null, "border_wellknown": "shape://horizline", "fill_type": "img", "fill_color": null, "fill_opacity": null, "fill_wellknown": null, "fill_shape_color": null, "fill_shape_width": null, "fill_shape_size": null, "fill_img_url": null, "marker_img_url": "marker_img_url/6397cea91a007.png"}},{"type": "Feature", "id": "layer_data_map.fid--27e80436_1a098b908f8_6f7b", "geometry": {"type": "Point", "coordinates": [106.93798688, 47.92694117]}, "geometry_name": "geom", "properties": {"guid": 3827, "id": 3827, "object_no": null, "object_name": null, "layer_type_id": 210, "valid_to": null, "address_no": null, "border_type": "solid", "border_width": null, "border_color": null, "border_opacity": null, "border_wellknown": "shape://horizline", "fill_type": "img", "fill_color": null, "fill_opacity": null, "fill_wellknown": null, "fill_shape_color": null, "fill_shape_width": null, "fill_shape_size": null, "fill_img_url": null, "marker_img_url": "marker_img_url/6397cea91a007.png"}},{"type": "Feature", "id": "layer_data_map.fid--27e80436_1a098b908f8_6f7c", "geometry": {"type": "Point", "coordinates": [106.84561183, 47.9129725]}, "geometry_name": "geom", "properties": {"guid": 3828, "id": 3828, "object_no": null, "object_name": null, "layer_type_id": 210, "valid_to": null, "address_no": null, "border_type": "solid", "border_width": null, "border_color": null, "border_opacity": null, "border_wellknown": "shape://horizline", "fill_type": "img", "fill_color": null, "fill_opacity": null, "fill_wellknown": null, "fill_shape_color": null, "fill_shape_width": null, "fill_shape_size": null, "fill_img_url": null, "marker_img_url": "marker_img_url/6397cea91a007.png"}},{"type": "Feature", "id": "layer_data_map.fid--27e80436_1a098b908f8_6f7d", "geometry": {"type": "Point", "coordinates": [106.84468636, 47.91285027]}, "geometry_name": "geom", "properties": {"guid": 3829, "id": 3829, "object_no": null, "object_name": null, "layer_type_id": 210, "valid_to": null, "address_no": null, "border_type": "solid", "border_width": null, "border_color": null, "border_opacity": null, "border_wellknown": "shape://horizline", "fill_type": "img", "fill_color": null, "fill_opacity": null, "fill_wellknown": null, "fill_shape_color": null, "fill_shape_width": null, "fill_shape_size": null, "fill_img_url": null, "marker_img_url": "marker_img_url/6397cea91a007.png"}},{"type": "Feature", "id": "layer_data_map.fid--27e80436_1a098b908f8_6f7e", "geometry": {"type": "Point", "coordinates": [106.91616513, 47.90242097]}, "geometry_name": "geom", "properties": {"guid": 3830, "id": 3830, "object_no": null, "object_name": null, "layer_type_id": 210, "valid_to": null, "address_no": null, "border_type": "solid", "border_width": null, "border_color": null, "border_opacity": null, "border_wellknown": "shape://horizline", "fill_type": "img", "fill_color": null, "fill_opacity": null, "fill_wellknown": null, "fill_shape_color": null, "fill_shape_width": null, "fill_shape_size": null, "fill_img_url": null, "marker_img_url": "marker_img_url/6397cea91a007.png"}},{"type": "Feature", "id": "layer_data_map.fid--27e80436_1a098b908f8_6f7f", "geometry": {"type": "Point", "coordinates": [106.90399047, 47.91384204]}, "geometry_name": "geom", "properties": {"guid": 3831, "id": 3831, "object_no": null, "object_name": null, "layer_type_id": 210, "valid_to": null, "address_no": null, "border_type": "solid", "border_width": null, "border_color": null, "border_opacity": null, "border_wellknown": "shape://horizline", "fill_type": "img", "fill_color": null, "fill_opacity": null, "fill_wellknown": null, "fill_shape_color": null, "fill_shape_width": null, "fill_shape_size": null, "fill_img_url": null, "marker_img_url": "marker_img_url/6397cea91a007.png"}},{"type": "Feature", "id": "layer_data_map.fid--27e80436_1a098b908f8_6f80", "geometry": {"type": "Point", "coordinates": [106.92177324, 47.9097081]}, "geometry_name": "geom", "properties": {"guid": 3832, "id": 3832, "object_no": null, "object_name": null, "layer_type_id": 210, "valid_to": null, "address_no": null, "border_type": "solid", "border_width": null, "border_color": null, "border_opacity": null, "border_wellknown": "shape://horizline", "fill_type": "img", "fill_color": null, "fill_opacity": null, "fill_wellknown": null, "fill_shape_color": null, "fill_shape_width": null, "fill_shape_size": null, "fill_img_url": null, "marker_img_url": "marker_img_url/6397cea91a007.png"}},{"type": "Feature", "id": "layer_data_map.fid--27e80436_1a098b908f8_6f81", "geometry": {"type": "Point", "coordinates": [106.96005596, 47.91848912]}, "geometry_name": "geom", "properties": {"guid": 3833, "id": 3833, "object_no": null, "object_name": null, "layer_type_id": 210, "valid_to": null, "address_no": null, "border_type": "solid", "border_width": null, "border_color": null, "border_opacity": null, "border_wellknown": "shape://horizline", "fill_type": "img", "fill_color": null, "fill_opacity": null, "fill_wellknown": null, "fill_shape_color": null, "fill_shape_width": null, "fill_shape_size": null, "fill_img_url": null, "marker_img_url": "marker_img_url/6397cea91a007.png"}},{"type": "Feature", "id": "layer_data_map.fid--27e80436_1a098b908f8_6f82", "geometry": {"type": "Point", "coordinates": [106.9725043, 47.91712921]}, "geometry_name": "geom", "properties": {"guid": 3834, "id": 3834, "object_no": null, "object_name": null, "layer_type_id": 210, "valid_to": null, "address_no": null, "border_type": "solid", "border_width": null, "border_color": null, "border_opacity": null, "border_wellknown": "shape://horizline", "fill_type": "img", "fill_color": null, "fill_opacity": null, "fill_wellknown": null, "fill_shape_color": null, "fill_shape_width": null, "fill_shape_size": null, "fill_img_url": null, "marker_img_url": "marker_img_url/6397cea91a007.png"}},{"type": "Feature", "id": "layer_data_map.fid--27e80436_1a098b908f8_6f83", "geometry": {"type": "Point", "coordinates": [106.91529146, 47.92083293]}, "geometry_name": "geom", "properties": {"guid": 3835, "id": 3835, "object_no": null, "object_name": null, "layer_type_id": 210, "valid_to": null, "address_no": null, "border_type": "solid", "border_width": null, "border_color": null, "border_opacity": null, "border_wellknown": "shape://horizline", "fill_type": "img", "fill_color": null, "fill_opacity": null, "fill_wellknown": null, "fill_shape_color": null, "fill_shape_width": null, "fill_shape_size": null, "fill_img_url": null, "marker_img_url": "marker_img_url/6397cea91a007.png"}},{"type": "Feature", "id": "layer_data_map.fid--27e80436_1a098b908f8_6f84", "geometry": {"type": "Point", "coordinates": [106.91499897, 47.92239054]}, "geometry_name": "geom", "properties": {"guid": 3836, "id": 3836, "object_no": null, "object_name": null, "layer_type_id": 210, "valid_to": null, "address_no": null, "border_type": "solid", "border_width": null, "border_color": null, "border_opacity": null, "border_wellknown": "shape://horizline", "fill_type": "img", "fill_color": null, "fill_opacity": null, "fill_wellknown": null, "fill_shape_color": null, "fill_shape_width": null, "fill_shape_size": null, "fill_img_url": null, "marker_img_url": "marker_img_url/6397cea91a007.png"}},{"type": "Feature", "id": "layer_data_map.fid--27e80436_1a098b908f8_6f85", "geometry": {"type": "Point", "coordinates": [106.91609288, 47.9148879]}, "geometry_name": "geom", "properties": {"guid": 3837, "id": 3837, "object_no": null, "object_name": null, "layer_type_id": 210, "valid_to": null, "address_no": null, "border_type": "solid", "border_width": null, "border_color": null, "border_opacity": null, "border_wellknown": "shape://horizline", "fill_type": "img", "fill_color": null, "fill_opacity": null, "fill_wellknown": null, "fill_shape_color": null, "fill_shape_width": null, "fill_shape_size": null, "fill_img_url": null, "marker_img_url": "marker_img_url/6397cea91a007.png"}},{"type": "Feature", "id": "layer_data_map.fid--27e80436_1a098b908f8_6f86", "geometry": {"type": "Point", "coordinates": [106.90715601, 47.8967634]}, "geometry_name": "geom", "properties": {"guid": 3838, "id": 3838, "object_no": null, "object_name": null, "layer_type_id": 210, "valid_to": null, "address_no": null, "border_type": "solid", "border_width": null, "border_color": null, "border_opacity": null, "border_wellknown": "shape://horizline", "fill_type": "img", "fill_color": null, "fill_opacity": null, "fill_wellknown": null, "fill_shape_color": null, "fill_shape_width": null, "fill_shape_size": null, "fill_img_url": null, "marker_img_url": "marker_img_url/6397cea91a007.png"}},{"type": "Feature", "id": "layer_data_map.fid--27e80436_1a098b908f8_6f87", "geometry": {"type": "Point", "coordinates": [106.91633355, 47.91621573]}, "geometry_name": "geom", "properties": {"guid": 3839, "id": 3839, "object_no": null, "object_name": null, "layer_type_id": 210, "valid_to": null, "address_no": null, "border_type": "solid", "border_width": null, "border_color": null, "border_opacity": null, "border_wellknown": "shape://horizline", "fill_type": "img", "fill_color": null, "fill_opacity": null, "fill_wellknown": null, "fill_shape_color": null, "fill_shape_width": null, "fill_shape_size": null, "fill_img_url": null, "marker_img_url": "marker_img_url/6397cea91a007.png"}},{"type": "Feature", "id": "layer_data_map.fid--27e80436_1a098b908f8_6f88", "geometry": {"type": "Point", "coordinates": [106.9530406, 47.91802293]}, "geometry_name": "geom", "properties": {"guid": 3840, "id": 3840, "object_no": null, "object_name": null, "layer_type_id": 210, "valid_to": null, "address_no": null, "border_type": "solid", "border_width": null, "border_color": null, "border_opacity": null, "border_wellknown": "shape://horizline", "fill_type": "img", "fill_color": null, "fill_opacity": null, "fill_wellknown": null, "fill_shape_color": null, "fill_shape_width": null, "fill_shape_size": null, "fill_img_url": null, "marker_img_url": "marker_img_url/6397cea91a007.png"}},{"type": "Feature", "id": "layer_data_map.fid--27e80436_1a098b908f8_6f89", "geometry": {"type": "Point", "coordinates": [106.89493831, 47.92230518]}, "geometry_name": "geom", "properties": {"guid": 3841, "id": 3841, "object_no": null, "object_name": null, "layer_type_id": 210, "valid_to": null, "address_no": null, "border_type": "solid", "border_width": null, "border_color": null, "border_opacity": null, "border_wellknown": "shape://horizline", "fill_type": "img", "fill_color": null, "fill_opacity": null, "fill_wellknown": null, "fill_shape_color": null, "fill_shape_width": null, "fill_shape_size": null, "fill_img_url": null, "marker_img_url": "marker_img_url/6397cea91a007.png"}},{"type": "Feature", "id": "layer_data_map.fid--27e80436_1a098b908f8_6f8a", "geometry": {"type": "Point", "coordinates": [106.93607615, 47.9182976]}, "geometry_name": "geom", "properties": {"guid": 3842, "id": 3842, "object_no": null, "object_name": null, "layer_type_id": 210, "valid_to": null, "address_no": null, "border_type": "solid", "border_width": null, "border_color": null, "border_opacity": null, "border_wellknown": "shape://horizline", "fill_type": "img", "fill_color": null, "fill_opacity": null, "fill_wellknown": null, "fill_shape_color": null, "fill_shape_width": null, "fill_shape_size": null, "fill_img_url": null, "marker_img_url": "marker_img_url/6397cea91a007.png"}},{"type": "Feature", "id": "layer_data_map.fid--27e80436_1a098b908f8_6f8b", "geometry": {"type": "Point", "coordinates": [106.93300152, 47.9158017]}, "geometry_name": "geom", "properties": {"guid": 3843, "id": 3843, "object_no": null, "object_name": null, "layer_type_id": 210, "valid_to": null, "address_no": null, "border_type": "solid", "border_width": null, "border_color": null, "border_opacity": null, "border_wellknown": "shape://horizline", "fill_type": "img", "fill_color": null, "fill_opacity": null, "fill_wellknown": null, "fill_shape_color": null, "fill_shape_width": null, "fill_shape_size": null, "fill_img_url": null, "marker_img_url": "marker_img_url/6397cea91a007.png"}},{"type": "Feature", "id": "layer_data_map.fid--27e80436_1a098b908f8_6f8c", "geometry": {"type": "Point", "coordinates": [106.94914702, 47.91757454]}, "geometry_name": "geom", "properties": {"guid": 3844, "id": 3844, "object_no": null, "object_name": null, "layer_type_id": 210, "valid_to": null, "address_no": null, "border_type": "solid", "border_width": null, "border_color": null, "border_opacity": null, "border_wellknown": "shape://horizline", "fill_type": "img", "fill_color": null, "fill_opacity": null, "fill_wellknown": null, "fill_shape_color": null, "fill_shape_width": null, "fill_shape_size": null, "fill_img_url": null, "marker_img_url": "marker_img_url/6397cea91a007.png"}},{"type": "Feature", "id": "layer_data_map.fid--27e80436_1a098b908f8_6f8d", "geometry": {"type": "Point", "coordinates": [106.95163097, 47.91967008]}, "geometry_name": "geom", "properties": {"guid": 3845, "id": 3845, "object_no": null, "object_name": null, "layer_type_id": 210, "valid_to": null, "address_no": null, "border_type": "solid", "border_width": null, "border_color": null, "border_opacity": null, "border_wellknown": "shape://horizline", "fill_type": "img", "fill_color": null, "fill_opacity": null, "fill_wellknown": null, "fill_shape_color": null, "fill_shape_width": null, "fill_shape_size": null, "fill_img_url": null, "marker_img_url": "marker_img_url/6397cea91a007.png"}},{"type": "Feature", "id": "layer_data_map.fid--27e80436_1a098b908f8_6f8e", "geometry": {"type": "Point", "coordinates": [106.95802482, 47.91762829]}, "geometry_name": "geom", "properties": {"guid": 3846, "id": 3846, "object_no": null, "object_name": null, "layer_type_id": 210, "valid_to": null, "address_no": null, "border_type": "solid", "border_width": null, "border_color": null, "border_opacity": null, "border_wellknown": "shape://horizline", "fill_type": "img", "fill_color": null, "fill_opacity": null, "fill_wellknown": null, "fill_shape_color": null, "fill_shape_width": null, "fill_shape_size": null, "fill_img_url": null, "marker_img_url": "marker_img_url/6397cea91a007.png"}},{"type": "Feature", "id": "layer_data_map.fid--27e80436_1a098b908f8_6f8f", "geometry": {"type": "Point", "coordinates": [106.9007742, 47.92092327]}, "geometry_name": "geom", "properties": {"guid": 3847, "id": 3847, "object_no": null, "object_name": null, "layer_type_id": 210, "valid_to": null, "address_no": null, "border_type": "solid", "border_width": null, "border_color": null, "border_opacity": null, "border_wellknown": "shape://horizline", "fill_type": "img", "fill_color": null, "fill_opacity": null, "fill_wellknown": null, "fill_shape_color": null, "fill_shape_width": null, "fill_shape_size": null, "fill_img_url": null, "marker_img_url": "marker_img_url/6397cea91a007.png"}},{"type": "Feature", "id": "layer_data_map.fid--27e80436_1a098b908f8_6f90", "geometry": {"type": "Point", "coordinates": [106.9003397, 47.92188391]}, "geometry_name": "geom", "properties": {"guid": 3848, "id": 3848, "object_no": null, "object_name": null, "layer_type_id": 210, "valid_to": null, "address_no": null, "border_type": "solid", "border_width": null, "border_color": null, "border_opacity": null, "border_wellknown": "shape://horizline", "fill_type": "img", "fill_color": null, "fill_opacity": null, "fill_wellknown": null, "fill_shape_color": null, "fill_shape_width": null, "fill_shape_size": null, "fill_img_url": null, "marker_img_url": "marker_img_url/6397cea91a007.png"}},{"type": "Feature", "id": "layer_data_map.fid--27e80436_1a098b908f8_6f91", "geometry": {"type": "Point", "coordinates": [106.90945296, 47.92009745]}, "geometry_name": "geom", "properties": {"guid": 3849, "id": 3849, "object_no": null, "object_name": null, "layer_type_id": 210, "valid_to": null, "address_no": null, "border_type": "solid", "border_width": null, "border_color": null, "border_opacity": null, "border_wellknown": "shape://horizline", "fill_type": "img", "fill_color": null, "fill_opacity": null, "fill_wellknown": null, "fill_shape_color": null, "fill_shape_width": null, "fill_shape_size": null, "fill_img_url": null, "marker_img_url": "marker_img_url/6397cea91a007.png"}},{"type": "Feature", "id": "layer_data_map.fid--27e80436_1a098b908f8_6f92", "geometry": {"type": "Point", "coordinates": [106.91495997, 47.89451051]}, "geometry_name": "geom", "properties": {"guid": 3850, "id": 3850, "object_no": null, "object_name": null, "layer_type_id": 210, "valid_to": null, "address_no": null, "border_type": "solid", "border_width": null, "border_color": null, "border_opacity": null, "border_wellknown": "shape://horizline", "fill_type": "img", "fill_color": null, "fill_opacity": null, "fill_wellknown": null, "fill_shape_color": null, "fill_shape_width": null, "fill_shape_size": null, "fill_img_url": null, "marker_img_url": "marker_img_url/6397cea91a007.png"}},{"type": "Feature", "id": "layer_data_map.fid--27e80436_1a098b908f8_6f93", "geometry": {"type": "Point", "coordinates": [106.94411787, 47.89977468]}, "geometry_name": "geom", "properties": {"guid": 3851, "id": 3851, "object_no": null, "object_name": null, "layer_type_id": 210, "valid_to": null, "address_no": null, "border_type": "solid", "border_width": null, "border_color": null, "border_opacity": null, "border_wellknown": "shape://horizline", "fill_type": "img", "fill_color": null, "fill_opacity": null, "fill_wellknown": null, "fill_shape_color": null, "fill_shape_width": null, "fill_shape_size": null, "fill_img_url": null, "marker_img_url": "marker_img_url/6397cea91a007.png"}},{"type": "Feature", "id": "layer_data_map.fid--27e80436_1a098b908f8_6f94", "geometry": {"type": "Point", "coordinates": [106.91537486, 47.88415248]}, "geometry_name": "geom", "properties": {"guid": 3852, "id": 3852, "object_no": null, "object_name": null, "layer_type_id": 210, "valid_to": null, "address_no": null, "border_type": "solid", "border_width": null, "border_color": null, "border_opacity": null, "border_wellknown": "shape://horizline", "fill_type": "img", "fill_color": null, "fill_opacity": null, "fill_wellknown": null, "fill_shape_color": null, "fill_shape_width": null, "fill_shape_size": null, "fill_img_url": null, "marker_img_url": "marker_img_url/6397cea91a007.png"}},{"type": "Feature", "id": "layer_data_map.fid--27e80436_1a098b908f8_6f95", "geometry": {"type": "Point", "coordinates": [106.91191302, 47.88605698]}, "geometry_name": "geom", "properties": {"guid": 3853, "id": 3853, "object_no": null, "object_name": null, "layer_type_id": 210, "valid_to": null, "address_no": null, "border_type": "solid", "border_width": null, "border_color": null, "border_opacity": null, "border_wellknown": "shape://horizline", "fill_type": "img", "fill_color": null, "fill_opacity": null, "fill_wellknown": null, "fill_shape_color": null, "fill_shape_width": null, "fill_shape_size": null, "fill_img_url": null, "marker_img_url": "marker_img_url/6397cea91a007.png"}},{"type": "Feature", "id": "layer_data_map.fid--27e80436_1a098b908f8_6f96", "geometry": {"type": "Point", "coordinates": [106.9161052, 47.88665814]}, "geometry_name": "geom", "properties": {"guid": 3854, "id": 3854, "object_no": null, "object_name": null, "layer_type_id": 210, "valid_to": null, "address_no": null, "border_type": "solid", "border_width": null, "border_color": null, "border_opacity": null, "border_wellknown": "shape://horizline", "fill_type": "img", "fill_color": null, "fill_opacity": null, "fill_wellknown": null, "fill_shape_color": null, "fill_shape_width": null, "fill_shape_size": null, "fill_img_url": null, "marker_img_url": "marker_img_url/6397cea91a007.png"}},{"type": "Feature", "id": "layer_data_map.fid--27e80436_1a098b908f8_6f97", "geometry": {"type": "Point", "coordinates": [106.9591733, 47.91603525]}, "geometry_name": "geom", "properties": {"guid": 3855, "id": 3855, "object_no": null, "object_name": null, "layer_type_id": 210, "valid_to": null, "address_no": null, "border_type": "solid", "border_width": null, "border_color": null, "border_opacity": null, "border_wellknown": "shape://horizline", "fill_type": "img", "fill_color": null, "fill_opacity": null, "fill_wellknown": null, "fill_shape_color": null, "fill_shape_width": null, "fill_shape_size": null, "fill_img_url": null, "marker_img_url": "marker_img_url/6397cea91a007.png"}},{"type": "Feature", "id": "layer_data_map.fid--27e80436_1a098b908f8_6f98", "geometry": {"type": "Point", "coordinates": [106.95327595, 47.92260248]}, "geometry_name": "geom", "properties": {"guid": 3856, "id": 3856, "object_no": null, "object_name": null, "layer_type_id": 210, "valid_to": null, "address_no": null, "border_type": "solid", "border_width": null, "border_color": null, "border_opacity": null, "border_wellknown": "shape://horizline", "fill_type": "img", "fill_color": null, "fill_opacity": null, "fill_wellknown": null, "fill_shape_color": null, "fill_shape_width": null, "fill_shape_size": null, "fill_img_url": null, "marker_img_url": "marker_img_url/6397cea91a007.png"}},{"type": "Feature", "id": "layer_data_map.fid--27e80436_1a098b908f8_6f99", "geometry": {"type": "Point", "coordinates": [106.92254796, 47.92176542]}, "geometry_name": "geom", "properties": {"guid": 3857, "id": 3857, "object_no": null, "object_name": null, "layer_type_id": 210, "valid_to": null, "address_no": null, "border_type": "solid", "border_width": null, "border_color": null, "border_opacity": null, "border_wellknown": "shape://horizline", "fill_type": "img", "fill_color": null, "fill_opacity": null, "fill_wellknown": null, "fill_shape_color": null, "fill_shape_width": null, "fill_shape_size": null, "fill_img_url": null, "marker_img_url": "marker_img_url/6397cea91a007.png"}},{"type": "Feature", "id": "layer_data_map.fid--27e80436_1a098b908f8_6f9a", "geometry": {"type": "Point", "coordinates": [106.874914, 47.92331974]}, "geometry_name": "geom", "properties": {"guid": 3858, "id": 3858, "object_no": null, "object_name": null, "layer_type_id": 210, "valid_to": null, "address_no": null, "border_type": "solid", "border_width": null, "border_color": null, "border_opacity": null, "border_wellknown": "shape://horizline", "fill_type": "img", "fill_color": null, "fill_opacity": null, "fill_wellknown": null, "fill_shape_color": null, "fill_shape_width": null, "fill_shape_size": null, "fill_img_url": null, "marker_img_url": "marker_img_url/6397cea91a007.png"}},{"type": "Feature", "id": "layer_data_map.fid--27e80436_1a098b908f8_6f9b", "geometry": {"type": "Point", "coordinates": [106.90474153, 47.92275004]}, "geometry_name": "geom", "properties": {"guid": 3859, "id": 3859, "object_no": null, "object_name": null, "layer_type_id": 210, "valid_to": null, "address_no": null, "border_type": "solid", "border_width": null, "border_color": null, "border_opacity": null, "border_wellknown": "shape://horizline", "fill_type": "img", "fill_color": null, "fill_opacity": null, "fill_wellknown": null, "fill_shape_color": null, "fill_shape_width": null, "fill_shape_size": null, "fill_img_url": null, "marker_img_url": "marker_img_url/6397cea91a007.png"}},{"type": "Feature", "id": "layer_data_map.fid--27e80436_1a098b908f8_6f9c", "geometry": {"type": "Point", "coordinates": [106.91950727, 47.91861192]}, "geometry_name": "geom", "properties": {"guid": 3860, "id": 3860, "object_no": null, "object_name": null, "layer_type_id": 210, "valid_to": null, "address_no": null, "border_type": "solid", "border_width": null, "border_color": null, "border_opacity": null, "border_wellknown": "shape://horizline", "fill_type": "img", "fill_color": null, "fill_opacity": null, "fill_wellknown": null, "fill_shape_color": null, "fill_shape_width": null, "fill_shape_size": null, "fill_img_url": null, "marker_img_url": "marker_img_url/6397cea91a007.png"}},{"type": "Feature", "id": "layer_data_map.fid--27e80436_1a098b908f8_6f9d", "geometry": {"type": "Point", "coordinates": [106.85327315, 47.91328552]}, "geometry_name": "geom", "properties": {"guid": 3861, "id": 3861, "object_no": null, "object_name": null, "layer_type_id": 210, "valid_to": null, "address_no": null, "border_type": "solid", "border_width": null, "border_color": null, "border_opacity": null, "border_wellknown": "shape://horizline", "fill_type": "img", "fill_color": null, "fill_opacity": null, "fill_wellknown": null, "fill_shape_color": null, "fill_shape_width": null, "fill_shape_size": null, "fill_img_url": null, "marker_img_url": "marker_img_url/6397cea91a007.png"}},{"type": "Feature", "id": "layer_data_map.fid--27e80436_1a098b908f8_6f9e", "geometry": {"type": "Point", "coordinates": [106.91444363, 47.91477137]}, "geometry_name": "geom", "properties": {"guid": 3862, "id": 3862, "object_no": null, "object_name": null, "layer_type_id": 210, "valid_to": null, "address_no": null, "border_type": "solid", "border_width": null, "border_color": null, "border_opacity": null, "border_wellknown": "shape://horizline", "fill_type": "img", "fill_color": null, "fill_opacity": null, "fill_wellknown": null, "fill_shape_color": null, "fill_shape_width": null, "fill_shape_size": null, "fill_img_url": null, "marker_img_url": "marker_img_url/6397cea91a007.png"}},{"type": "Feature", "id": "layer_data_map.fid--27e80436_1a098b908f8_6f9f", "geometry": {"type": "Point", "coordinates": [106.91953965, 47.91946429]}, "geometry_name": "geom", "properties": {"guid": 3863, "id": 3863, "object_no": null, "object_name": null, "layer_type_id": 210, "valid_to": null, "address_no": null, "border_type": "solid", "border_width": null, "border_color": null, "border_opacity": null, "border_wellknown": "shape://horizline", "fill_type": "img", "fill_color": null, "fill_opacity": null, "fill_wellknown": null, "fill_shape_color": null, "fill_shape_width": null, "fill_shape_size": null, "fill_img_url": null, "marker_img_url": "marker_img_url/6397cea91a007.png"}},{"type": "Feature", "id": "layer_data_map.fid--27e80436_1a098b908f8_6fa0", "geometry": {"type": "Point", "coordinates": [106.89340581, 47.91436045]}, "geometry_name": "geom", "properties": {"guid": 3864, "id": 3864, "object_no": null, "object_name": null, "layer_type_id": 210, "valid_to": null, "address_no": null, "border_type": "solid", "border_width": null, "border_color": null, "border_opacity": null, "border_wellknown": "shape://horizline", "fill_type": "img", "fill_color": null, "fill_opacity": null, "fill_wellknown": null, "fill_shape_color": null, "fill_shape_width": null, "fill_shape_size": null, "fill_img_url": null, "marker_img_url": "marker_img_url/6397cea91a007.png"}},{"type": "Feature", "id": "layer_data_map.fid--27e80436_1a098b908f8_6fa1", "geometry": {"type": "Point", "coordinates": [106.87355235, 47.91653323]}, "geometry_name": "geom", "properties": {"guid": 3865, "id": 3865, "object_no": null, "object_name": null, "layer_type_id": 210, "valid_to": null, "address_no": null, "border_type": "solid", "border_width": null, "border_color": null, "border_opacity": null, "border_wellknown": "shape://horizline", "fill_type": "img", "fill_color": null, "fill_opacity": null, "fill_wellknown": null, "fill_shape_color": null, "fill_shape_width": null, "fill_shape_size": null, "fill_img_url": null, "marker_img_url": "marker_img_url/6397cea91a007.png"}},{"type": "Feature", "id": "layer_data_map.fid--27e80436_1a098b908f8_6fa2", "geometry": {"type": "Point", "coordinates": [106.90718139, 47.91200306]}, "geometry_name": "geom", "properties": {"guid": 3866, "id": 3866, "object_no": null, "object_name": null, "layer_type_id": 210, "valid_to": null, "address_no": null, "border_type": "solid", "border_width": null, "border_color": null, "border_opacity": null, "border_wellknown": "shape://horizline", "fill_type": "img", "fill_color": null, "fill_opacity": null, "fill_wellknown": null, "fill_shape_color": null, "fill_shape_width": null, "fill_shape_size": null, "fill_img_url": null, "marker_img_url": "marker_img_url/6397cea91a007.png"}},{"type": "Feature", "id": "layer_data_map.fid--27e80436_1a098b908f8_6fa3", "geometry": {"type": "Point", "coordinates": [106.9194038, 47.91575289]}, "geometry_name": "geom", "properties": {"guid": 3867, "id": 3867, "object_no": null, "object_name": null, "layer_type_id": 210, "valid_to": null, "address_no": null, "border_type": "solid", "border_width": null, "border_color": null, "border_opacity": null, "border_wellknown": "shape://horizline", "fill_type": "img", "fill_color": null, "fill_opacity": null, "fill_wellknown": null, "fill_shape_color": null, "fill_shape_width": null, "fill_shape_size": null, "fill_img_url": null, "marker_img_url": "marker_img_url/6397cea91a007.png"}},{"type": "Feature", "id": "layer_data_map.fid--27e80436_1a098b908f8_6fa4", "geometry": {"type": "Point", "coordinates": [106.91087732, 47.8877739]}, "geometry_name": "geom", "properties": {"guid": 3868, "id": 3868, "object_no": null, "object_name": null, "layer_type_id": 210, "valid_to": null, "address_no": null, "border_type": "solid", "border_width": null, "border_color": null, "border_opacity": null, "border_wellknown": "shape://horizline", "fill_type": "img", "fill_color": null, "fill_opacity": null, "fill_wellknown": null, "fill_shape_color": null, "fill_shape_width": null, "fill_shape_size": null, "fill_img_url": null, "marker_img_url": "marker_img_url/6397cea91a007.png"}},{"type": "Feature", "id": "layer_data_map.fid--27e80436_1a098b908f8_6fa5", "geometry": {"type": "Point", "coordinates": [106.85125588, 47.8807584]}, "geometry_name": "geom", "properties": {"guid": 3869, "id": 3869, "object_no": null, "object_name": null, "layer_type_id": 210, "valid_to": null, "address_no": null, "border_type": "solid", "border_width": null, "border_color": null, "border_opacity": null, "border_wellknown": "shape://horizline", "fill_type": "img", "fill_color": null, "fill_opacity": null, "fill_wellknown": null, "fill_shape_color": null, "fill_shape_width": null, "fill_shape_size": null, "fill_img_url": null, "marker_img_url": "marker_img_url/6397cea91a007.png"}},{"type": "Feature", "id": "layer_data_map.fid--27e80436_1a098b908f8_6fa6", "geometry": {"type": "Point", "coordinates": [106.91385162, 47.89449681]}, "geometry_name": "geom", "properties": {"guid": 3870, "id": 3870, "object_no": null, "object_name": null, "layer_type_id": 210, "valid_to": null, "address_no": null, "border_type": "solid", "border_width": null, "border_color": null, "border_opacity": null, "border_wellknown": "shape://horizline", "fill_type": "img", "fill_color": null, "fill_opacity": null, "fill_wellknown": null, "fill_shape_color": null, "fill_shape_width": null, "fill_shape_size": null, "fill_img_url": null, "marker_img_url": "marker_img_url/6397cea91a007.png"}},{"type": "Feature", "id": "layer_data_map.fid--27e80436_1a098b908f8_6fa7", "geometry": {"type": "Point", "coordinates": [106.91821986, 47.91525622]}, "geometry_name": "geom", "properties": {"guid": 3871, "id": 3871, "object_no": null, "object_name": null, "layer_type_id": 210, "valid_to": null, "address_no": null, "border_type": "solid", "border_width": null, "border_color": null, "border_opacity": null, "border_wellknown": "shape://horizline", "fill_type": "img", "fill_color": null, "fill_opacity": null, "fill_wellknown": null, "fill_shape_color": null, "fill_shape_width": null, "fill_shape_size": null, "fill_img_url": null, "marker_img_url": "marker_img_url/6397cea91a007.png"}},{"type": "Feature", "id": "layer_data_map.fid--27e80436_1a098b908f8_6fa8", "geometry": {"type": "Point", "coordinates": [106.90739998, 47.92027606]}, "geometry_name": "geom", "properties": {"guid": 3872, "id": 3872, "object_no": null, "object_name": null, "layer_type_id": 210, "valid_to": null, "address_no": null, "border_type": "solid", "border_width": null, "border_color": null, "border_opacity": null, "border_wellknown": "shape://horizline", "fill_type": "img", "fill_color": null, "fill_opacity": null, "fill_wellknown": null, "fill_shape_color": null, "fill_shape_width": null, "fill_shape_size": null, "fill_img_url": null, "marker_img_url": "marker_img_url/6397cea91a007.png"}},{"type": "Feature", "id": "layer_data_map.fid--27e80436_1a098b908f8_6fa9", "geometry": {"type": "Point", "coordinates": [106.92100572, 47.92728811]}, "geometry_name": "geom", "properties": {"guid": 3873, "id": 3873, "object_no": null, "object_name": null, "layer_type_id": 210, "valid_to": null, "address_no": null, "border_type": "solid", "border_width": null, "border_color": null, "border_opacity": null, "border_wellknown": "shape://horizline", "fill_type": "img", "fill_color": null, "fill_opacity": null, "fill_wellknown": null, "fill_shape_color": null, "fill_shape_width": null, "fill_shape_size": null, "fill_img_url": null, "marker_img_url": "marker_img_url/6397cea91a007.png"}},{"type": "Feature", "id": "layer_data_map.fid--27e80436_1a098b908f8_6faa", "geometry": {"type": "Point", "coordinates": [106.93480673, 47.91830663]}, "geometry_name": "geom", "properties": {"guid": 3874, "id": 3874, "object_no": null, "object_name": null, "layer_type_id": 210, "valid_to": null, "address_no": null, "border_type": "solid", "border_width": null, "border_color": null, "border_opacity": null, "border_wellknown": "shape://horizline", "fill_type": "img", "fill_color": null, "fill_opacity": null, "fill_wellknown": null, "fill_shape_color": null, "fill_shape_width": null, "fill_shape_size": null, "fill_img_url": null, "marker_img_url": "marker_img_url/6397cea91a007.png"}},{"type": "Feature", "id": "layer_data_map.fid--27e80436_1a098b908f8_6fab", "geometry": {"type": "Point", "coordinates": [106.9591733, 47.91603525]}, "geometry_name": "geom", "properties": {"guid": 3875, "id": 3875, "object_no": null, "object_name": null, "layer_type_id": 210, "valid_to": null, "address_no": null, "border_type": "solid", "border_width": null, "border_color": null, "border_opacity": null, "border_wellknown": "shape://horizline", "fill_type": "img", "fill_color": null, "fill_opacity": null, "fill_wellknown": null, "fill_shape_color": null, "fill_shape_width": null, "fill_shape_size": null, "fill_img_url": null, "marker_img_url": "marker_img_url/6397cea91a007.png"}},{"type": "Feature", "id": "layer_data_map.fid--27e80436_1a098b908f8_6fac", "geometry": {"type": "Point", "coordinates": [106.99523352, 47.9067426]}, "geometry_name": "geom", "properties": {"guid": 3876, "id": 3876, "object_no": null, "object_name": null, "layer_type_id": 210, "valid_to": null, "address_no": null, "border_type": "solid", "border_width": null, "border_color": null, "border_opacity": null, "border_wellknown": "shape://horizline", "fill_type": "img", "fill_color": null, "fill_opacity": null, "fill_wellknown": null, "fill_shape_color": null, "fill_shape_width": null, "fill_shape_size": null, "fill_img_url": null, "marker_img_url": "marker_img_url/6397cea91a007.png"}},{"type": "Feature", "id": "layer_data_map.fid--27e80436_1a098b908f8_6fad", "geometry": {"type": "Point", "coordinates": [106.91784483, 47.91423554]}, "geometry_name": "geom", "properties": {"guid": 3877, "id": 3877, "object_no": null, "object_name": null, "layer_type_id": 210, "valid_to": null, "address_no": null, "border_type": "solid", "border_width": null, "border_color": null, "border_opacity": null, "border_wellknown": "shape://horizline", "fill_type": "img", "fill_color": null, "fill_opacity": null, "fill_wellknown": null, "fill_shape_color": null, "fill_shape_width": null, "fill_shape_size": null, "fill_img_url": null, "marker_img_url": "marker_img_url/6397cea91a007.png"}},{"type": "Feature", "id": "layer_data_map.fid--27e80436_1a098b908f8_6fae", "geometry": {"type": "Point", "coordinates": [106.92050257, 47.91524098]}, "geometry_name": "geom", "properties": {"guid": 3878, "id": 3878, "object_no": null, "object_name": null, "layer_type_id": 210, "valid_to": null, "address_no": null, "border_type": "solid", "border_width": null, "border_color": null, "border_opacity": null, "border_wellknown": "shape://horizline", "fill_type": "img", "fill_color": null, "fill_opacity": null, "fill_wellknown": null, "fill_shape_color": null, "fill_shape_width": null, "fill_shape_size": null, "fill_img_url": null, "marker_img_url": "marker_img_url/6397cea91a007.png"}},{"type": "Feature", "id": "layer_data_map.fid--27e80436_1a098b908f8_6faf", "geometry": {"type": "Point", "coordinates": [106.92175808, 47.92206014]}, "geometry_name": "geom", "properties": {"guid": 3879, "id": 3879, "object_no": null, "object_name": null, "layer_type_id": 210, "valid_to": null, "address_no": null, "border_type": "solid", "border_width": null, "border_color": null, "border_opacity": null, "border_wellknown": "shape://horizline", "fill_type": "img", "fill_color": null, "fill_opacity": null, "fill_wellknown": null, "fill_shape_color": null, "fill_shape_width": null, "fill_shape_size": null, "fill_img_url": null, "marker_img_url": "marker_img_url/6397cea91a007.png"}},{"type": "Feature", "id": "layer_data_map.fid--27e80436_1a098b908f8_6fb0", "geometry": {"type": "Point", "coordinates": [106.90958692, 47.91388885]}, "geometry_name": "geom", "properties": {"guid": 3880, "id": 3880, "object_no": null, "object_name": null, "layer_type_id": 210, "valid_to": null, "address_no": null, "border_type": "solid", "border_width": null, "border_color": null, "border_opacity": null, "border_wellknown": "shape://horizline", "fill_type": "img", "fill_color": null, "fill_opacity": null, "fill_wellknown": null, "fill_shape_color": null, "fill_shape_width": null, "fill_shape_size": null, "fill_img_url": null, "marker_img_url": "marker_img_url/6397cea91a007.png"}},{"type": "Feature", "id": "layer_data_map.fid--27e80436_1a098b908f8_6fb1", "geometry": {"type": "Point", "coordinates": [106.90639883, 47.91897723]}, "geometry_name": "geom", "properties": {"guid": 3881, "id": 3881, "object_no": null, "object_name": null, "layer_type_id": 210, "valid_to": null, "address_no": null, "border_type": "solid", "border_width": null, "border_color": null, "border_opacity": null, "border_wellknown": "shape://horizline", "fill_type": "img", "fill_color": null, "fill_opacity": null, "fill_wellknown": null, "fill_shape_color": null, "fill_shape_width": null, "fill_shape_size": null, "fill_img_url": null, "marker_img_url": "marker_img_url/6397cea91a007.png"}},{"type": "Feature", "id": "layer_data_map.fid--27e80436_1a098b908f8_6fb2", "geometry": {"type": "Point", "coordinates": [106.92159893, 47.91866262]}, "geometry_name": "geom", "properties": {"guid": 3882, "id": 3882, "object_no": null, "object_name": null, "layer_type_id": 210, "valid_to": null, "address_no": null, "border_type": "solid", "border_width": null, "border_color": null, "border_opacity": null, "border_wellknown": "shape://horizline", "fill_type": "img", "fill_color": null, "fill_opacity": null, "fill_wellknown": null, "fill_shape_color": null, "fill_shape_width": null, "fill_shape_size": null, "fill_img_url": null, "marker_img_url": "marker_img_url/6397cea91a007.png"}},{"type": "Feature", "id": "layer_data_map.fid--27e80436_1a098b908f8_6fb3", "geometry": {"type": "Point", "coordinates": [106.91465518, 47.9146178]}, "geometry_name": "geom", "properties": {"guid": 3883, "id": 3883, "object_no": null, "object_name": null, "layer_type_id": 210, "valid_to": null, "address_no": null, "border_type": "solid", "border_width": null, "border_color": null, "border_opacity": null, "border_wellknown": "shape://horizline", "fill_type": "img", "fill_color": null, "fill_opacity": null, "fill_wellknown": null, "fill_shape_color": null, "fill_shape_width": null, "fill_shape_size": null, "fill_img_url": null, "marker_img_url": "marker_img_url/6397cea91a007.png"}},{"type": "Feature", "id": "layer_data_map.fid--27e80436_1a098b908f8_6fb4", "geometry": {"type": "Point", "coordinates": [106.91955474, 47.91975584]}, "geometry_name": "geom", "properties": {"guid": 3884, "id": 3884, "object_no": null, "object_name": null, "layer_type_id": 210, "valid_to": null, "address_no": null, "border_type": "solid", "border_width": null, "border_color": null, "border_opacity": null, "border_wellknown": "shape://horizline", "fill_type": "img", "fill_color": null, "fill_opacity": null, "fill_wellknown": null, "fill_shape_color": null, "fill_shape_width": null, "fill_shape_size": null, "fill_img_url": null, "marker_img_url": "marker_img_url/6397cea91a007.png"}},{"type": "Feature", "id": "layer_data_map.fid--27e80436_1a098b908f8_6fb5", "geometry": {"type": "Point", "coordinates": [106.93467181, 47.8926108]}, "geometry_name": "geom", "properties": {"guid": 3885, "id": 3885, "object_no": null, "object_name": null, "layer_type_id": 210, "valid_to": null, "address_no": null, "border_type": "solid", "border_width": null, "border_color": null, "border_opacity": null, "border_wellknown": "shape://horizline", "fill_type": "img", "fill_color": null, "fill_opacity": null, "fill_wellknown": null, "fill_shape_color": null, "fill_shape_width": null, "fill_shape_size": null, "fill_img_url": null, "marker_img_url": "marker_img_url/6397cea91a007.png"}},{"type": "Feature", "id": "layer_data_map.fid--27e80436_1a098b908f8_6fb6", "geometry": {"type": "Point", "coordinates": [106.76108721, 47.85202894]}, "geometry_name": "geom", "properties": {"guid": 3886, "id": 3886, "object_no": null, "object_name": null, "layer_type_id": 210, "valid_to": null, "address_no": null, "border_type": "solid", "border_width": null, "border_color": null, "border_opacity": null, "border_wellknown": "shape://horizline", "fill_type": "img", "fill_color": null, "fill_opacity": null, "fill_wellknown": null, "fill_shape_color": null, "fill_shape_width": null, "fill_shape_size": null, "fill_img_url": null, "marker_img_url": "marker_img_url/6397cea91a007.png"}},{"type": "Feature", "id": "layer_data_map.fid--27e80436_1a098b908f8_6fb7", "geometry": {"type": "Point", "coordinates": [106.92108654, 47.91982879]}, "geometry_name": "geom", "properties": {"guid": 3887, "id": 3887, "object_no": null, "object_name": null, "layer_type_id": 210, "valid_to": null, "address_no": null, "border_type": "solid", "border_width": null, "border_color": null, "border_opacity": null, "border_wellknown": "shape://horizline", "fill_type": "img", "fill_color": null, "fill_opacity": null, "fill_wellknown": null, "fill_shape_color": null, "fill_shape_width": null, "fill_shape_size": null, "fill_img_url": null, "marker_img_url": "marker_img_url/6397cea91a007.png"}},{"type": "Feature", "id": "layer_data_map.fid--27e80436_1a098b908f8_6fb8", "geometry": {"type": "Point", "coordinates": [106.91291874, 47.91137784]}, "geometry_name": "geom", "properties": {"guid": 3888, "id": 3888, "object_no": null, "object_name": null, "layer_type_id": 210, "valid_to": null, "address_no": null, "border_type": "solid", "border_width": null, "border_color": null, "border_opacity": null, "border_wellknown": "shape://horizline", "fill_type": "img", "fill_color": null, "fill_opacity": null, "fill_wellknown": null, "fill_shape_color": null, "fill_shape_width": null, "fill_shape_size": null, "fill_img_url": null, "marker_img_url": "marker_img_url/6397cea91a007.png"}},{"type": "Feature", "id": "layer_data_map.fid--27e80436_1a098b908f8_6fb9", "geometry": {"type": "Point", "coordinates": [106.91585234, 47.91201476]}, "geometry_name": "geom", "properties": {"guid": 3889, "id": 3889, "object_no": null, "object_name": null, "layer_type_id": 210, "valid_to": null, "address_no": null, "border_type": "solid", "border_width": null, "border_color": null, "border_opacity": null, "border_wellknown": "shape://horizline", "fill_type": "img", "fill_color": null, "fill_opacity": null, "fill_wellknown": null, "fill_shape_color": null, "fill_shape_width": null, "fill_shape_size": null, "fill_img_url": null, "marker_img_url": "marker_img_url/6397cea91a007.png"}},{"type": "Feature", "id": "layer_data_map.fid--27e80436_1a098b908f8_6fba", "geometry": {"type": "Point", "coordinates": [106.88518291, 47.91514197]}, "geometry_name": "geom", "properties": {"guid": 3890, "id": 3890, "object_no": null, "object_name": null, "layer_type_id": 210, "valid_to": null, "address_no": null, "border_type": "solid", "border_width": null, "border_color": null, "border_opacity": null, "border_wellknown": "shape://horizline", "fill_type": "img", "fill_color": null, "fill_opacity": null, "fill_wellknown": null, "fill_shape_color": null, "fill_shape_width": null, "fill_shape_size": null, "fill_img_url": null, "marker_img_url": "marker_img_url/6397cea91a007.png"}},{"type": "Feature", "id": "layer_data_map.fid--27e80436_1a098b908f8_6fbb", "geometry": {"type": "Point", "coordinates": [106.95165655, 47.92307224]}, "geometry_name": "geom", "properties": {"guid": 3891, "id": 3891, "object_no": null, "object_name": null, "layer_type_id": 210, "valid_to": null, "address_no": null, "border_type": "solid", "border_width": null, "border_color": null, "border_opacity": null, "border_wellknown": "shape://horizline", "fill_type": "img", "fill_color": null, "fill_opacity": null, "fill_wellknown": null, "fill_shape_color": null, "fill_shape_width": null, "fill_shape_size": null, "fill_img_url": null, "marker_img_url": "marker_img_url/6397cea91a007.png"}},{"type": "Feature", "id": "layer_data_map.fid--27e80436_1a098b908f8_6fbc", "geometry": {"type": "Point", "coordinates": [106.91603908, 47.91274442]}, "geometry_name": "geom", "properties": {"guid": 3892, "id": 3892, "object_no": null, "object_name": null, "layer_type_id": 210, "valid_to": null, "address_no": null, "border_type": "solid", "border_width": null, "border_color": null, "border_opacity": null, "border_wellknown": "shape://horizline", "fill_type": "img", "fill_color": null, "fill_opacity": null, "fill_wellknown": null, "fill_shape_color": null, "fill_shape_width": null, "fill_shape_size": null, "fill_img_url": null, "marker_img_url": "marker_img_url/6397cea91a007.png"}},{"type": "Feature", "id": "layer_data_map.fid--27e80436_1a098b908f8_6fbd", "geometry": {"type": "Point", "coordinates": [106.90384947, 47.91413687]}, "geometry_name": "geom", "properties": {"guid": 3893, "id": 3893, "object_no": null, "object_name": null, "layer_type_id": 210, "valid_to": null, "address_no": null, "border_type": "solid", "border_width": null, "border_color": null, "border_opacity": null, "border_wellknown": "shape://horizline", "fill_type": "img", "fill_color": null, "fill_opacity": null, "fill_wellknown": null, "fill_shape_color": null, "fill_shape_width": null, "fill_shape_size": null, "fill_img_url": null, "marker_img_url": "marker_img_url/6397cea91a007.png"}},{"type": "Feature", "id": "layer_data_map.fid--27e80436_1a098b908f8_6fbe", "geometry": {"type": "Point", "coordinates": [106.91421889, 47.92519179]}, "geometry_name": "geom", "properties": {"guid": 3894, "id": 3894, "object_no": null, "object_name": null, "layer_type_id": 210, "valid_to": null, "address_no": null, "border_type": "solid", "border_width": null, "border_color": null, "border_opacity": null, "border_wellknown": "shape://horizline", "fill_type": "img", "fill_color": null, "fill_opacity": null, "fill_wellknown": null, "fill_shape_color": null, "fill_shape_width": null, "fill_shape_size": null, "fill_img_url": null, "marker_img_url": "marker_img_url/6397cea91a007.png"}},{"type": "Feature", "id": "layer_data_map.fid--27e80436_1a098b908f8_6fbf", "geometry": {"type": "Point", "coordinates": [106.93046714, 47.90842794]}, "geometry_name": "geom", "properties": {"guid": 3895, "id": 3895, "object_no": null, "object_name": null, "layer_type_id": 210, "valid_to": null, "address_no": null, "border_type": "solid", "border_width": null, "border_color": null, "border_opacity": null, "border_wellknown": "shape://horizline", "fill_type": "img", "fill_color": null, "fill_opacity": null, "fill_wellknown": null, "fill_shape_color": null, "fill_shape_width": null, "fill_shape_size": null, "fill_img_url": null, "marker_img_url": "marker_img_url/6397cea91a007.png"}},{"type": "Feature", "id": "layer_data_map.fid--27e80436_1a098b908f8_6fc0", "geometry": {"type": "Point", "coordinates": [106.90004864, 47.92316952]}, "geometry_name": "geom", "properties": {"guid": 3896, "id": 3896, "object_no": null, "object_name": null, "layer_type_id": 210, "valid_to": null, "address_no": null, "border_type": "solid", "border_width": null, "border_color": null, "border_opacity": null, "border_wellknown": "shape://horizline", "fill_type": "img", "fill_color": null, "fill_opacity": null, "fill_wellknown": null, "fill_shape_color": null, "fill_shape_width": null, "fill_shape_size": null, "fill_img_url": null, "marker_img_url": "marker_img_url/6397cea91a007.png"}}]}