{"type":"FeatureCollection","features":[{"type": "Feature", "id": "layer_data_map.fid--27e80436_1a098b908f8_7ea1", "geometry": {"type": "Point", "coordinates": [106.91251606, 47.90204792]}, "geometry_name": "geom", "properties": {"guid": 11202, "id": 11202, "object_no": null, "object_name": null, "layer_type_id": 203, "valid_to": null, "address_no": null, "border_type": "solid", "border_width": null, "border_color": null, "border_opacity": null, "border_wellknown": "horizline", "fill_type": "color", "fill_color": "#9fc5e8", "fill_opacity": 1, "fill_wellknown": "horizline", "fill_shape_color": null, "fill_shape_width": null, "fill_shape_size": null, "fill_img_url": null, "marker_img_url": null}},{"type": "Feature", "id": "layer_data_map.fid--27e80436_1a098b908f8_7ea2", "geometry": {"type": "Point", "coordinates": [106.88352812, 47.9253378]}, "geometry_name": "geom", "properties": {"guid": 11203, "id": 11203, "object_no": null, "object_name": null, "layer_type_id": 203, "valid_to": null, "address_no": null, "border_type": "solid", "border_width": null, "border_color": null, "border_opacity": null, "border_wellknown": "horizline", "fill_type": "color", "fill_color": "#9fc5e8", "fill_opacity": 1, "fill_wellknown": "horizline", "fill_shape_color": null, "fill_shape_width": null, "fill_shape_size": null, "fill_img_url": null, "marker_img_url": null}},{"type": "Feature", "id": "layer_data_map.fid--27e80436_1a098b908f8_7ea3", "geometry": {"type": "Point", "coordinates": [106.86366875, 47.91937548]}, "geometry_name": "geom", "properties": {"guid": 11204, "id": 11204, "object_no": null, "object_name": null, "layer_type_id": 203, "valid_to": null, "address_no": null, "border_type": "solid", "border_width": null, "border_color": null, "border_opacity": null, "border_wellknown": "horizline", "fill_type": "color", "fill_color": "#9fc5e8", "fill_opacity": 1, "fill_wellknown": "horizline", "fill_shape_color": null, "fill_shape_width": null, "fill_shape_size": null, "fill_img_url": null, "marker_img_url": null}},{"type": "Feature", "id": "layer_data_map.fid--27e80436_1a098b908f8_7ea4", "geometry": {"type": "Point", "coordinates": [106.73638484, 47.93899017]}, "geometry_name": "geom", "properties": {"guid": 11205, "id": 11205, "object_no": null, "object_name": null, "layer_type_id": 203, "valid_to": null, "address_no": null, "border_type": "solid", "border_width": null, "border_color": null, "border_opacity": null, "border_wellknown": "horizline", "fill_type": "color", "fill_color": "#9fc5e8", "fill_opacity": 1, "fill_wellknown": "horizline", "fill_shape_color": null, "fill_shape_width": null, "fill_shape_size": null, "fill_img_url": null, "marker_img_url": null}},{"type": "Feature", "id": "layer_data_map.fid--27e80436_1a098b908f8_7ea5", "geometry": {"type": "Point", "coordinates": [106.90646409, 47.93628454]}, "geometry_name": "geom", "properties": {"guid": 11206, "id": 11206, "object_no": null, "object_name": null, "layer_type_id": 203, "valid_to": null, "address_no": null, "border_type": "solid", "border_width": null, "border_color": null, "border_opacity": null, "border_wellknown": "horizline", "fill_type": "color", "fill_color": "#9fc5e8", "fill_opacity": 1, "fill_wellknown": "horizline", "fill_shape_color": null, "fill_shape_width": null, "fill_shape_size": null, "fill_img_url": null, "marker_img_url": null}},{"type": "Feature", "id": "layer_data_map.fid--27e80436_1a098b908f8_7ea6", "geometry": {"type": "Point", "coordinates": [107.11708097, 47.87886495]}, "geometry_name": "geom", "properties": {"guid": 11207, "id": 11207, "object_no": null, "object_name": null, "layer_type_id": 203, "valid_to": null, "address_no": null, "border_type": "solid", "border_width": null, "border_color": null, "border_opacity": null, "border_wellknown": "horizline", "fill_type": "color", "fill_color": "#9fc5e8", "fill_opacity": 1, "fill_wellknown": "horizline", "fill_shape_color": null, "fill_shape_width": null, "fill_shape_size": null, "fill_img_url": null, "marker_img_url": null}},{"type": "Feature", "id": "layer_data_map.fid--27e80436_1a098b908f8_7ea7", "geometry": {"type": "Point", "coordinates": [106.96990229, 47.91513787]}, "geometry_name": "geom", "properties": {"guid": 11208, "id": 11208, "object_no": null, "object_name": null, "layer_type_id": 203, "valid_to": null, "address_no": null, "border_type": "solid", "border_width": null, "border_color": null, "border_opacity": null, "border_wellknown": "horizline", "fill_type": "color", "fill_color": "#9fc5e8", "fill_opacity": 1, "fill_wellknown": "horizline", "fill_shape_color": null, "fill_shape_width": null, "fill_shape_size": null, "fill_img_url": null, "marker_img_url": null}},{"type": "Feature", "id": "layer_data_map.fid--27e80436_1a098b908f8_7ea8", "geometry": {"type": "Point", "coordinates": [106.92488226, 47.92701695]}, "geometry_name": "geom", "properties": {"guid": 11209, "id": 11209, "object_no": null, "object_name": null, "layer_type_id": 203, "valid_to": null, "address_no": null, "border_type": "solid", "border_width": null, "border_color": null, "border_opacity": null, "border_wellknown": "horizline", "fill_type": "color", "fill_color": "#9fc5e8", "fill_opacity": 1, "fill_wellknown": "horizline", "fill_shape_color": null, "fill_shape_width": null, "fill_shape_size": null, "fill_img_url": null, "marker_img_url": null}},{"type": "Feature", "id": "layer_data_map.fid--27e80436_1a098b908f8_7ea9", "geometry": {"type": "Point", "coordinates": [106.92190813, 47.92601117]}, "geometry_name": "geom", "properties": {"guid": 11210, "id": 11210, "object_no": null, "object_name": null, "layer_type_id": 203, "valid_to": null, "address_no": null, "border_type": "solid", "border_width": null, "border_color": null, "border_opacity": null, "border_wellknown": "horizline", "fill_type": "color", "fill_color": "#9fc5e8", "fill_opacity": 1, "fill_wellknown": "horizline", "fill_shape_color": null, "fill_shape_width": null, "fill_shape_size": null, "fill_img_url": null, "marker_img_url": null}},{"type": "Feature", "id": "layer_data_map.fid--27e80436_1a098b908f8_7eaa", "geometry": {"type": "Point", "coordinates": [106.83207473, 47.91297628]}, "geometry_name": "geom", "properties": {"guid": 11211, "id": 11211, "object_no": null, "object_name": null, "layer_type_id": 203, "valid_to": null, "address_no": null, "border_type": "solid", "border_width": null, "border_color": null, "border_opacity": null, "border_wellknown": "horizline", "fill_type": "color", "fill_color": "#9fc5e8", "fill_opacity": 1, "fill_wellknown": "horizline", "fill_shape_color": null, "fill_shape_width": null, "fill_shape_size": null, "fill_img_url": null, "marker_img_url": null}},{"type": "Feature", "id": "layer_data_map.fid--27e80436_1a098b908f8_7eab", "geometry": {"type": "Point", "coordinates": [106.80490211, 47.85857824]}, "geometry_name": "geom", "properties": {"guid": 11212, "id": 11212, "object_no": null, "object_name": null, "layer_type_id": 203, "valid_to": null, "address_no": null, "border_type": "solid", "border_width": null, "border_color": null, "border_opacity": null, "border_wellknown": "horizline", "fill_type": "color", "fill_color": "#9fc5e8", "fill_opacity": 1, "fill_wellknown": "horizline", "fill_shape_color": null, "fill_shape_width": null, "fill_shape_size": null, "fill_img_url": null, "marker_img_url": null}},{"type": "Feature", "id": "layer_data_map.fid--27e80436_1a098b908f8_7eac", "geometry": {"type": "Point", "coordinates": [106.76241698, 47.85966036]}, "geometry_name": "geom", "properties": {"guid": 11213, "id": 11213, "object_no": null, "object_name": null, "layer_type_id": 203, "valid_to": null, "address_no": null, "border_type": "solid", "border_width": null, "border_color": null, "border_opacity": null, "border_wellknown": "horizline", "fill_type": "color", "fill_color": "#9fc5e8", "fill_opacity": 1, "fill_wellknown": "horizline", "fill_shape_color": null, "fill_shape_width": null, "fill_shape_size": null, "fill_img_url": null, "marker_img_url": null}},{"type": "Feature", "id": "layer_data_map.fid--27e80436_1a098b908f8_7ead", "geometry": {"type": "Point", "coordinates": [106.909091, 47.91953735]}, "geometry_name": "geom", "properties": {"guid": 11214, "id": 11214, "object_no": null, "object_name": null, "layer_type_id": 203, "valid_to": null, "address_no": null, "border_type": "solid", "border_width": null, "border_color": null, "border_opacity": null, "border_wellknown": "horizline", "fill_type": "color", "fill_color": "#9fc5e8", "fill_opacity": 1, "fill_wellknown": "horizline", "fill_shape_color": null, "fill_shape_width": null, "fill_shape_size": null, "fill_img_url": null, "marker_img_url": null}},{"type": "Feature", "id": "layer_data_map.fid--27e80436_1a098b908f8_7eae", "geometry": {"type": "Point", "coordinates": [106.87357076, 47.9230465]}, "geometry_name": "geom", "properties": {"guid": 11215, "id": 11215, "object_no": null, "object_name": null, "layer_type_id": 203, "valid_to": null, "address_no": null, "border_type": "solid", "border_width": null, "border_color": null, "border_opacity": null, "border_wellknown": "horizline", "fill_type": "color", "fill_color": "#9fc5e8", "fill_opacity": 1, "fill_wellknown": "horizline", "fill_shape_color": null, "fill_shape_width": null, "fill_shape_size": null, "fill_img_url": null, "marker_img_url": null}},{"type": "Feature", "id": "layer_data_map.fid--27e80436_1a098b908f8_7eaf", "geometry": {"type": "Point", "coordinates": [106.87947175, 47.92524511]}, "geometry_name": "geom", "properties": {"guid": 11216, "id": 11216, "object_no": null, "object_name": null, "layer_type_id": 203, "valid_to": null, "address_no": null, "border_type": "solid", "border_width": null, "border_color": null, "border_opacity": null, "border_wellknown": "horizline", "fill_type": "color", "fill_color": "#9fc5e8", "fill_opacity": 1, "fill_wellknown": "horizline", "fill_shape_color": null, "fill_shape_width": null, "fill_shape_size": null, "fill_img_url": null, "marker_img_url": null}},{"type": "Feature", "id": "layer_data_map.fid--27e80436_1a098b908f8_7eb0", "geometry": {"type": "Point", "coordinates": [106.88814664, 47.92349456]}, "geometry_name": "geom", "properties": {"guid": 11217, "id": 11217, "object_no": null, "object_name": null, "layer_type_id": 203, "valid_to": null, "address_no": null, "border_type": "solid", "border_width": null, "border_color": null, "border_opacity": null, "border_wellknown": "horizline", "fill_type": "color", "fill_color": "#9fc5e8", "fill_opacity": 1, "fill_wellknown": "horizline", "fill_shape_color": null, "fill_shape_width": null, "fill_shape_size": null, "fill_img_url": null, "marker_img_url": null}},{"type": "Feature", "id": "layer_data_map.fid--27e80436_1a098b908f8_7eb1", "geometry": {"type": "Point", "coordinates": [106.86218719, 47.92182462]}, "geometry_name": "geom", "properties": {"guid": 11218, "id": 11218, "object_no": null, "object_name": null, "layer_type_id": 203, "valid_to": null, "address_no": null, "border_type": "solid", "border_width": null, "border_color": null, "border_opacity": null, "border_wellknown": "horizline", "fill_type": "color", "fill_color": "#9fc5e8", "fill_opacity": 1, "fill_wellknown": "horizline", "fill_shape_color": null, "fill_shape_width": null, "fill_shape_size": null, "fill_img_url": null, "marker_img_url": null}},{"type": "Feature", "id": "layer_data_map.fid--27e80436_1a098b908f8_7eb2", "geometry": {"type": "Point", "coordinates": [106.88049706, 47.91027968]}, "geometry_name": "geom", "properties": {"guid": 11219, "id": 11219, "object_no": null, "object_name": null, "layer_type_id": 203, "valid_to": null, "address_no": null, "border_type": "solid", "border_width": null, "border_color": null, "border_opacity": null, "border_wellknown": "horizline", "fill_type": "color", "fill_color": "#9fc5e8", "fill_opacity": 1, "fill_wellknown": "horizline", "fill_shape_color": null, "fill_shape_width": null, "fill_shape_size": null, "fill_img_url": null, "marker_img_url": null}},{"type": "Feature", "id": "layer_data_map.fid--27e80436_1a098b908f8_7eb3", "geometry": {"type": "Point", "coordinates": [106.86644954, 47.92200314]}, "geometry_name": "geom", "properties": {"guid": 11220, "id": 11220, "object_no": null, "object_name": null, "layer_type_id": 203, "valid_to": null, "address_no": null, "border_type": "solid", "border_width": null, "border_color": null, "border_opacity": null, "border_wellknown": "horizline", "fill_type": "color", "fill_color": "#9fc5e8", "fill_opacity": 1, "fill_wellknown": "horizline", "fill_shape_color": null, "fill_shape_width": null, "fill_shape_size": null, "fill_img_url": null, "marker_img_url": null}},{"type": "Feature", "id": "layer_data_map.fid--27e80436_1a098b908f8_7eb4", "geometry": {"type": "Point", "coordinates": [106.8824615, 47.91274206]}, "geometry_name": "geom", "properties": {"guid": 11221, "id": 11221, "object_no": null, "object_name": null, "layer_type_id": 203, "valid_to": null, "address_no": null, "border_type": "solid", "border_width": null, "border_color": null, "border_opacity": null, "border_wellknown": "horizline", "fill_type": "color", "fill_color": "#9fc5e8", "fill_opacity": 1, "fill_wellknown": "horizline", "fill_shape_color": null, "fill_shape_width": null, "fill_shape_size": null, "fill_img_url": null, "marker_img_url": null}},{"type": "Feature", "id": "layer_data_map.fid--27e80436_1a098b908f8_7eb5", "geometry": {"type": "Point", "coordinates": [106.89986444, 47.90717323]}, "geometry_name": "geom", "properties": {"guid": 11222, "id": 11222, "object_no": null, "object_name": null, "layer_type_id": 203, "valid_to": null, "address_no": null, "border_type": "solid", "border_width": null, "border_color": null, "border_opacity": null, "border_wellknown": "horizline", "fill_type": "color", "fill_color": "#9fc5e8", "fill_opacity": 1, "fill_wellknown": "horizline", "fill_shape_color": null, "fill_shape_width": null, "fill_shape_size": null, "fill_img_url": null, "marker_img_url": null}},{"type": "Feature", "id": "layer_data_map.fid--27e80436_1a098b908f8_7eb6", "geometry": {"type": "Point", "coordinates": [106.87813957, 47.9230704]}, "geometry_name": "geom", "properties": {"guid": 11223, "id": 11223, "object_no": null, "object_name": null, "layer_type_id": 203, "valid_to": null, "address_no": null, "border_type": "solid", "border_width": null, "border_color": null, "border_opacity": null, "border_wellknown": "horizline", "fill_type": "color", "fill_color": "#9fc5e8", "fill_opacity": 1, "fill_wellknown": "horizline", "fill_shape_color": null, "fill_shape_width": null, "fill_shape_size": null, "fill_img_url": null, "marker_img_url": null}},{"type": "Feature", "id": "layer_data_map.fid--27e80436_1a098b908f8_7eb7", "geometry": {"type": "Point", "coordinates": [106.8611097, 47.91278339]}, "geometry_name": "geom", "properties": {"guid": 11224, "id": 11224, "object_no": null, "object_name": null, "layer_type_id": 203, "valid_to": null, "address_no": null, "border_type": "solid", "border_width": null, "border_color": null, "border_opacity": null, "border_wellknown": "horizline", "fill_type": "color", "fill_color": "#9fc5e8", "fill_opacity": 1, "fill_wellknown": "horizline", "fill_shape_color": null, "fill_shape_width": null, "fill_shape_size": null, "fill_img_url": null, "marker_img_url": null}},{"type": "Feature", "id": "layer_data_map.fid--27e80436_1a098b908f8_7eb8", "geometry": {"type": "Point", "coordinates": [106.87944175, 47.91345211]}, "geometry_name": "geom", "properties": {"guid": 11225, "id": 11225, "object_no": null, "object_name": null, "layer_type_id": 203, "valid_to": null, "address_no": null, "border_type": "solid", "border_width": null, "border_color": null, "border_opacity": null, "border_wellknown": "horizline", "fill_type": "color", "fill_color": "#9fc5e8", "fill_opacity": 1, "fill_wellknown": "horizline", "fill_shape_color": null, "fill_shape_width": null, "fill_shape_size": null, "fill_img_url": null, "marker_img_url": null}},{"type": "Feature", "id": "layer_data_map.fid--27e80436_1a098b908f8_7eb9", "geometry": {"type": "Point", "coordinates": [106.86647984, 47.914471]}, "geometry_name": "geom", "properties": {"guid": 11226, "id": 11226, "object_no": null, "object_name": null, "layer_type_id": 203, "valid_to": null, "address_no": null, "border_type": "solid", "border_width": null, "border_color": null, "border_opacity": null, "border_wellknown": "horizline", "fill_type": "color", "fill_color": "#9fc5e8", "fill_opacity": 1, "fill_wellknown": "horizline", "fill_shape_color": null, "fill_shape_width": null, "fill_shape_size": null, "fill_img_url": null, "marker_img_url": null}},{"type": "Feature", "id": "layer_data_map.fid--27e80436_1a098b908f8_7eba", "geometry": {"type": "Point", "coordinates": [106.89742726, 47.92255224]}, "geometry_name": "geom", "properties": {"guid": 11227, "id": 11227, "object_no": null, "object_name": null, "layer_type_id": 203, "valid_to": null, "address_no": null, "border_type": "solid", "border_width": null, "border_color": null, "border_opacity": null, "border_wellknown": "horizline", "fill_type": "color", "fill_color": "#9fc5e8", "fill_opacity": 1, "fill_wellknown": "horizline", "fill_shape_color": null, "fill_shape_width": null, "fill_shape_size": null, "fill_img_url": null, "marker_img_url": null}},{"type": "Feature", "id": "layer_data_map.fid--27e80436_1a098b908f8_7ebb", "geometry": {"type": "Point", "coordinates": [106.86343056, 47.91417861]}, "geometry_name": "geom", "properties": {"guid": 11228, "id": 11228, "object_no": null, "object_name": null, "layer_type_id": 203, "valid_to": null, "address_no": null, "border_type": "solid", "border_width": null, "border_color": null, "border_opacity": null, "border_wellknown": "horizline", "fill_type": "color", "fill_color": "#9fc5e8", "fill_opacity": 1, "fill_wellknown": "horizline", "fill_shape_color": null, "fill_shape_width": null, "fill_shape_size": null, "fill_img_url": null, "marker_img_url": null}},{"type": "Feature", "id": "layer_data_map.fid--27e80436_1a098b908f8_7ebc", "geometry": {"type": "Point", "coordinates": [106.89132701, 47.9188105]}, "geometry_name": "geom", "properties": {"guid": 11229, "id": 11229, "object_no": null, "object_name": null, "layer_type_id": 203, "valid_to": null, "address_no": null, "border_type": "solid", "border_width": null, "border_color": null, "border_opacity": null, "border_wellknown": "horizline", "fill_type": "color", "fill_color": "#9fc5e8", "fill_opacity": 1, "fill_wellknown": "horizline", "fill_shape_color": null, "fill_shape_width": null, "fill_shape_size": null, "fill_img_url": null, "marker_img_url": null}},{"type": "Feature", "id": "layer_data_map.fid--27e80436_1a098b908f8_7ebd", "geometry": {"type": "Point", "coordinates": [106.88982906, 47.92072951]}, "geometry_name": "geom", "properties": {"guid": 11230, "id": 11230, "object_no": null, "object_name": null, "layer_type_id": 203, "valid_to": null, "address_no": null, "border_type": "solid", "border_width": null, "border_color": null, "border_opacity": null, "border_wellknown": "horizline", "fill_type": "color", "fill_color": "#9fc5e8", "fill_opacity": 1, "fill_wellknown": "horizline", "fill_shape_color": null, "fill_shape_width": null, "fill_shape_size": null, "fill_img_url": null, "marker_img_url": null}},{"type": "Feature", "id": "layer_data_map.fid--27e80436_1a098b908f8_7ebe", "geometry": {"type": "Point", "coordinates": [106.87487193, 47.92395591]}, "geometry_name": "geom", "properties": {"guid": 11231, "id": 11231, "object_no": null, "object_name": null, "layer_type_id": 203, "valid_to": null, "address_no": null, "border_type": "solid", "border_width": null, "border_color": null, "border_opacity": null, "border_wellknown": "horizline", "fill_type": "color", "fill_color": "#9fc5e8", "fill_opacity": 1, "fill_wellknown": "horizline", "fill_shape_color": null, "fill_shape_width": null, "fill_shape_size": null, "fill_img_url": null, "marker_img_url": null}},{"type": "Feature", "id": "layer_data_map.fid--27e80436_1a098b908f8_7ebf", "geometry": {"type": "Point", "coordinates": [106.87472558, 47.92229802]}, "geometry_name": "geom", "properties": {"guid": 11232, "id": 11232, "object_no": null, "object_name": null, "layer_type_id": 203, "valid_to": null, "address_no": null, "border_type": "solid", "border_width": null, "border_color": null, "border_opacity": null, "border_wellknown": "horizline", "fill_type": "color", "fill_color": "#9fc5e8", "fill_opacity": 1, "fill_wellknown": "horizline", "fill_shape_color": null, "fill_shape_width": null, "fill_shape_size": null, "fill_img_url": null, "marker_img_url": null}},{"type": "Feature", "id": "layer_data_map.fid--27e80436_1a098b908f8_7ec0", "geometry": {"type": "Point", "coordinates": [106.87491651, 47.92384273]}, "geometry_name": "geom", "properties": {"guid": 11233, "id": 11233, "object_no": null, "object_name": null, "layer_type_id": 203, "valid_to": null, "address_no": null, "border_type": "solid", "border_width": null, "border_color": null, "border_opacity": null, "border_wellknown": "horizline", "fill_type": "color", "fill_color": "#9fc5e8", "fill_opacity": 1, "fill_wellknown": "horizline", "fill_shape_color": null, "fill_shape_width": null, "fill_shape_size": null, "fill_img_url": null, "marker_img_url": null}},{"type": "Feature", "id": "layer_data_map.fid--27e80436_1a098b908f8_7ec1", "geometry": {"type": "Point", "coordinates": [106.89018589, 47.92079847]}, "geometry_name": "geom", "properties": {"guid": 11234, "id": 11234, "object_no": null, "object_name": null, "layer_type_id": 203, "valid_to": null, "address_no": null, "border_type": "solid", "border_width": null, "border_color": null, "border_opacity": null, "border_wellknown": "horizline", "fill_type": "color", "fill_color": "#9fc5e8", "fill_opacity": 1, "fill_wellknown": "horizline", "fill_shape_color": null, "fill_shape_width": null, "fill_shape_size": null, "fill_img_url": null, "marker_img_url": null}},{"type": "Feature", "id": "layer_data_map.fid--27e80436_1a098b908f8_7ec2", "geometry": {"type": "Point", "coordinates": [106.87704119, 47.92020955]}, "geometry_name": "geom", "properties": {"guid": 11235, "id": 11235, "object_no": null, "object_name": null, "layer_type_id": 203, "valid_to": null, "address_no": null, "border_type": "solid", "border_width": null, "border_color": null, "border_opacity": null, "border_wellknown": "horizline", "fill_type": "color", "fill_color": "#9fc5e8", "fill_opacity": 1, "fill_wellknown": "horizline", "fill_shape_color": null, "fill_shape_width": null, "fill_shape_size": null, "fill_img_url": null, "marker_img_url": null}},{"type": "Feature", "id": "layer_data_map.fid--27e80436_1a098b908f8_7ec3", "geometry": {"type": "Point", "coordinates": [106.92837861, 47.90583884]}, "geometry_name": "geom", "properties": {"guid": 11236, "id": 11236, "object_no": null, "object_name": null, "layer_type_id": 203, "valid_to": null, "address_no": null, "border_type": "solid", "border_width": null, "border_color": null, "border_opacity": null, "border_wellknown": "horizline", "fill_type": "color", "fill_color": "#9fc5e8", "fill_opacity": 1, "fill_wellknown": "horizline", "fill_shape_color": null, "fill_shape_width": null, "fill_shape_size": null, "fill_img_url": null, "marker_img_url": null}},{"type": "Feature", "id": "layer_data_map.fid--27e80436_1a098b908f8_7ec4", "geometry": {"type": "Point", "coordinates": [106.93300279, 47.90560866]}, "geometry_name": "geom", "properties": {"guid": 11237, "id": 11237, "object_no": null, "object_name": null, "layer_type_id": 203, "valid_to": null, "address_no": null, "border_type": "solid", "border_width": null, "border_color": null, "border_opacity": null, "border_wellknown": "horizline", "fill_type": "color", "fill_color": "#9fc5e8", "fill_opacity": 1, "fill_wellknown": "horizline", "fill_shape_color": null, "fill_shape_width": null, "fill_shape_size": null, "fill_img_url": null, "marker_img_url": null}},{"type": "Feature", "id": "layer_data_map.fid--27e80436_1a098b908f8_7ec5", "geometry": {"type": "Point", "coordinates": [106.93673074, 47.90398458]}, "geometry_name": "geom", "properties": {"guid": 11238, "id": 11238, "object_no": null, "object_name": null, "layer_type_id": 203, "valid_to": null, "address_no": null, "border_type": "solid", "border_width": null, "border_color": null, "border_opacity": null, "border_wellknown": "horizline", "fill_type": "color", "fill_color": "#9fc5e8", "fill_opacity": 1, "fill_wellknown": "horizline", "fill_shape_color": null, "fill_shape_width": null, "fill_shape_size": null, "fill_img_url": null, "marker_img_url": null}},{"type": "Feature", "id": "layer_data_map.fid--27e80436_1a098b908f8_7ec6", "geometry": {"type": "Point", "coordinates": [106.94156475, 47.90509243]}, "geometry_name": "geom", "properties": {"guid": 11239, "id": 11239, "object_no": null, "object_name": null, "layer_type_id": 203, "valid_to": null, "address_no": null, "border_type": "solid", "border_width": null, "border_color": null, "border_opacity": null, "border_wellknown": "horizline", "fill_type": "color", "fill_color": "#9fc5e8", "fill_opacity": 1, "fill_wellknown": "horizline", "fill_shape_color": null, "fill_shape_width": null, "fill_shape_size": null, "fill_img_url": null, "marker_img_url": null}},{"type": "Feature", "id": "layer_data_map.fid--27e80436_1a098b908f8_7ec7", "geometry": {"type": "Point", "coordinates": [106.94176106, 47.91005522]}, "geometry_name": "geom", "properties": {"guid": 11240, "id": 11240, "object_no": null, "object_name": null, "layer_type_id": 203, "valid_to": null, "address_no": null, "border_type": "solid", "border_width": null, "border_color": null, "border_opacity": null, "border_wellknown": "horizline", "fill_type": "color", "fill_color": "#9fc5e8", "fill_opacity": 1, "fill_wellknown": "horizline", "fill_shape_color": null, "fill_shape_width": null, "fill_shape_size": null, "fill_img_url": null, "marker_img_url": null}},{"type": "Feature", "id": "layer_data_map.fid--27e80436_1a098b908f8_7ec8", "geometry": {"type": "Point", "coordinates": [106.94207597, 47.91283821]}, "geometry_name": "geom", "properties": {"guid": 11241, "id": 11241, "object_no": null, "object_name": null, "layer_type_id": 203, "valid_to": null, "address_no": null, "border_type": "solid", "border_width": null, "border_color": null, "border_opacity": null, "border_wellknown": "horizline", "fill_type": "color", "fill_color": "#9fc5e8", "fill_opacity": 1, "fill_wellknown": "horizline", "fill_shape_color": null, "fill_shape_width": null, "fill_shape_size": null, "fill_img_url": null, "marker_img_url": null}},{"type": "Feature", "id": "layer_data_map.fid--27e80436_1a098b908f8_7ec9", "geometry": {"type": "Point", "coordinates": [106.94398338, 47.91245988]}, "geometry_name": "geom", "properties": {"guid": 11242, "id": 11242, "object_no": null, "object_name": null, "layer_type_id": 203, "valid_to": null, "address_no": null, "border_type": "solid", "border_width": null, "border_color": null, "border_opacity": null, "border_wellknown": "horizline", "fill_type": "color", "fill_color": "#9fc5e8", "fill_opacity": 1, "fill_wellknown": "horizline", "fill_shape_color": null, "fill_shape_width": null, "fill_shape_size": null, "fill_img_url": null, "marker_img_url": null}},{"type": "Feature", "id": "layer_data_map.fid--27e80436_1a098b908f8_7eca", "geometry": {"type": "Point", "coordinates": [106.94432716, 47.9145911]}, "geometry_name": "geom", "properties": {"guid": 11243, "id": 11243, "object_no": null, "object_name": null, "layer_type_id": 203, "valid_to": null, "address_no": null, "border_type": "solid", "border_width": null, "border_color": null, "border_opacity": null, "border_wellknown": "horizline", "fill_type": "color", "fill_color": "#9fc5e8", "fill_opacity": 1, "fill_wellknown": "horizline", "fill_shape_color": null, "fill_shape_width": null, "fill_shape_size": null, "fill_img_url": null, "marker_img_url": null}},{"type": "Feature", "id": "layer_data_map.fid--27e80436_1a098b908f8_7ecb", "geometry": {"type": "Point", "coordinates": [106.94584889, 47.9176702]}, "geometry_name": "geom", "properties": {"guid": 11244, "id": 11244, "object_no": null, "object_name": null, "layer_type_id": 203, "valid_to": null, "address_no": null, "border_type": "solid", "border_width": null, "border_color": null, "border_opacity": null, "border_wellknown": "horizline", "fill_type": "color", "fill_color": "#9fc5e8", "fill_opacity": 1, "fill_wellknown": "horizline", "fill_shape_color": null, "fill_shape_width": null, "fill_shape_size": null, "fill_img_url": null, "marker_img_url": null}},{"type": "Feature", "id": "layer_data_map.fid--27e80436_1a098b908f8_7ecc", "geometry": {"type": "Point", "coordinates": [106.94879837, 47.91641971]}, "geometry_name": "geom", "properties": {"guid": 11245, "id": 11245, "object_no": null, "object_name": null, "layer_type_id": 203, "valid_to": null, "address_no": null, "border_type": "solid", "border_width": null, "border_color": null, "border_opacity": null, "border_wellknown": "horizline", "fill_type": "color", "fill_color": "#9fc5e8", "fill_opacity": 1, "fill_wellknown": "horizline", "fill_shape_color": null, "fill_shape_width": null, "fill_shape_size": null, "fill_img_url": null, "marker_img_url": null}},{"type": "Feature", "id": "layer_data_map.fid--27e80436_1a098b908f8_7ecd", "geometry": {"type": "Point", "coordinates": [106.97963044, 47.92348675]}, "geometry_name": "geom", "properties": {"guid": 11246, "id": 11246, "object_no": null, "object_name": null, "layer_type_id": 203, "valid_to": null, "address_no": null, "border_type": "solid", "border_width": null, "border_color": null, "border_opacity": null, "border_wellknown": "horizline", "fill_type": "color", "fill_color": "#9fc5e8", "fill_opacity": 1, "fill_wellknown": "horizline", "fill_shape_color": null, "fill_shape_width": null, "fill_shape_size": null, "fill_img_url": null, "marker_img_url": null}},{"type": "Feature", "id": "layer_data_map.fid--27e80436_1a098b908f8_7ece", "geometry": {"type": "Point", "coordinates": [106.98562377, 47.91990187]}, "geometry_name": "geom", "properties": {"guid": 11247, "id": 11247, "object_no": null, "object_name": null, "layer_type_id": 203, "valid_to": null, "address_no": null, "border_type": "solid", "border_width": null, "border_color": null, "border_opacity": null, "border_wellknown": "horizline", "fill_type": "color", "fill_color": "#9fc5e8", "fill_opacity": 1, "fill_wellknown": "horizline", "fill_shape_color": null, "fill_shape_width": null, "fill_shape_size": null, "fill_img_url": null, "marker_img_url": null}},{"type": "Feature", "id": "layer_data_map.fid--27e80436_1a098b908f8_7ecf", "geometry": {"type": "Point", "coordinates": [106.95182226, 47.9180855]}, "geometry_name": "geom", "properties": {"guid": 11248, "id": 11248, "object_no": null, "object_name": null, "layer_type_id": 203, "valid_to": null, "address_no": null, "border_type": "solid", "border_width": null, "border_color": null, "border_opacity": null, "border_wellknown": "horizline", "fill_type": "color", "fill_color": "#9fc5e8", "fill_opacity": 1, "fill_wellknown": "horizline", "fill_shape_color": null, "fill_shape_width": null, "fill_shape_size": null, "fill_img_url": null, "marker_img_url": null}},{"type": "Feature", "id": "layer_data_map.fid--27e80436_1a098b908f8_7ed0", "geometry": {"type": "Point", "coordinates": [106.94574674, 47.92033184]}, "geometry_name": "geom", "properties": {"guid": 11249, "id": 11249, "object_no": null, "object_name": null, "layer_type_id": 203, "valid_to": null, "address_no": null, "border_type": "solid", "border_width": null, "border_color": null, "border_opacity": null, "border_wellknown": "horizline", "fill_type": "color", "fill_color": "#9fc5e8", "fill_opacity": 1, "fill_wellknown": "horizline", "fill_shape_color": null, "fill_shape_width": null, "fill_shape_size": null, "fill_img_url": null, "marker_img_url": null}},{"type": "Feature", "id": "layer_data_map.fid--27e80436_1a098b908f8_7ed1", "geometry": {"type": "Point", "coordinates": [106.94731808, 47.92213979]}, "geometry_name": "geom", "properties": {"guid": 11250, "id": 11250, "object_no": null, "object_name": null, "layer_type_id": 203, "valid_to": null, "address_no": null, "border_type": "solid", "border_width": null, "border_color": null, "border_opacity": null, "border_wellknown": "horizline", "fill_type": "color", "fill_color": "#9fc5e8", "fill_opacity": 1, "fill_wellknown": "horizline", "fill_shape_color": null, "fill_shape_width": null, "fill_shape_size": null, "fill_img_url": null, "marker_img_url": null}},{"type": "Feature", "id": "layer_data_map.fid--27e80436_1a098b908f8_7ed2", "geometry": {"type": "Point", "coordinates": [106.93559914, 47.92468542]}, "geometry_name": "geom", "properties": {"guid": 11251, "id": 11251, "object_no": null, "object_name": null, "layer_type_id": 203, "valid_to": null, "address_no": null, "border_type": "solid", "border_width": null, "border_color": null, "border_opacity": null, "border_wellknown": "horizline", "fill_type": "color", "fill_color": "#9fc5e8", "fill_opacity": 1, "fill_wellknown": "horizline", "fill_shape_color": null, "fill_shape_width": null, "fill_shape_size": null, "fill_img_url": null, "marker_img_url": null}},{"type": "Feature", "id": "layer_data_map.fid--27e80436_1a098b908f8_7ed3", "geometry": {"type": "Point", "coordinates": [106.81751706, 47.91779069]}, "geometry_name": "geom", "properties": {"guid": 11252, "id": 11252, "object_no": null, "object_name": null, "layer_type_id": 203, "valid_to": null, "address_no": null, "border_type": "solid", "border_width": null, "border_color": null, "border_opacity": null, "border_wellknown": "horizline", "fill_type": "color", "fill_color": "#9fc5e8", "fill_opacity": 1, "fill_wellknown": "horizline", "fill_shape_color": null, "fill_shape_width": null, "fill_shape_size": null, "fill_img_url": null, "marker_img_url": null}},{"type": "Feature", "id": "layer_data_map.fid--27e80436_1a098b908f8_7ed4", "geometry": {"type": "Point", "coordinates": [106.95016515, 47.91808567]}, "geometry_name": "geom", "properties": {"guid": 11253, "id": 11253, "object_no": null, "object_name": null, "layer_type_id": 203, "valid_to": null, "address_no": null, "border_type": "solid", "border_width": null, "border_color": null, "border_opacity": null, "border_wellknown": "horizline", "fill_type": "color", "fill_color": "#9fc5e8", "fill_opacity": 1, "fill_wellknown": "horizline", "fill_shape_color": null, "fill_shape_width": null, "fill_shape_size": null, "fill_img_url": null, "marker_img_url": null}},{"type": "Feature", "id": "layer_data_map.fid--27e80436_1a098b908f8_7ed5", "geometry": {"type": "Point", "coordinates": [106.93101895, 47.90190192]}, "geometry_name": "geom", "properties": {"guid": 11254, "id": 11254, "object_no": null, "object_name": null, "layer_type_id": 203, "valid_to": null, "address_no": null, "border_type": "solid", "border_width": null, "border_color": null, "border_opacity": null, "border_wellknown": "horizline", "fill_type": "color", "fill_color": "#9fc5e8", "fill_opacity": 1, "fill_wellknown": "horizline", "fill_shape_color": null, "fill_shape_width": null, "fill_shape_size": null, "fill_img_url": null, "marker_img_url": null}},{"type": "Feature", "id": "layer_data_map.fid--27e80436_1a098b908f8_7ed6", "geometry": {"type": "Point", "coordinates": [106.95822795, 47.91828266]}, "geometry_name": "geom", "properties": {"guid": 11255, "id": 11255, "object_no": null, "object_name": null, "layer_type_id": 203, "valid_to": null, "address_no": null, "border_type": "solid", "border_width": null, "border_color": null, "border_opacity": null, "border_wellknown": "horizline", "fill_type": "color", "fill_color": "#9fc5e8", "fill_opacity": 1, "fill_wellknown": "horizline", "fill_shape_color": null, "fill_shape_width": null, "fill_shape_size": null, "fill_img_url": null, "marker_img_url": null}},{"type": "Feature", "id": "layer_data_map.fid--27e80436_1a098b908f8_7ed7", "geometry": {"type": "Point", "coordinates": [106.94089651, 47.91581787]}, "geometry_name": "geom", "properties": {"guid": 11256, "id": 11256, "object_no": null, "object_name": null, "layer_type_id": 203, "valid_to": null, "address_no": null, "border_type": "solid", "border_width": null, "border_color": null, "border_opacity": null, "border_wellknown": "horizline", "fill_type": "color", "fill_color": "#9fc5e8", "fill_opacity": 1, "fill_wellknown": "horizline", "fill_shape_color": null, "fill_shape_width": null, "fill_shape_size": null, "fill_img_url": null, "marker_img_url": null}},{"type": "Feature", "id": "layer_data_map.fid--27e80436_1a098b908f8_7ed8", "geometry": {"type": "Point", "coordinates": [106.94190279, 47.91829438]}, "geometry_name": "geom", "properties": {"guid": 11257, "id": 11257, "object_no": null, "object_name": null, "layer_type_id": 203, "valid_to": null, "address_no": null, "border_type": "solid", "border_width": null, "border_color": null, "border_opacity": null, "border_wellknown": "horizline", "fill_type": "color", "fill_color": "#9fc5e8", "fill_opacity": 1, "fill_wellknown": "horizline", "fill_shape_color": null, "fill_shape_width": null, "fill_shape_size": null, "fill_img_url": null, "marker_img_url": null}},{"type": "Feature", "id": "layer_data_map.fid--27e80436_1a098b908f8_7ed9", "geometry": {"type": "Point", "coordinates": [106.93392547, 47.9218413]}, "geometry_name": "geom", "properties": {"guid": 11258, "id": 11258, "object_no": null, "object_name": null, "layer_type_id": 203, "valid_to": null, "address_no": null, "border_type": "solid", "border_width": null, "border_color": null, "border_opacity": null, "border_wellknown": "horizline", "fill_type": "color", "fill_color": "#9fc5e8", "fill_opacity": 1, "fill_wellknown": "horizline", "fill_shape_color": null, "fill_shape_width": null, "fill_shape_size": null, "fill_img_url": null, "marker_img_url": null}},{"type": "Feature", "id": "layer_data_map.fid--27e80436_1a098b908f8_7eda", "geometry": {"type": "Point", "coordinates": [106.96765347, 47.91567568]}, "geometry_name": "geom", "properties": {"guid": 11259, "id": 11259, "object_no": null, "object_name": null, "layer_type_id": 203, "valid_to": null, "address_no": null, "border_type": "solid", "border_width": null, "border_color": null, "border_opacity": null, "border_wellknown": "horizline", "fill_type": "color", "fill_color": "#9fc5e8", "fill_opacity": 1, "fill_wellknown": "horizline", "fill_shape_color": null, "fill_shape_width": null, "fill_shape_size": null, "fill_img_url": null, "marker_img_url": null}},{"type": "Feature", "id": "layer_data_map.fid--27e80436_1a098b908f8_7edb", "geometry": {"type": "Point", "coordinates": [106.93334533, 47.91759188]}, "geometry_name": "geom", "properties": {"guid": 11260, "id": 11260, "object_no": null, "object_name": null, "layer_type_id": 203, "valid_to": null, "address_no": null, "border_type": "solid", "border_width": null, "border_color": null, "border_opacity": null, "border_wellknown": "horizline", "fill_type": "color", "fill_color": "#9fc5e8", "fill_opacity": 1, "fill_wellknown": "horizline", "fill_shape_color": null, "fill_shape_width": null, "fill_shape_size": null, "fill_img_url": null, "marker_img_url": null}},{"type": "Feature", "id": "layer_data_map.fid--27e80436_1a098b908f8_7edc", "geometry": {"type": "Point", "coordinates": [106.96457417, 47.92192536]}, "geometry_name": "geom", "properties": {"guid": 11261, "id": 11261, "object_no": null, "object_name": null, "layer_type_id": 203, "valid_to": null, "address_no": null, "border_type": "solid", "border_width": null, "border_color": null, "border_opacity": null, "border_wellknown": "horizline", "fill_type": "color", "fill_color": "#9fc5e8", "fill_opacity": 1, "fill_wellknown": "horizline", "fill_shape_color": null, "fill_shape_width": null, "fill_shape_size": null, "fill_img_url": null, "marker_img_url": null}},{"type": "Feature", "id": "layer_data_map.fid--27e80436_1a098b908f8_7edd", "geometry": {"type": "Point", "coordinates": [106.93640658, 47.90214146]}, "geometry_name": "geom", "properties": {"guid": 11262, "id": 11262, "object_no": null, "object_name": null, "layer_type_id": 203, "valid_to": null, "address_no": null, "border_type": "solid", "border_width": null, "border_color": null, "border_opacity": null, "border_wellknown": "horizline", "fill_type": "color", "fill_color": "#9fc5e8", "fill_opacity": 1, "fill_wellknown": "horizline", "fill_shape_color": null, "fill_shape_width": null, "fill_shape_size": null, "fill_img_url": null, "marker_img_url": null}},{"type": "Feature", "id": "layer_data_map.fid--27e80436_1a098b908f8_7ede", "geometry": {"type": "Point", "coordinates": [106.94051956, 47.92188702]}, "geometry_name": "geom", "properties": {"guid": 11263, "id": 11263, "object_no": null, "object_name": null, "layer_type_id": 203, "valid_to": null, "address_no": null, "border_type": "solid", "border_width": null, "border_color": null, "border_opacity": null, "border_wellknown": "horizline", "fill_type": "color", "fill_color": "#9fc5e8", "fill_opacity": 1, "fill_wellknown": "horizline", "fill_shape_color": null, "fill_shape_width": null, "fill_shape_size": null, "fill_img_url": null, "marker_img_url": null}},{"type": "Feature", "id": "layer_data_map.fid--27e80436_1a098b908f8_7edf", "geometry": {"type": "Point", "coordinates": [106.94755313, 47.9171601]}, "geometry_name": "geom", "properties": {"guid": 11264, "id": 11264, "object_no": null, "object_name": null, "layer_type_id": 203, "valid_to": null, "address_no": null, "border_type": "solid", "border_width": null, "border_color": null, "border_opacity": null, "border_wellknown": "horizline", "fill_type": "color", "fill_color": "#9fc5e8", "fill_opacity": 1, "fill_wellknown": "horizline", "fill_shape_color": null, "fill_shape_width": null, "fill_shape_size": null, "fill_img_url": null, "marker_img_url": null}},{"type": "Feature", "id": "layer_data_map.fid--27e80436_1a098b908f8_7ee0", "geometry": {"type": "Point", "coordinates": [106.93163513, 47.91522197]}, "geometry_name": "geom", "properties": {"guid": 11265, "id": 11265, "object_no": null, "object_name": null, "layer_type_id": 203, "valid_to": null, "address_no": null, "border_type": "solid", "border_width": null, "border_color": null, "border_opacity": null, "border_wellknown": "horizline", "fill_type": "color", "fill_color": "#9fc5e8", "fill_opacity": 1, "fill_wellknown": "horizline", "fill_shape_color": null, "fill_shape_width": null, "fill_shape_size": null, "fill_img_url": null, "marker_img_url": null}},{"type": "Feature", "id": "layer_data_map.fid--27e80436_1a098b908f8_7ee1", "geometry": {"type": "Point", "coordinates": [106.94271078, 47.90702234]}, "geometry_name": "geom", "properties": {"guid": 11266, "id": 11266, "object_no": null, "object_name": null, "layer_type_id": 203, "valid_to": null, "address_no": null, "border_type": "solid", "border_width": null, "border_color": null, "border_opacity": null, "border_wellknown": "horizline", "fill_type": "color", "fill_color": "#9fc5e8", "fill_opacity": 1, "fill_wellknown": "horizline", "fill_shape_color": null, "fill_shape_width": null, "fill_shape_size": null, "fill_img_url": null, "marker_img_url": null}},{"type": "Feature", "id": "layer_data_map.fid--27e80436_1a098b908f8_7ee2", "geometry": {"type": "Point", "coordinates": [106.93383193, 47.92233178]}, "geometry_name": "geom", "properties": {"guid": 11267, "id": 11267, "object_no": null, "object_name": null, "layer_type_id": 203, "valid_to": null, "address_no": null, "border_type": "solid", "border_width": null, "border_color": null, "border_opacity": null, "border_wellknown": "horizline", "fill_type": "color", "fill_color": "#9fc5e8", "fill_opacity": 1, "fill_wellknown": "horizline", "fill_shape_color": null, "fill_shape_width": null, "fill_shape_size": null, "fill_img_url": null, "marker_img_url": null}},{"type": "Feature", "id": "layer_data_map.fid--27e80436_1a098b908f8_7ee3", "geometry": {"type": "Point", "coordinates": [108.36707333, 47.77897829]}, "geometry_name": "geom", "properties": {"guid": 11268, "id": 11268, "object_no": null, "object_name": null, "layer_type_id": 203, "valid_to": null, "address_no": null, "border_type": "solid", "border_width": null, "border_color": null, "border_opacity": null, "border_wellknown": "horizline", "fill_type": "color", "fill_color": "#9fc5e8", "fill_opacity": 1, "fill_wellknown": "horizline", "fill_shape_color": null, "fill_shape_width": null, "fill_shape_size": null, "fill_img_url": null, "marker_img_url": null}},{"type": "Feature", "id": "layer_data_map.fid--27e80436_1a098b908f8_7ee4", "geometry": {"type": "Point", "coordinates": [108.37927577, 47.7851011]}, "geometry_name": "geom", "properties": {"guid": 11269, "id": 11269, "object_no": null, "object_name": null, "layer_type_id": 203, "valid_to": null, "address_no": null, "border_type": "solid", "border_width": null, "border_color": null, "border_opacity": null, "border_wellknown": "horizline", "fill_type": "color", "fill_color": "#9fc5e8", "fill_opacity": 1, "fill_wellknown": "horizline", "fill_shape_color": null, "fill_shape_width": null, "fill_shape_size": null, "fill_img_url": null, "marker_img_url": null}},{"type": "Feature", "id": "layer_data_map.fid--27e80436_1a098b908f8_7ee5", "geometry": {"type": "Point", "coordinates": [108.37213605, 47.77739421]}, "geometry_name": "geom", "properties": {"guid": 11270, "id": 11270, "object_no": null, "object_name": null, "layer_type_id": 203, "valid_to": null, "address_no": null, "border_type": "solid", "border_width": null, "border_color": null, "border_opacity": null, "border_wellknown": "horizline", "fill_type": "color", "fill_color": "#9fc5e8", "fill_opacity": 1, "fill_wellknown": "horizline", "fill_shape_color": null, "fill_shape_width": null, "fill_shape_size": null, "fill_img_url": null, "marker_img_url": null}},{"type": "Feature", "id": "layer_data_map.fid--27e80436_1a098b908f8_7ee6", "geometry": {"type": "Point", "coordinates": [108.37199479, 47.77743836]}, "geometry_name": "geom", "properties": {"guid": 11271, "id": 11271, "object_no": null, "object_name": null, "layer_type_id": 203, "valid_to": null, "address_no": null, "border_type": "solid", "border_width": null, "border_color": null, "border_opacity": null, "border_wellknown": "horizline", "fill_type": "color", "fill_color": "#9fc5e8", "fill_opacity": 1, "fill_wellknown": "horizline", "fill_shape_color": null, "fill_shape_width": null, "fill_shape_size": null, "fill_img_url": null, "marker_img_url": null}},{"type": "Feature", "id": "layer_data_map.fid--27e80436_1a098b908f8_7ee7", "geometry": {"type": "Point", "coordinates": [106.75220435, 47.9206018]}, "geometry_name": "geom", "properties": {"guid": 11272, "id": 11272, "object_no": null, "object_name": null, "layer_type_id": 203, "valid_to": null, "address_no": null, "border_type": "solid", "border_width": null, "border_color": null, "border_opacity": null, "border_wellknown": "horizline", "fill_type": "color", "fill_color": "#9fc5e8", "fill_opacity": 1, "fill_wellknown": "horizline", "fill_shape_color": null, "fill_shape_width": null, "fill_shape_size": null, "fill_img_url": null, "marker_img_url": null}},{"type": "Feature", "id": "layer_data_map.fid--27e80436_1a098b908f8_7ee8", "geometry": {"type": "Point", "coordinates": [106.82787076, 47.91138639]}, "geometry_name": "geom", "properties": {"guid": 11273, "id": 11273, "object_no": null, "object_name": null, "layer_type_id": 203, "valid_to": null, "address_no": null, "border_type": "solid", "border_width": null, "border_color": null, "border_opacity": null, "border_wellknown": "horizline", "fill_type": "color", "fill_color": "#9fc5e8", "fill_opacity": 1, "fill_wellknown": "horizline", "fill_shape_color": null, "fill_shape_width": null, "fill_shape_size": null, "fill_img_url": null, "marker_img_url": null}},{"type": "Feature", "id": "layer_data_map.fid--27e80436_1a098b908f8_7ee9", "geometry": {"type": "Point", "coordinates": [106.828293, 47.91257061]}, "geometry_name": "geom", "properties": {"guid": 11274, "id": 11274, "object_no": null, "object_name": null, "layer_type_id": 203, "valid_to": null, "address_no": null, "border_type": "solid", "border_width": null, "border_color": null, "border_opacity": null, "border_wellknown": "horizline", "fill_type": "color", "fill_color": "#9fc5e8", "fill_opacity": 1, "fill_wellknown": "horizline", "fill_shape_color": null, "fill_shape_width": null, "fill_shape_size": null, "fill_img_url": null, "marker_img_url": null}},{"type": "Feature", "id": "layer_data_map.fid--27e80436_1a098b908f8_7eea", "geometry": {"type": "Point", "coordinates": [106.811612, 47.91000665]}, "geometry_name": "geom", "properties": {"guid": 11275, "id": 11275, "object_no": null, "object_name": null, "layer_type_id": 203, "valid_to": null, "address_no": null, "border_type": "solid", "border_width": null, "border_color": null, "border_opacity": null, "border_wellknown": "horizline", "fill_type": "color", "fill_color": "#9fc5e8", "fill_opacity": 1, "fill_wellknown": "horizline", "fill_shape_color": null, "fill_shape_width": null, "fill_shape_size": null, "fill_img_url": null, "marker_img_url": null}},{"type": "Feature", "id": "layer_data_map.fid--27e80436_1a098b908f8_7eeb", "geometry": {"type": "Point", "coordinates": [106.83851617, 47.91433267]}, "geometry_name": "geom", "properties": {"guid": 11276, "id": 11276, "object_no": null, "object_name": null, "layer_type_id": 203, "valid_to": null, "address_no": null, "border_type": "solid", "border_width": null, "border_color": null, "border_opacity": null, "border_wellknown": "horizline", "fill_type": "color", "fill_color": "#9fc5e8", "fill_opacity": 1, "fill_wellknown": "horizline", "fill_shape_color": null, "fill_shape_width": null, "fill_shape_size": null, "fill_img_url": null, "marker_img_url": null}},{"type": "Feature", "id": "layer_data_map.fid--27e80436_1a098b908f8_7eec", "geometry": {"type": "Point", "coordinates": [106.81186269, 47.92221914]}, "geometry_name": "geom", "properties": {"guid": 11277, "id": 11277, "object_no": null, "object_name": null, "layer_type_id": 203, "valid_to": null, "address_no": null, "border_type": "solid", "border_width": null, "border_color": null, "border_opacity": null, "border_wellknown": "horizline", "fill_type": "color", "fill_color": "#9fc5e8", "fill_opacity": 1, "fill_wellknown": "horizline", "fill_shape_color": null, "fill_shape_width": null, "fill_shape_size": null, "fill_img_url": null, "marker_img_url": null}},{"type": "Feature", "id": "layer_data_map.fid--27e80436_1a098b908f8_7eed", "geometry": {"type": "Point", "coordinates": [106.81324676, 47.92250106]}, "geometry_name": "geom", "properties": {"guid": 11278, "id": 11278, "object_no": null, "object_name": null, "layer_type_id": 203, "valid_to": null, "address_no": null, "border_type": "solid", "border_width": null, "border_color": null, "border_opacity": null, "border_wellknown": "horizline", "fill_type": "color", "fill_color": "#9fc5e8", "fill_opacity": 1, "fill_wellknown": "horizline", "fill_shape_color": null, "fill_shape_width": null, "fill_shape_size": null, "fill_img_url": null, "marker_img_url": null}},{"type": "Feature", "id": "layer_data_map.fid--27e80436_1a098b908f8_7eee", "geometry": {"type": "Point", "coordinates": [106.90871743, 47.90944091]}, "geometry_name": "geom", "properties": {"guid": 11279, "id": 11279, "object_no": null, "object_name": null, "layer_type_id": 203, "valid_to": null, "address_no": null, "border_type": "solid", "border_width": null, "border_color": null, "border_opacity": null, "border_wellknown": "horizline", "fill_type": "color", "fill_color": "#9fc5e8", "fill_opacity": 1, "fill_wellknown": "horizline", "fill_shape_color": null, "fill_shape_width": null, "fill_shape_size": null, "fill_img_url": null, "marker_img_url": null}},{"type": "Feature", "id": "layer_data_map.fid--27e80436_1a098b908f8_7eef", "geometry": {"type": "Point", "coordinates": [106.91386297, 48.11632671]}, "geometry_name": "geom", "properties": {"guid": 11280, "id": 11280, "object_no": null, "object_name": null, "layer_type_id": 203, "valid_to": null, "address_no": null, "border_type": "solid", "border_width": null, "border_color": null, "border_opacity": null, "border_wellknown": "horizline", "fill_type": "color", "fill_color": "#9fc5e8", "fill_opacity": 1, "fill_wellknown": "horizline", "fill_shape_color": null, "fill_shape_width": null, "fill_shape_size": null, "fill_img_url": null, "marker_img_url": null}},{"type": "Feature", "id": "layer_data_map.fid--27e80436_1a098b908f8_7ef0", "geometry": {"type": "Point", "coordinates": [106.92087473, 47.92823915]}, "geometry_name": "geom", "properties": {"guid": 11281, "id": 11281, "object_no": null, "object_name": null, "layer_type_id": 203, "valid_to": null, "address_no": null, "border_type": "solid", "border_width": null, "border_color": null, "border_opacity": null, "border_wellknown": "horizline", "fill_type": "color", "fill_color": "#9fc5e8", "fill_opacity": 1, "fill_wellknown": "horizline", "fill_shape_color": null, "fill_shape_width": null, "fill_shape_size": null, "fill_img_url": null, "marker_img_url": null}},{"type": "Feature", "id": "layer_data_map.fid--27e80436_1a098b908f8_7ef1", "geometry": {"type": "Point", "coordinates": [106.92063413, 47.92380286]}, "geometry_name": "geom", "properties": {"guid": 11282, "id": 11282, "object_no": null, "object_name": null, "layer_type_id": 203, "valid_to": null, "address_no": null, "border_type": "solid", "border_width": null, "border_color": null, "border_opacity": null, "border_wellknown": "horizline", "fill_type": "color", "fill_color": "#9fc5e8", "fill_opacity": 1, "fill_wellknown": "horizline", "fill_shape_color": null, "fill_shape_width": null, "fill_shape_size": null, "fill_img_url": null, "marker_img_url": null}},{"type": "Feature", "id": "layer_data_map.fid--27e80436_1a098b908f8_7ef2", "geometry": {"type": "Point", "coordinates": [106.90494077, 47.91096895]}, "geometry_name": "geom", "properties": {"guid": 11283, "id": 11283, "object_no": null, "object_name": null, "layer_type_id": 203, "valid_to": null, "address_no": null, "border_type": "solid", "border_width": null, "border_color": null, "border_opacity": null, "border_wellknown": "horizline", "fill_type": "color", "fill_color": "#9fc5e8", "fill_opacity": 1, "fill_wellknown": "horizline", "fill_shape_color": null, "fill_shape_width": null, "fill_shape_size": null, "fill_img_url": null, "marker_img_url": null}},{"type": "Feature", "id": "layer_data_map.fid--27e80436_1a098b908f8_7ef3", "geometry": {"type": "Point", "coordinates": [106.90853596, 47.92135618]}, "geometry_name": "geom", "properties": {"guid": 11284, "id": 11284, "object_no": null, "object_name": null, "layer_type_id": 203, "valid_to": null, "address_no": null, "border_type": "solid", "border_width": null, "border_color": null, "border_opacity": null, "border_wellknown": "horizline", "fill_type": "color", "fill_color": "#9fc5e8", "fill_opacity": 1, "fill_wellknown": "horizline", "fill_shape_color": null, "fill_shape_width": null, "fill_shape_size": null, "fill_img_url": null, "marker_img_url": null}},{"type": "Feature", "id": "layer_data_map.fid--27e80436_1a098b908f8_7ef4", "geometry": {"type": "Point", "coordinates": [106.90675212, 47.93775556]}, "geometry_name": "geom", "properties": {"guid": 11285, "id": 11285, "object_no": null, "object_name": null, "layer_type_id": 203, "valid_to": null, "address_no": null, "border_type": "solid", "border_width": null, "border_color": null, "border_opacity": null, "border_wellknown": "horizline", "fill_type": "color", "fill_color": "#9fc5e8", "fill_opacity": 1, "fill_wellknown": "horizline", "fill_shape_color": null, "fill_shape_width": null, "fill_shape_size": null, "fill_img_url": null, "marker_img_url": null}},{"type": "Feature", "id": "layer_data_map.fid--27e80436_1a098b908f8_7ef5", "geometry": {"type": "Point", "coordinates": [106.91698265, 47.96521235]}, "geometry_name": "geom", "properties": {"guid": 11286, "id": 11286, "object_no": null, "object_name": null, "layer_type_id": 203, "valid_to": null, "address_no": null, "border_type": "solid", "border_width": null, "border_color": null, "border_opacity": null, "border_wellknown": "horizline", "fill_type": "color", "fill_color": "#9fc5e8", "fill_opacity": 1, "fill_wellknown": "horizline", "fill_shape_color": null, "fill_shape_width": null, "fill_shape_size": null, "fill_img_url": null, "marker_img_url": null}},{"type": "Feature", "id": "layer_data_map.fid--27e80436_1a098b908f8_7ef6", "geometry": {"type": "Point", "coordinates": [106.91696872, 47.96837946]}, "geometry_name": "geom", "properties": {"guid": 11287, "id": 11287, "object_no": null, "object_name": null, "layer_type_id": 203, "valid_to": null, "address_no": null, "border_type": "solid", "border_width": null, "border_color": null, "border_opacity": null, "border_wellknown": "horizline", "fill_type": "color", "fill_color": "#9fc5e8", "fill_opacity": 1, "fill_wellknown": "horizline", "fill_shape_color": null, "fill_shape_width": null, "fill_shape_size": null, "fill_img_url": null, "marker_img_url": null}},{"type": "Feature", "id": "layer_data_map.fid--27e80436_1a098b908f8_7ef7", "geometry": {"type": "Point", "coordinates": [106.90473834, 47.9223397]}, "geometry_name": "geom", "properties": {"guid": 11288, "id": 11288, "object_no": null, "object_name": null, "layer_type_id": 203, "valid_to": null, "address_no": null, "border_type": "solid", "border_width": null, "border_color": null, "border_opacity": null, "border_wellknown": "horizline", "fill_type": "color", "fill_color": "#9fc5e8", "fill_opacity": 1, "fill_wellknown": "horizline", "fill_shape_color": null, "fill_shape_width": null, "fill_shape_size": null, "fill_img_url": null, "marker_img_url": null}},{"type": "Feature", "id": "layer_data_map.fid--27e80436_1a098b908f8_7ef8", "geometry": {"type": "Point", "coordinates": [106.61838594, 47.7926106]}, "geometry_name": "geom", "properties": {"guid": 11289, "id": 11289, "object_no": null, "object_name": null, "layer_type_id": 203, "valid_to": null, "address_no": null, "border_type": "solid", "border_width": null, "border_color": null, "border_opacity": null, "border_wellknown": "horizline", "fill_type": "color", "fill_color": "#9fc5e8", "fill_opacity": 1, "fill_wellknown": "horizline", "fill_shape_color": null, "fill_shape_width": null, "fill_shape_size": null, "fill_img_url": null, "marker_img_url": null}},{"type": "Feature", "id": "layer_data_map.fid--27e80436_1a098b908f8_7ef9", "geometry": {"type": "Point", "coordinates": [106.8959629, 47.89868071]}, "geometry_name": "geom", "properties": {"guid": 11290, "id": 11290, "object_no": null, "object_name": null, "layer_type_id": 203, "valid_to": null, "address_no": null, "border_type": "solid", "border_width": null, "border_color": null, "border_opacity": null, "border_wellknown": "horizline", "fill_type": "color", "fill_color": "#9fc5e8", "fill_opacity": 1, "fill_wellknown": "horizline", "fill_shape_color": null, "fill_shape_width": null, "fill_shape_size": null, "fill_img_url": null, "marker_img_url": null}},{"type": "Feature", "id": "layer_data_map.fid--27e80436_1a098b908f8_7efa", "geometry": {"type": "Point", "coordinates": [106.90903627, 47.90323202]}, "geometry_name": "geom", "properties": {"guid": 11291, "id": 11291, "object_no": null, "object_name": null, "layer_type_id": 203, "valid_to": null, "address_no": null, "border_type": "solid", "border_width": null, "border_color": null, "border_opacity": null, "border_wellknown": "horizline", "fill_type": "color", "fill_color": "#9fc5e8", "fill_opacity": 1, "fill_wellknown": "horizline", "fill_shape_color": null, "fill_shape_width": null, "fill_shape_size": null, "fill_img_url": null, "marker_img_url": null}},{"type": "Feature", "id": "layer_data_map.fid--27e80436_1a098b908f8_7efb", "geometry": {"type": "Point", "coordinates": [106.89766587, 47.89064484]}, "geometry_name": "geom", "properties": {"guid": 11292, "id": 11292, "object_no": null, "object_name": null, "layer_type_id": 203, "valid_to": null, "address_no": null, "border_type": "solid", "border_width": null, "border_color": null, "border_opacity": null, "border_wellknown": "horizline", "fill_type": "color", "fill_color": "#9fc5e8", "fill_opacity": 1, "fill_wellknown": "horizline", "fill_shape_color": null, "fill_shape_width": null, "fill_shape_size": null, "fill_img_url": null, "marker_img_url": null}},{"type": "Feature", "id": "layer_data_map.fid--27e80436_1a098b908f8_7efc", "geometry": {"type": "Point", "coordinates": [106.91954942, 47.90454487]}, "geometry_name": "geom", "properties": {"guid": 11293, "id": 11293, "object_no": null, "object_name": null, "layer_type_id": 203, "valid_to": null, "address_no": null, "border_type": "solid", "border_width": null, "border_color": null, "border_opacity": null, "border_wellknown": "horizline", "fill_type": "color", "fill_color": "#9fc5e8", "fill_opacity": 1, "fill_wellknown": "horizline", "fill_shape_color": null, "fill_shape_width": null, "fill_shape_size": null, "fill_img_url": null, "marker_img_url": null}},{"type": "Feature", "id": "layer_data_map.fid--27e80436_1a098b908f8_7efd", "geometry": {"type": "Point", "coordinates": [106.90235432, 47.89782733]}, "geometry_name": "geom", "properties": {"guid": 11294, "id": 11294, "object_no": null, "object_name": null, "layer_type_id": 203, "valid_to": null, "address_no": null, "border_type": "solid", "border_width": null, "border_color": null, "border_opacity": null, "border_wellknown": "horizline", "fill_type": "color", "fill_color": "#9fc5e8", "fill_opacity": 1, "fill_wellknown": "horizline", "fill_shape_color": null, "fill_shape_width": null, "fill_shape_size": null, "fill_img_url": null, "marker_img_url": null}},{"type": "Feature", "id": "layer_data_map.fid--27e80436_1a098b908f8_7efe", "geometry": {"type": "Point", "coordinates": [106.91900921, 47.90145767]}, "geometry_name": "geom", "properties": {"guid": 11295, "id": 11295, "object_no": null, "object_name": null, "layer_type_id": 203, "valid_to": null, "address_no": null, "border_type": "solid", "border_width": null, "border_color": null, "border_opacity": null, "border_wellknown": "horizline", "fill_type": "color", "fill_color": "#9fc5e8", "fill_opacity": 1, "fill_wellknown": "horizline", "fill_shape_color": null, "fill_shape_width": null, "fill_shape_size": null, "fill_img_url": null, "marker_img_url": null}},{"type": "Feature", "id": "layer_data_map.fid--27e80436_1a098b908f8_7eff", "geometry": {"type": "Point", "coordinates": [106.88898789, 47.89659167]}, "geometry_name": "geom", "properties": {"guid": 11296, "id": 11296, "object_no": null, "object_name": null, "layer_type_id": 203, "valid_to": null, "address_no": null, "border_type": "solid", "border_width": null, "border_color": null, "border_opacity": null, "border_wellknown": "horizline", "fill_type": "color", "fill_color": "#9fc5e8", "fill_opacity": 1, "fill_wellknown": "horizline", "fill_shape_color": null, "fill_shape_width": null, "fill_shape_size": null, "fill_img_url": null, "marker_img_url": null}}]}