{"type":"FeatureCollection","features":[{"type": "Feature", "id": "layer_data_map.fid--27e80436_1a098c1eed1_-5420", "geometry": {"type": "Polygon", "coordinates": [[[106.86685893, 47.95188576], [106.86686117, 47.95170918], [106.86688059, 47.95153308], [106.86691713, 47.95135821], [106.86695049, 47.95124396], [106.86700452, 47.95107799], [106.86699201, 47.95086938], [106.86698993, 47.95082609], [106.86699217, 47.95064951], [106.8670116, 47.95047341], [106.86704813, 47.95029853], [106.86710161, 47.95012564], [106.86716493, 47.94997037], [106.86735811, 47.94954674], [106.86736497, 47.94953184], [106.86745158, 47.94936511], [106.86755424, 47.94920255], [106.86758004, 47.94916586], [106.86774838, 47.94893113], [106.86778846, 47.94887682], [106.86815785, 47.94839], [106.86821023, 47.94832329], [106.86834358, 47.94817112], [106.86839464, 47.94811836], [106.86840902, 47.94809297], [106.86846545, 47.94799997], [106.86874455, 47.94756342], [106.86878219, 47.9474952], [106.86888484, 47.94733263], [106.86899738, 47.94718199], [106.86947849, 47.94658521], [106.8694842, 47.94657815], [106.86961755, 47.94642598], [106.86971951, 47.94632316], [106.86992917, 47.94612187], [106.86997509, 47.9460787], [106.87013685, 47.94593952], [106.87031182, 47.94580775], [106.87049924, 47.94568395], [106.87069831, 47.94556864], [106.87076768, 47.94553189], [106.87086541, 47.94548127], [106.87100591, 47.94541172], [106.87122568, 47.94531486], [106.8714544, 47.94522786], [106.8716911, 47.9451511], [106.87170608, 47.94514667], [106.87235304, 47.94495625], [106.87273464, 47.9447917], [106.87311208, 47.94460785], [106.87375962, 47.944262], [106.8739471, 47.94416772], [106.87416686, 47.94407086], [106.87439557, 47.94398386], [106.8744401, 47.94396843], [106.87729115, 47.9429954], [106.87771632, 47.94279456], [106.87793404, 47.94269864], [106.87816274, 47.94261164], [106.87839942, 47.94253486], [106.87864307, 47.94246866], [106.87889263, 47.9424133], [106.87899429, 47.94239417], [106.87954817, 47.94229522], [106.87973731, 47.94223434], [106.87977386, 47.94222361], [106.88043678, 47.94203153], [106.88064387, 47.94197605], [106.88089344, 47.94192069], [106.88114785, 47.94187641], [106.88140604, 47.94184341], [106.88140861, 47.94184314], [106.88186671, 47.94179516], [106.88212498, 47.94177384], [106.88238737, 47.94176375], [106.88265017, 47.94176522], [106.88276066, 47.9417693], [106.88321323, 47.94179019], [106.88352567, 47.94177186], [106.88757194, 47.94123843], [106.8879127, 47.94113066], [106.88799582, 47.94110515], [106.88823945, 47.94103892], [106.888489, 47.94098354], [106.88853093, 47.94097541], [106.88979456, 47.94073547], [106.89000704, 47.9406993], [106.89025924, 47.9406669], [106.8941503, 47.94025322], [106.89415627, 47.94025258], [106.89419903, 47.94024824], [106.89600857, 47.94007107], [106.89622663, 47.9400538], [106.89627523, 47.94005105], [106.89660975, 47.94003351], [106.89682352, 47.94002614], [106.89708632, 47.94002758], [106.89734841, 47.94004056], [106.89738979, 47.94004367], [106.89924538, 47.9401898], [106.89946427, 47.94021116], [106.8997216, 47.94024701], [106.89997489, 47.94029409], [106.90022305, 47.94035221], [106.90046503, 47.9404211], [106.90069978, 47.94050048], [106.90092631, 47.94059001], [106.90114364, 47.9406893], [106.90135084, 47.94079793], [106.90154702, 47.94091543], [106.90173134, 47.9410413], [106.90190302, 47.941175], [106.90206132, 47.94131596], [106.90220556, 47.94146357], [106.90233512, 47.94161721], [106.90244946, 47.94177621], [106.90254807, 47.94193989], [106.90263054, 47.94210756], [106.90269651, 47.94227849], [106.9027457, 47.94245195], [106.9027779, 47.94262721], [106.90279104, 47.94276299], [106.9028799, 47.94426673], [106.90288184, 47.94430724], [106.90287972, 47.94448382], [106.90286042, 47.94465993], [106.90282401, 47.94483481], [106.90277066, 47.94500772], [106.90270059, 47.94517792], [106.9026141, 47.94534467], [106.90251157, 47.94550726], [106.90239342, 47.945665], [106.90226017, 47.94581721], [106.90211239, 47.94596324], [106.90195071, 47.94610246], [106.90177583, 47.94623428], [106.90158848, 47.94635814], [106.90138948, 47.94647349], [106.90117967, 47.94657985], [106.90095995, 47.94667677], [106.90073128, 47.94676382], [106.90049461, 47.94684064], [106.90025098, 47.9469069], [106.90000141, 47.9469623], [106.89974699, 47.94700662], [106.89948879, 47.94703967], [106.89922793, 47.9470613], [106.89904353, 47.94706962], [106.89892367, 47.94707317], [106.8987506, 47.94712807], [106.89850696, 47.94719432], [106.89825739, 47.94724972], [106.89800296, 47.94729404], [106.89774476, 47.94732708], [106.8974839, 47.94734871], [106.89722149, 47.94735882], [106.89695866, 47.94735739], [106.89679386, 47.94735058], [106.89624795, 47.94732044], [106.89615063, 47.94731427], [106.89589033, 47.94728979], [106.89563297, 47.94725393], [106.89537965, 47.94720684], [106.89513145, 47.94714872], [106.89495791, 47.94710058], [106.89443673, 47.94732419], [106.89327947, 47.94789588], [106.89321285, 47.94792809], [106.89299312, 47.94802499], [106.89276442, 47.94811203], [106.89252774, 47.94818883], [106.89233189, 47.94824305], [106.88733493, 47.94952375], [106.88513383, 47.95050885], [106.88339219, 47.95137269], [106.88331958, 47.95140787], [106.88193497, 47.95206307], [106.88193425, 47.95206341], [106.88179968, 47.95212436], [106.87724032, 47.95410054], [106.87637867, 47.95461822], [106.87622294, 47.9547071], [106.87601304, 47.95481342], [106.87579325, 47.95491029], [106.87556449, 47.95499729], [106.8753333, 47.9550724], [106.87427955, 47.95538724], [106.874274, 47.9553889], [106.87403029, 47.9554551], [106.87378066, 47.95551045], [106.87352617, 47.95555471], [106.87326791, 47.9555877], [106.87317787, 47.95559646], [106.8727812, 47.95563198], [106.87261033, 47.95564479], [106.87234787, 47.95565485], [106.872085, 47.95565336], [106.87182283, 47.95564032], [106.8715625, 47.95561579], [106.87130511, 47.95557987], [106.87105177, 47.95553272], [106.87080356, 47.95547455], [106.87056155, 47.95540559], [106.87032677, 47.95532615], [106.87026339, 47.95530242], [106.86994543, 47.95518086], [106.86978228, 47.955115], [106.86956495, 47.95501565], [106.86935776, 47.95490697], [106.86916159, 47.95478941], [106.8689773, 47.95466349], [106.86887584, 47.95458659], [106.86853004, 47.95431419], [106.86845985, 47.95425734], [106.86830161, 47.95411634], [106.86828876, 47.954104], [106.86782242, 47.95365357], [106.86769109, 47.95351825], [106.86762161, 47.95343873], [106.86737609, 47.95314637], [106.86731607, 47.95307221], [106.86720181, 47.95291318], [106.86710329, 47.95274946], [106.86702092, 47.95258177], [106.86695505, 47.95241081], [106.86690597, 47.95223733], [106.86687388, 47.95206207], [106.86685893, 47.95188576]]]}, "geometry_name": "geom", "properties": {"guid": 9165, "id": 9165, "object_no": null, "object_name": null, "layer_type_id": 172, "valid_to": null, "address_no": null, "border_type": "solid", "border_width": 0, "border_color": null, "border_opacity": null, "border_wellknown": null, "fill_type": "color", "fill_color": "#b4a7d6", "fill_opacity": 0.63, "fill_wellknown": null, "fill_shape_color": null, "fill_shape_width": null, "fill_shape_size": null, "fill_img_url": null, "marker_img_url": null}},{"type": "Feature", "id": "layer_data_map.fid--27e80436_1a098c1eed1_-541f", "geometry": {"type": "Polygon", "coordinates": [[[106.76499979, 47.87216096], [106.7649972, 47.87233755], [106.76497745, 47.87251364], [106.76494062, 47.87268849], [106.76488687, 47.87286134], [106.7648417, 47.87297522], [106.76442381, 47.87394339], [106.76439854, 47.87399962], [106.76431172, 47.87416628], [106.76420888, 47.87432875], [106.76409047, 47.87448636], [106.76395699, 47.87463841], [106.76380901, 47.87478426], [106.76364717, 47.8749233], [106.76347216, 47.87505491], [106.76328473, 47.87517854], [106.76308568, 47.87529365], [106.76287587, 47.87539977], [106.76265618, 47.87549642], [106.76242758, 47.87558319], [106.76219102, 47.87565973], [106.76194753, 47.87572569], [106.76169815, 47.87578079], [106.76144395, 47.8758248], [106.76118601, 47.87585753], [106.76092544, 47.87587884], [106.76066336, 47.87588864], [106.76040088, 47.87588689], [106.76013914, 47.87587359], [106.75987925, 47.8758488], [106.75978134, 47.87583641], [106.75675511, 47.87542703], [106.75659611, 47.87540325], [106.75634325, 47.87535585], [106.75609555, 47.87529741], [106.75585407, 47.87522821], [106.75561983, 47.87514852], [106.75539383, 47.8750587], [106.75517705, 47.87495913], [106.75497042, 47.87485023], [106.75477482, 47.87473247], [106.75459108, 47.87460635], [106.75442, 47.87447243], [106.75426231, 47.87433125], [106.75411867, 47.87418345], [106.75398972, 47.87402963], [106.75387599, 47.87387048], [106.75377798, 47.87370666], [106.7536961, 47.87353887], [106.75363072, 47.87336785], [106.75358209, 47.87319431], [106.75355044, 47.873019], [106.7535359, 47.87284268], [106.75353853, 47.87266609], [106.75355832, 47.87249], [106.75355893, 47.87248626], [106.75375091, 47.87131235], [106.75378717, 47.87114124], [106.75384095, 47.8709684], [106.75391141, 47.87079828], [106.75399827, 47.87063164], [106.75410113, 47.87046917], [106.75421956, 47.87031158], [106.75435306, 47.87015954], [106.75450105, 47.87001369], [106.7546629, 47.86987467], [106.75483792, 47.86974308], [106.75502535, 47.86961946], [106.7552244, 47.86950436], [106.75543421, 47.86939826], [106.75565387, 47.86930162], [106.75588247, 47.86921486], [106.756119, 47.86913834], [106.75636247, 47.86907239], [106.75643332, 47.8690555], [106.75736067, 47.86884089], [106.75753918, 47.8688027], [106.75779335, 47.86875869], [106.75805126, 47.86872597], [106.75831179, 47.86870467], [106.75857384, 47.86869487], [106.75883628, 47.86869663], [106.75909798, 47.86870993], [106.75935783, 47.86873472], [106.75961472, 47.8687709], [106.75964999, 47.86877679], [106.76109853, 47.86902367], [106.76131609, 47.86906517], [106.76156376, 47.86912359], [106.76180523, 47.86919278], [106.76203945, 47.86927246], [106.76226543, 47.86936226], [106.7624822, 47.86946183], [106.76268882, 47.86957071], [106.76288443, 47.86968846], [106.76293369, 47.86972067], [106.76380983, 47.8703035], [106.76394431, 47.87039739], [106.7641154, 47.8705313], [106.76427311, 47.87067246], [106.76441676, 47.87082026], [106.76454574, 47.87097406], [106.76465949, 47.8711332], [106.76475753, 47.87129701], [106.76483944, 47.87146479], [106.76490486, 47.87163581], [106.76495352, 47.87180934], [106.76498521, 47.87198464], [106.76499979, 47.87216096]]]}, "geometry_name": "geom", "properties": {"guid": 9166, "id": 9166, "object_no": null, "object_name": null, "layer_type_id": 172, "valid_to": null, "address_no": null, "border_type": "solid", "border_width": 0, "border_color": null, "border_opacity": null, "border_wellknown": null, "fill_type": "color", "fill_color": "#b4a7d6", "fill_opacity": 0.63, "fill_wellknown": null, "fill_shape_color": null, "fill_shape_width": null, "fill_shape_size": null, "fill_img_url": null, "marker_img_url": null}},{"type": "Feature", "id": "layer_data_map.fid--27e80436_1a098c1eed1_-541e", "geometry": {"type": "Polygon", "coordinates": [[[106.97723179, 47.93201032], [106.97722992, 47.9321869], [106.97721087, 47.93236302], [106.97717473, 47.93253792], [106.97712164, 47.93271086], [106.97705183, 47.9328811], [106.9769656, 47.9330479], [106.97689438, 47.93316421], [106.97687697, 47.93323214], [106.97687685, 47.93323261], [106.97686937, 47.93326086], [106.97673295, 47.93376079], [106.97668734, 47.93390548], [106.97661752, 47.93407572], [106.97653129, 47.93424252], [106.97642901, 47.93440518], [106.97631112, 47.93456299], [106.97617812, 47.93471528], [106.97603058, 47.9348614], [106.97586914, 47.93500073], [106.97569448, 47.93513266], [106.97550735, 47.93525663], [106.97530856, 47.93537211], [106.97509895, 47.9354786], [106.97487942, 47.93557566], [106.97465092, 47.93566285], [106.97441442, 47.93573982], [106.97417094, 47.93580623], [106.97392151, 47.9358618], [106.97366721, 47.93590628], [106.97340912, 47.93593949], [106.97315864, 47.93596065], [106.9720448, 47.9360309], [106.97203452, 47.93603154], [106.97177219, 47.93604182], [106.97150942, 47.93604056], [106.97124733, 47.93602774], [106.97098706, 47.93600344], [106.9707297, 47.93596775], [106.97047637, 47.93592082], [106.97022816, 47.93586286], [106.96998611, 47.93579411], [106.96975128, 47.93571487], [106.96952466, 47.93562548], [106.96930723, 47.93552632], [106.96909991, 47.93541782], [106.9689036, 47.93530044], [106.96871914, 47.93517468], [106.96854731, 47.93504108], [106.96838885, 47.93490021], [106.96824445, 47.93475269], [106.96811471, 47.93459913], [106.96800019, 47.9344402], [106.96790139, 47.93427657], [106.96781872, 47.93410895], [106.96775255, 47.93393806], [106.96770315, 47.93376463], [106.96768327, 47.93366876], [106.96764478, 47.93345516], [106.96757424, 47.93334884], [106.96757232, 47.93334593], [106.96747352, 47.93318231], [106.96739086, 47.93301469], [106.96738772, 47.93300752], [106.9672254, 47.93283334], [106.96720338, 47.93280944], [106.96707365, 47.93265588], [106.96695914, 47.93249694], [106.96686035, 47.93233332], [106.96677769, 47.9321657], [106.96671152, 47.93199481], [106.96666213, 47.93182137], [106.96662972, 47.93164614], [106.96661443, 47.93146985], [106.96661633, 47.93129328], [106.96663542, 47.93111716], [106.9666716, 47.93094226], [106.96672472, 47.93076932], [106.96679456, 47.93059909], [106.96688082, 47.93043229], [106.96698312, 47.93026965], [106.96710104, 47.93011184], [106.96723405, 47.92995956], [106.9673816, 47.92981345], [106.9674419, 47.92975919], [106.96747221, 47.9293722], [106.96748895, 47.92923015], [106.96748936, 47.92922754], [106.96759822, 47.92854237], [106.96763398, 47.92837007], [106.9676871, 47.92819714], [106.96775693, 47.9280269], [106.96784318, 47.92786011], [106.96794548, 47.92769746], [106.96806338, 47.92753965], [106.96819639, 47.92738737], [106.96834393, 47.92724126], [106.96850537, 47.92710195], [106.96868002, 47.92697003], [106.96886714, 47.92684607], [106.96906591, 47.9267306], [106.9692755, 47.92662411], [106.969495, 47.92652707], [106.96972347, 47.92643988], [106.96995993, 47.92636292], [106.97020338, 47.92629652], [106.97045276, 47.92624097], [106.97070702, 47.92619649], [106.97096506, 47.92616329], [106.97122578, 47.9261415], [106.97148806, 47.92613122], [106.97175078, 47.92613248], [106.97201282, 47.9261453], [106.97203087, 47.92614661], [106.97330719, 47.92624123], [106.97354937, 47.92626422], [106.97380667, 47.92629991], [106.97405996, 47.92634683], [106.97430813, 47.92640478], [106.97455014, 47.92647352], [106.97478494, 47.92655275], [106.97501152, 47.92664213], [106.97522893, 47.92674128], [106.97543622, 47.92684977], [106.97563251, 47.92696714], [106.97581696, 47.92709289], [106.97598878, 47.92722648], [106.97614724, 47.92736734], [106.97629164, 47.92751485], [106.97642139, 47.9276684], [106.97653591, 47.92782733], [106.97663473, 47.92799094], [106.97671741, 47.92815856], [106.97678361, 47.92832944], [106.97683303, 47.92850287], [106.97686547, 47.9286781], [106.97688105, 47.92886158], [106.97690944, 47.92969273], [106.97693504, 47.92979011], [106.97696748, 47.92996534], [106.97696812, 47.92997008], [106.9772171, 47.93183878], [106.97723179, 47.93201032]]]}, "geometry_name": "geom", "properties": {"guid": 9167, "id": 9167, "object_no": null, "object_name": null, "layer_type_id": 172, "valid_to": null, "address_no": null, "border_type": "solid", "border_width": 0, "border_color": null, "border_opacity": null, "border_wellknown": null, "fill_type": "color", "fill_color": "#b4a7d6", "fill_opacity": 0.63, "fill_wellknown": null, "fill_shape_color": null, "fill_shape_width": null, "fill_shape_size": null, "fill_img_url": null, "marker_img_url": null}},{"type": "Feature", "id": "layer_data_map.fid--27e80436_1a098c1eed1_-541d", "geometry": {"type": "Polygon", "coordinates": [[[107.09800248, 47.92025121], [107.09800393, 47.92007463], [107.09800584, 47.92004538], [107.0980334, 47.91966851], [107.09805013, 47.91952164], [107.09808586, 47.9193467], [107.09813652, 47.9191794], [107.09839741, 47.91843856], [107.09840033, 47.91834312], [107.09841896, 47.91816699], [107.09845469, 47.91799205], [107.09850736, 47.91781906], [107.09857675, 47.91764876], [107.09866256, 47.91748187], [107.09876442, 47.91731911], [107.0988819, 47.91716118], [107.09901449, 47.91700875], [107.09916163, 47.91686247], [107.09932268, 47.91672298], [107.09949696, 47.91659087], [107.09968372, 47.9164667], [107.09988215, 47.91635101], [107.10009142, 47.91624429], [107.10031062, 47.916147], [107.10053882, 47.91605956], [107.10077503, 47.91598233], [107.10101826, 47.91591566], [107.10126744, 47.91585982], [107.10152153, 47.91581506], [107.10177942, 47.91578156], [107.10179847, 47.91577955], [107.10210336, 47.91574788], [107.10234492, 47.9157278], [107.10260711, 47.91571722], [107.10286977, 47.91571819], [107.10313177, 47.9157307], [107.103392, 47.91575471], [107.10364933, 47.9157901], [107.10390267, 47.91583674], [107.10415093, 47.91589441], [107.10417424, 47.91590046], [107.10634258, 47.91605678], [107.10659001, 47.91607987], [107.10665659, 47.9160879], [107.10894903, 47.91637772], [107.10904531, 47.91639071], [107.11220156, 47.91684366], [107.11229604, 47.91685802], [107.1125494, 47.91690464], [107.11279767, 47.91696229], [107.1130398, 47.91703073], [107.11327476, 47.91710968], [107.11350154, 47.91719878], [107.11371916, 47.91729767], [107.11392669, 47.9174059], [107.11412325, 47.91752304], [107.114308, 47.91764856], [107.11448014, 47.91778193], [107.11463893, 47.91792259], [107.1147837, 47.91806993], [107.11491382, 47.91822332], [107.11502875, 47.9183821], [107.11512798, 47.91854559], [107.11521109, 47.91871309], [107.11527772, 47.9188839], [107.1153276, 47.91905726], [107.1153605, 47.91923244], [107.11537629, 47.9194087], [107.11537489, 47.91958528], [107.11535632, 47.91976141], [107.11532064, 47.91993635], [107.11530145, 47.92000639], [107.11397532, 47.92451132], [107.11394189, 47.92461427], [107.11387254, 47.92478459], [107.11378677, 47.92495149], [107.11368494, 47.92511426], [107.11356749, 47.92527221], [107.11343492, 47.92542465], [107.1132878, 47.92557094], [107.11312676, 47.92571045], [107.11295249, 47.92584259], [107.11276573, 47.92596678], [107.11256728, 47.92608249], [107.112358, 47.92618923], [107.11213879, 47.92628654], [107.11191056, 47.92637401], [107.11167432, 47.92645126], [107.11143106, 47.92651796], [107.11118184, 47.92657382], [107.11092771, 47.9266186], [107.11066977, 47.92665212], [107.11040911, 47.92667422], [107.11014687, 47.92668482], [107.10988415, 47.92668387], [107.10962209, 47.92667138], [107.10954518, 47.9266655], [107.10667137, 47.92642699], [107.106488, 47.92640887], [107.10623061, 47.92637348], [107.10597722, 47.92632685], [107.10572891, 47.92626918], [107.10548674, 47.92620073], [107.10525175, 47.92612177], [107.10504813, 47.92604238], [107.10048807, 47.92414211], [107.10046489, 47.92413238], [107.10024727, 47.92403347], [107.10003973, 47.92392521], [107.09984318, 47.92380805], [107.09965845, 47.92368251], [107.09948633, 47.92354911], [107.09932755, 47.92340843], [107.09918281, 47.92326107], [107.09905272, 47.92310767], [107.09893784, 47.92294887], [107.09883865, 47.92278536], [107.09875558, 47.92261785], [107.09869695, 47.92247008], [107.09810882, 47.92079908], [107.09810087, 47.92077603], [107.09805105, 47.92060266], [107.09801821, 47.92042747], [107.09800248, 47.92025121]]]}, "geometry_name": "geom", "properties": {"guid": 9168, "id": 9168, "object_no": null, "object_name": null, "layer_type_id": 172, "valid_to": null, "address_no": null, "border_type": "solid", "border_width": 0, "border_color": null, "border_opacity": null, "border_wellknown": null, "fill_type": "color", "fill_color": "#b4a7d6", "fill_opacity": 0.63, "fill_wellknown": null, "fill_shape_color": null, "fill_shape_width": null, "fill_shape_size": null, "fill_img_url": null, "marker_img_url": null}},{"type": "Feature", "id": "layer_data_map.fid--27e80436_1a098c1eed1_-541c", "geometry": {"type": "Polygon", "coordinates": [[[106.95793533, 47.92237956], [106.95793726, 47.92220298], [106.95795637, 47.92202687], [106.95799258, 47.92185197], [106.95804572, 47.92167903], [106.95811558, 47.92150881], [106.95820185, 47.92134202], [106.95830417, 47.92117938], [106.95842208, 47.92102158], [106.9585551, 47.92086931], [106.95870265, 47.92072321], [106.9588641, 47.92058391], [106.95903876, 47.920452], [106.95922587, 47.92032806], [106.95942465, 47.92021261], [106.95963423, 47.92010614], [106.95985371, 47.92000912], [106.96008217, 47.91992195], [106.96021613, 47.91987679], [106.96078325, 47.91969441], [106.96088575, 47.91966264], [106.96112917, 47.91959626], [106.96137854, 47.91954072], [106.96163277, 47.91949626], [106.96189079, 47.91946308], [106.96215148, 47.91944131], [106.96241373, 47.91943105], [106.96267641, 47.91943234], [106.96293841, 47.91944517], [106.9631986, 47.9194695], [106.96345587, 47.91950521], [106.96352505, 47.91951685], [106.96460744, 47.91970582], [106.96479151, 47.91974113], [106.96503964, 47.9197991], [106.9652816, 47.91986786], [106.96551636, 47.91994711], [106.9657429, 47.92003651], [106.96596026, 47.92013568], [106.96616751, 47.92024419], [106.96636375, 47.92036158], [106.96654816, 47.92048734], [106.96671993, 47.92062094], [106.96687834, 47.92076181], [106.9670227, 47.92090934], [106.9671524, 47.9210629], [106.96726688, 47.92122184], [106.96736566, 47.92138546], [106.9674483, 47.92155308], [106.96751445, 47.92172397], [106.96756384, 47.92189741], [106.96757023, 47.92192562], [106.96786219, 47.92326184], [106.9678882, 47.92340886], [106.96790349, 47.92358514], [106.96790159, 47.92376172], [106.96788252, 47.92393784], [106.96784634, 47.92411274], [106.96779323, 47.92428568], [106.9677234, 47.92445591], [106.96763716, 47.92462271], [106.96753486, 47.92478536], [106.96741696, 47.92494316], [106.96728396, 47.92509544], [106.96713642, 47.92524155], [106.96697498, 47.92538086], [106.96680033, 47.92551278], [106.96661322, 47.92563674], [106.96641444, 47.9257522], [106.96620485, 47.92585868], [106.96598535, 47.92595572], [106.96575688, 47.9260429], [106.96552041, 47.92611985], [106.96527696, 47.92618624], [106.96502756, 47.92624178], [106.9647733, 47.92628625], [106.96451525, 47.92631943], [106.96425453, 47.92634121], [106.96399225, 47.92635148], [106.96372953, 47.92635019], [106.96346749, 47.92633736], [106.96334628, 47.92632748], [106.96164795, 47.92617141], [106.96150894, 47.92615697], [106.96125164, 47.92612125], [106.96099837, 47.9260743], [106.96075021, 47.92601632], [106.96050823, 47.92594755], [106.96027345, 47.92586829], [106.96004689, 47.92577888], [106.95982952, 47.9256797], [106.95962226, 47.92557118], [106.95942601, 47.92545378], [106.95924161, 47.92532801], [106.95906983, 47.92519439], [106.95891143, 47.92505351], [106.95889662, 47.92503931], [106.95869191, 47.9248416], [106.95856237, 47.92470827], [106.95843268, 47.9245547], [106.95831822, 47.92439575], [106.95821947, 47.92423212], [106.95813685, 47.92406449], [106.95807072, 47.92389359], [106.95802137, 47.92372015], [106.95798899, 47.92354492], [106.95797381, 47.92337059], [106.95793541, 47.92238152], [106.95793533, 47.92237956]]]}, "geometry_name": "geom", "properties": {"guid": 9169, "id": 9169, "object_no": null, "object_name": null, "layer_type_id": 172, "valid_to": null, "address_no": null, "border_type": "solid", "border_width": 0, "border_color": null, "border_opacity": null, "border_wellknown": null, "fill_type": "color", "fill_color": "#b4a7d6", "fill_opacity": 0.63, "fill_wellknown": null, "fill_shape_color": null, "fill_shape_width": null, "fill_shape_size": null, "fill_img_url": null, "marker_img_url": null}},{"type": "Feature", "id": "layer_data_map.fid--27e80436_1a098c1eed1_-541b", "geometry": {"type": "Polygon", "coordinates": [[[107.11273665, 47.91799584], [107.11273524, 47.91817241], [107.11271666, 47.91834854], [107.11268098, 47.91852348], [107.11267064, 47.9185625], [107.11242726, 47.91944321], [107.11238498, 47.91957719], [107.11231563, 47.9197475], [107.11222986, 47.9199144], [107.11212804, 47.92007717], [107.1120106, 47.92023511], [107.11187804, 47.92038756], [107.11173092, 47.92053385], [107.11156989, 47.92067336], [107.11139563, 47.92080549], [107.11120889, 47.92092967], [107.11101046, 47.92104538], [107.1108012, 47.92115212], [107.11058199, 47.92124943], [107.11035379, 47.92133689], [107.11011757, 47.92141414], [107.10987433, 47.92148083], [107.10962513, 47.92153669], [107.10937103, 47.92158147], [107.10911311, 47.92161498], [107.10885248, 47.92163709], [107.10859026, 47.92164768], [107.10832757, 47.92164673], [107.10806553, 47.92163423], [107.10780527, 47.92161023], [107.10774593, 47.92160311], [107.10727574, 47.92154428], [107.10724224, 47.92154499], [107.10697955, 47.92154403], [107.10671751, 47.92153152], [107.10645726, 47.92150753], [107.10619989, 47.92147214], [107.10619271, 47.92147098], [107.10494868, 47.92126957], [107.10470249, 47.9212241], [107.10445421, 47.92116643], [107.10421206, 47.92109796], [107.1039771, 47.921019], [107.10375032, 47.92092988], [107.10353271, 47.92083098], [107.10332518, 47.92072272], [107.10312863, 47.92060557], [107.1029439, 47.92048003], [107.10277178, 47.92034664], [107.10261301, 47.92020596], [107.10246827, 47.92005861], [107.10233818, 47.91990521], [107.10222329, 47.91974641], [107.1021241, 47.91958291], [107.10204103, 47.91941539], [107.10197443, 47.91924458], [107.1019246, 47.91907121], [107.10189175, 47.91889602], [107.10187601, 47.91871976], [107.10187745, 47.91854319], [107.10189607, 47.91836706], [107.10193178, 47.91819212], [107.10194163, 47.91815494], [107.10218692, 47.91726451], [107.10222974, 47.9171287], [107.10229911, 47.91695839], [107.10238491, 47.9167915], [107.10248676, 47.91662873], [107.10260422, 47.9164708], [107.1027368, 47.91631836], [107.10288393, 47.91617209], [107.10304497, 47.91603259], [107.10321924, 47.91590047], [107.10340598, 47.9157763], [107.10360441, 47.9156606], [107.10381367, 47.91555388], [107.10403286, 47.91545658], [107.10426104, 47.91536913], [107.10449725, 47.9152919], [107.10474046, 47.91522521], [107.10498964, 47.91516937], [107.10524372, 47.9151246], [107.10550161, 47.91509109], [107.10576221, 47.915069], [107.1060244, 47.91505841], [107.10628705, 47.91505937], [107.10654905, 47.91507188], [107.10657907, 47.91507405], [107.10679004, 47.91508988], [107.10702024, 47.9151117], [107.10706297, 47.91511676], [107.10812817, 47.91524696], [107.10815938, 47.91525086], [107.10947322, 47.91541866], [107.10965662, 47.91544508], [107.10990996, 47.9154917], [107.11015823, 47.91554936], [107.11040035, 47.91561781], [107.1106353, 47.91569676], [107.11086206, 47.91578587], [107.11107967, 47.91588476], [107.1112872, 47.915993], [107.11148375, 47.91611014], [107.11166848, 47.91623567], [107.11184061, 47.91636905], [107.11199939, 47.91650971], [107.11214415, 47.91665705], [107.11227426, 47.91681044], [107.11238917, 47.91696922], [107.11248839, 47.91713272], [107.11257149, 47.91730022], [107.11263812, 47.91747103], [107.11268798, 47.91764439], [107.11272087, 47.91781958], [107.11273665, 47.91799584]]]}, "geometry_name": "geom", "properties": {"guid": 9170, "id": 9170, "object_no": null, "object_name": null, "layer_type_id": 172, "valid_to": null, "address_no": null, "border_type": "solid", "border_width": 0, "border_color": null, "border_opacity": null, "border_wellknown": null, "fill_type": "color", "fill_color": "#b4a7d6", "fill_opacity": 0.63, "fill_wellknown": null, "fill_shape_color": null, "fill_shape_width": null, "fill_shape_size": null, "fill_img_url": null, "marker_img_url": null}},{"type": "Feature", "id": "layer_data_map.fid--27e80436_1a098c1eed1_-541a", "geometry": {"type": "Polygon", "coordinates": [[[106.63155686, 47.91693612], [106.63155382, 47.91711271], [106.6315336, 47.91728878], [106.63149629, 47.91746359], [106.63144206, 47.91763639], [106.63137113, 47.91780642], [106.63128381, 47.91797298], [106.63118047, 47.91813534], [106.63106305, 47.91829097], [106.62948958, 47.92021927], [106.62948808, 47.92022111], [106.62935409, 47.92037301], [106.6292056, 47.9205187], [106.62904325, 47.92065754], [106.62886775, 47.92078896], [106.62867983, 47.92091237], [106.6284803, 47.92102726], [106.62827002, 47.92113313], [106.62804989, 47.92122953], [106.62782085, 47.92131604], [106.62758388, 47.9213923], [106.62734, 47.92145798], [106.62709025, 47.92151279], [106.62683571, 47.92155651], [106.62657745, 47.92158894], [106.62631659, 47.92160995], [106.62605424, 47.92161945], [106.62579153, 47.92161739], [106.62552959, 47.92160378], [106.62526953, 47.92157869], [106.62501246, 47.92154222], [106.6247595, 47.92149452], [106.62451172, 47.92143581], [106.62427018, 47.92136633], [106.62417124, 47.92133413], [106.62321443, 47.92101188], [106.62314198, 47.92098686], [106.61529171, 47.91820707], [106.61522886, 47.91818432], [106.61500291, 47.91809423], [106.61478621, 47.91799439], [106.61457969, 47.91788523], [106.61438424, 47.91776723], [106.61420068, 47.91764089], [106.61402981, 47.91750675], [106.61387236, 47.91736539], [106.613729, 47.9172174], [106.61360035, 47.91706343], [106.61348695, 47.91690413], [106.6133893, 47.91674019], [106.6133078, 47.9165723], [106.61324281, 47.91640119], [106.61319461, 47.91622759], [106.61316341, 47.91605224], [106.61314933, 47.9158759], [106.61315243, 47.91569931], [106.61317271, 47.91552324], [106.61321008, 47.91534843], [106.61326437, 47.91517565], [106.61333536, 47.91500562], [106.61342273, 47.91483908], [106.61352612, 47.91467673], [106.61364509, 47.91451928], [106.61377911, 47.91436739], [106.61392763, 47.91422173], [106.61408999, 47.9140829], [106.61426552, 47.91395151], [106.61427345, 47.91394597], [106.6172825, 47.91184851], [106.61746248, 47.91173065], [106.617662, 47.91161579], [106.61787226, 47.91150994], [106.61809237, 47.91141356], [106.61832138, 47.91132706], [106.61855832, 47.91125082], [106.61880216, 47.91118516], [106.61905187, 47.91113037], [106.61930638, 47.91108667], [106.61956459, 47.91105425], [106.6198254, 47.91103326], [106.62008769, 47.91102378], [106.62035035, 47.91102585], [106.62061224, 47.91103947], [106.62087224, 47.91106457], [106.62112925, 47.91110105], [106.62138216, 47.91114876], [106.62162989, 47.91120748], [106.62187137, 47.91127697], [106.62210558, 47.91135693], [106.62233151, 47.91144701], [106.62241268, 47.91148277], [106.62579284, 47.91301153], [106.62592836, 47.91307559], [106.62613488, 47.91318472], [106.62633034, 47.9133027], [106.62651391, 47.91342902], [106.6266848, 47.91356314], [106.62684227, 47.91370449], [106.62698566, 47.91385246], [106.62711434, 47.91400642], [106.62722778, 47.9141657], [106.62724331, 47.9141898], [106.62838491, 47.91435437], [106.62850024, 47.91437219], [106.62875317, 47.91441988], [106.62900092, 47.91447858], [106.62924243, 47.91454806], [106.62947666, 47.914628], [106.62970262, 47.91471807], [106.62991933, 47.91481788], [106.63012587, 47.914927], [106.63032135, 47.91504498], [106.63050493, 47.91517129], [106.63067584, 47.91530541], [106.63083333, 47.91544675], [106.63097673, 47.91559471], [106.63110543, 47.91574866], [106.63121888, 47.91590795], [106.63131659, 47.91607187], [106.63139814, 47.91623975], [106.63146319, 47.91641085], [106.63151145, 47.91658444], [106.63154272, 47.91675978], [106.63155686, 47.91693612]]]}, "geometry_name": "geom", "properties": {"guid": 9171, "id": 9171, "object_no": null, "object_name": null, "layer_type_id": 172, "valid_to": null, "address_no": null, "border_type": "solid", "border_width": 0, "border_color": null, "border_opacity": null, "border_wellknown": null, "fill_type": "color", "fill_color": "#b4a7d6", "fill_opacity": 0.63, "fill_wellknown": null, "fill_shape_color": null, "fill_shape_width": null, "fill_shape_size": null, "fill_img_url": null, "marker_img_url": null}},{"type": "Feature", "id": "layer_data_map.fid--27e80436_1a098c1eed1_-5419", "geometry": {"type": "Polygon", "coordinates": [[[106.9633306, 47.95260849], [106.96333251, 47.95243191], [106.96335161, 47.9522558], [106.96338782, 47.9520809], [106.96344097, 47.95190796], [106.96351085, 47.95173774], [106.96359715, 47.95157094], [106.9636995, 47.9514083], [106.96381747, 47.9512505], [106.96393764, 47.95111203], [106.96425387, 47.95077133], [106.9647736, 47.95016287], [106.96481425, 47.9500362], [106.96488412, 47.94986597], [106.96497041, 47.94969917], [106.96506169, 47.94955277], [106.96565726, 47.94867118], [106.96665933, 47.94703506], [106.96672729, 47.94693044], [106.96684524, 47.94677263], [106.9669783, 47.94662035], [106.96711854, 47.94648105], [106.96748904, 47.94613668], [106.96749639, 47.94612987], [106.96765789, 47.94599056], [106.96783261, 47.94585864], [106.96801979, 47.94573468], [106.96821864, 47.94561922], [106.9684283, 47.94551273], [106.96864788, 47.94541569], [106.96887643, 47.9453285], [106.96890455, 47.94531936], [106.96898632, 47.94525761], [106.9691735, 47.94513365], [106.96937234, 47.94501818], [106.969582, 47.94491169], [106.96980157, 47.94481465], [106.97003012, 47.94472746], [106.97026667, 47.9446505], [106.9705102, 47.9445841], [106.97075612, 47.94452925], [106.9719711, 47.94428718], [106.97197465, 47.94428647], [106.972229, 47.94424199], [106.97248713, 47.94420879], [106.97274794, 47.94418699], [106.97301031, 47.9441767], [106.97327312, 47.94417797], [106.97353525, 47.94419077], [106.973648, 47.94419987], [106.97442523, 47.94427005], [106.97497854, 47.94424387], [106.9751579, 47.94423808], [106.97542071, 47.94423934], [106.97568284, 47.94425214], [106.97594316, 47.94427644], [106.97620055, 47.94431212], [106.97645393, 47.94435903], [106.97670219, 47.94441698], [106.97694429, 47.94448571], [106.97717917, 47.94456493], [106.97740584, 47.94465431], [106.97762333, 47.94475345], [106.9778307, 47.94486194], [106.97802707, 47.9449793], [106.97821159, 47.94510505], [106.97838347, 47.94523863], [106.97854199, 47.94537948], [106.97868646, 47.94552699], [106.97881626, 47.94568054], [106.97886879, 47.94575013], [106.97943909, 47.94623922], [106.97946412, 47.94626091], [106.97993709, 47.94667512], [106.98003157, 47.94676135], [106.98017604, 47.94690886], [106.98030585, 47.94706241], [106.98042043, 47.94722132], [106.98048005, 47.94731624], [106.98070502, 47.94769446], [106.98074428, 47.94776315], [106.980827, 47.94793076], [106.98089324, 47.94810164], [106.98091993, 47.94818754], [106.98117929, 47.94909599], [106.98120207, 47.94918351], [106.98123137, 47.94933647], [106.98131585, 47.94990546], [106.98161361, 47.95007313], [106.98179968, 47.9501847], [106.98198423, 47.95031044], [106.98215615, 47.95044402], [106.98231469, 47.95058486], [106.98245918, 47.95073237], [106.98258901, 47.95088591], [106.9827036, 47.95104483], [106.98280249, 47.95120844], [106.98288523, 47.95137604], [106.98295148, 47.95154692], [106.98300094, 47.95172035], [106.98303342, 47.95189558], [106.98304878, 47.95207186], [106.98304693, 47.95224843], [106.9830279, 47.95242455], [106.98299176, 47.95259946], [106.98293867, 47.9527724], [106.98286885, 47.95294264], [106.98279162, 47.95309357], [106.98099052, 47.95630096], [106.98098152, 47.95631684], [106.98087921, 47.9564795], [106.98076128, 47.95663732], [106.98062824, 47.95678962], [106.98048065, 47.95693575], [106.98031915, 47.95707508], [106.98014443, 47.95720701], [106.97995724, 47.95733099], [106.97975837, 47.95744648], [106.9795545, 47.95755022], [106.97923205, 47.9577037], [106.97922624, 47.95770646], [106.97900663, 47.95780353], [106.97877804, 47.95789073], [106.97854144, 47.95796771], [106.97829786, 47.95803413], [106.97804833, 47.9580897], [106.97779392, 47.9581342], [106.97775292, 47.95814026], [106.97731942, 47.95820279], [106.97710224, 47.95822995], [106.97684136, 47.95825175], [106.97657892, 47.95826205], [106.97631603, 47.9582608], [106.97605384, 47.958248], [106.97579345, 47.9582237], [106.97553598, 47.95818802], [106.97528254, 47.95814111], [106.97503421, 47.95808316], [106.97479205, 47.95801442], [106.97455711, 47.9579352], [106.97433039, 47.95784582], [106.97411285, 47.95774667], [106.97390544, 47.95763818], [106.97370903, 47.9575208], [106.97355255, 47.95741527], [106.97349782, 47.95739863], [106.97326288, 47.9573194], [106.97317349, 47.95728575], [106.97293075, 47.95729486], [106.97266787, 47.9572936], [106.97257787, 47.95729051], [106.9722054, 47.9572749], [106.97203321, 47.95726518], [106.97177283, 47.95724088], [106.97151537, 47.95720519], [106.97126194, 47.95715827], [106.97101362, 47.95710031], [106.97077147, 47.95703157], [106.97053654, 47.95695233], [106.97030983, 47.95686294], [106.9700923, 47.95676379], [106.96995438, 47.95669328], [106.9694924, 47.95644636], [106.96875056, 47.95623695], [106.96869866, 47.95622201], [106.96771251, 47.9559326], [106.96763657, 47.95590968], [106.96760753, 47.95590057], [106.96721208, 47.95577531], [106.96700619, 47.95570517], [106.96677949, 47.95561578], [106.96656198, 47.95551662], [106.96635459, 47.95540811], [106.96615821, 47.95529072], [106.96597368, 47.95516496], [106.96585041, 47.95507097], [106.96537379, 47.95489051], [106.96520035, 47.95482092], [106.96498284, 47.95472176], [106.96477546, 47.95461325], [106.96457908, 47.95449586], [106.96439456, 47.95437009], [106.96422268, 47.95423649], [106.96406417, 47.95409562], [106.96391972, 47.95394809], [106.96378994, 47.95379452], [106.9636754, 47.95363559], [106.96357657, 47.95347196], [106.96349389, 47.95330434], [106.9634277, 47.95313345], [106.9633783, 47.95296001], [106.96334588, 47.95278478], [106.9633306, 47.95260849]]]}, "geometry_name": "geom", "properties": {"guid": 9172, "id": 9172, "object_no": null, "object_name": null, "layer_type_id": 172, "valid_to": null, "address_no": null, "border_type": "solid", "border_width": 0, "border_color": null, "border_opacity": null, "border_wellknown": null, "fill_type": "color", "fill_color": "#b4a7d6", "fill_opacity": 0.63, "fill_wellknown": null, "fill_shape_color": null, "fill_shape_width": null, "fill_shape_size": null, "fill_img_url": null, "marker_img_url": null}},{"type": "Feature", "id": "layer_data_map.fid--27e80436_1a098c1eed1_-5418", "geometry": {"type": "Polygon", "coordinates": [[[106.77160498, 47.95488026], [106.77160241, 47.95505684], [106.77160044, 47.95508456], [106.77139554, 47.95769054], [106.77137775, 47.95783892], [106.77134089, 47.95801376], [106.77128709, 47.95818662], [106.77121657, 47.95835674], [106.77112964, 47.95852339], [106.77102666, 47.95868587], [106.77090808, 47.95884348], [106.77077441, 47.95899555], [106.77062622, 47.95914141], [106.77046414, 47.95928045], [106.77028887, 47.95941208], [106.77010115, 47.95953572], [106.7699018, 47.95965085], [106.76969166, 47.95975698], [106.76947164, 47.95985364], [106.76924268, 47.95994044], [106.76900575, 47.96001699], [106.76876188, 47.96008297], [106.7686917, 47.96009969], [106.76762691, 47.96034597], [106.76744732, 47.96038436], [106.7671927, 47.96042839], [106.76693435, 47.96046114], [106.76667336, 47.96048247], [106.76641085, 47.96049229], [106.76614795, 47.96049055], [106.76588578, 47.96047727], [106.76562546, 47.9604525], [106.76536812, 47.96041635], [106.76511484, 47.96036897], [106.76486673, 47.96031056], [106.76462483, 47.96024138], [106.76439018, 47.96016172], [106.7641638, 47.96007192], [106.76394665, 47.95997237], [106.76373965, 47.95986349], [106.7635437, 47.95974575], [106.76335964, 47.95961966], [106.76318825, 47.95948575], [106.76303027, 47.95934459], [106.76288637, 47.9591968], [106.76275717, 47.95904301], [106.76264322, 47.95888386], [106.76254501, 47.95872005], [106.76246297, 47.95855228], [106.76239743, 47.95838126], [106.76234869, 47.95820773], [106.76231695, 47.95803243], [106.76230455, 47.95768607], [106.76241289, 47.95587569], [106.76241329, 47.95586915], [106.76243308, 47.95569306], [106.76246996, 47.95551821], [106.76250136, 47.95541077], [106.7625071, 47.95514877], [106.76251031, 47.95507356], [106.76253009, 47.95489747], [106.76256698, 47.95472263], [106.76262081, 47.95454978], [106.76269135, 47.95437966], [106.76277831, 47.95421301], [106.7628813, 47.95405054], [106.76299989, 47.95389294], [106.76313358, 47.95374088], [106.76328177, 47.95359503], [106.76344386, 47.95345599], [106.76361913, 47.95332438], [106.76380683, 47.95320075], [106.76400617, 47.95308563], [106.7642163, 47.95297951], [106.7644363, 47.95288286], [106.76466524, 47.95279607], [106.76490214, 47.95271953], [106.76514598, 47.95265356], [106.76521616, 47.95263684], [106.7662808, 47.95239059], [106.76646037, 47.95235219], [106.76671494, 47.95230816], [106.76697325, 47.95227542], [106.7672342, 47.95225409], [106.76749667, 47.95224427], [106.76775953, 47.952246], [106.76802166, 47.95225928], [106.76828193, 47.95228404], [106.76853924, 47.95232019], [106.76879248, 47.95236756], [106.76904056, 47.95242596], [106.76928243, 47.95249514], [106.76951705, 47.95257479], [106.7697434, 47.95266458], [106.76996054, 47.95276412], [106.77016752, 47.95287298], [106.77036345, 47.95299071], [106.77054751, 47.95311679], [106.7707189, 47.95325069], [106.77087688, 47.95339184], [106.77102079, 47.95353962], [106.77115, 47.95369341], [106.77126396, 47.95385254], [106.77136218, 47.95401634], [106.77144425, 47.95418411], [106.77150981, 47.95435512], [106.77155857, 47.95452865], [106.77159034, 47.95470394], [106.77160498, 47.95488026]]]}, "geometry_name": "geom", "properties": {"guid": 9173, "id": 9173, "object_no": null, "object_name": null, "layer_type_id": 172, "valid_to": null, "address_no": null, "border_type": "solid", "border_width": 0, "border_color": null, "border_opacity": null, "border_wellknown": null, "fill_type": "color", "fill_color": "#b4a7d6", "fill_opacity": 0.63, "fill_wellknown": null, "fill_shape_color": null, "fill_shape_width": null, "fill_shape_size": null, "fill_img_url": null, "marker_img_url": null}},{"type": "Feature", "id": "layer_data_map.fid--27e80436_1a098c1eed1_-5417", "geometry": {"type": "Polygon", "coordinates": [[[106.93611695, 47.99681701], [106.93611577, 47.99673129], [106.93613213, 47.99508095], [106.93613531, 47.99499009], [106.93615451, 47.99481398], [106.93618813, 47.99464972], [106.93648649, 47.9934634], [106.93648919, 47.99345277], [106.93654248, 47.99327985], [106.93661249, 47.99310963], [106.93669895, 47.99294286], [106.93680146, 47.99278023], [106.9369196, 47.99262246], [106.93705287, 47.99247021], [106.93720067, 47.99232414], [106.9373624, 47.99218486], [106.93753735, 47.99205299], [106.93772477, 47.99192908], [106.93792386, 47.99181366], [106.93813377, 47.99170723], [106.9383536, 47.99161024], [106.93858241, 47.99152311], [106.93881922, 47.99144622], [106.93906301, 47.99137988], [106.93931274, 47.99132439], [106.93956735, 47.99127997], [106.93982573, 47.99124684], [106.94008679, 47.99122511], [106.94059151, 47.9912157], [106.94559502, 47.9913334], [106.94561598, 47.99133393], [106.94587834, 47.9913468], [106.94613889, 47.99137115], [106.9463965, 47.9914069], [106.94665008, 47.99145388], [106.94689854, 47.99151188], [106.94714082, 47.99158068], [106.94737588, 47.99165996], [106.94760271, 47.99174939], [106.94782034, 47.99184858], [106.94802784, 47.99195712], [106.94822432, 47.99207454], [106.94840894, 47.99220033], [106.94858092, 47.99233395], [106.9487395, 47.99247484], [106.94888402, 47.99262239], [106.94901385, 47.99277597], [106.94912844, 47.99293492], [106.94922731, 47.99309856], [106.94931001, 47.99326618], [106.9493762, 47.99343709], [106.9494245, 47.99360584], [106.94966217, 47.99460744], [106.94966327, 47.99461212], [106.94969567, 47.99478736], [106.94971092, 47.99496365], [106.94970897, 47.99514022], [106.94968981, 47.99531634], [106.94965353, 47.99549123], [106.9496322, 47.99556756], [106.94923385, 47.99688764], [106.94920194, 47.99698425], [106.94913196, 47.99715447], [106.94904554, 47.99732125], [106.94894305, 47.99748388], [106.94882494, 47.99764167], [106.94877499, 47.99770146], [106.94746967, 47.99921843], [106.94738638, 47.9993109], [106.94723858, 47.99945699], [106.94707686, 47.99959627], [106.94690191, 47.99972816], [106.94671448, 47.99985209], [106.94651538, 47.99996752], [106.94630545, 48.00007397], [106.9460856, 48.00017097], [106.94585677, 48.00025812], [106.94561993, 48.00033503], [106.94537611, 48.00040138], [106.94512634, 48.00045689], [106.94487169, 48.00050131], [106.94461327, 48.00053446], [106.94435216, 48.00055619], [106.9440895, 48.00056642], [106.9438264, 48.0005651], [106.94356399, 48.00055222], [106.94338956, 48.00053721], [106.9426506, 48.00046254], [106.9424169, 48.00047696], [106.94241272, 48.00047722], [106.94215005, 48.00048744], [106.94188696, 48.00048611], [106.94162455, 48.00047324], [106.94136396, 48.00044887], [106.9411063, 48.00041311], [106.94085268, 48.00036613], [106.94060419, 48.0003081], [106.94054243, 48.00029175], [106.93915294, 47.9999149], [106.93897239, 47.99986244], [106.93873731, 47.99978314], [106.93851046, 47.9996937], [106.93829281, 47.99959448], [106.9380853, 47.99948593], [106.93788881, 47.99936849], [106.93770418, 47.99924269], [106.93753222, 47.99910905], [106.93737364, 47.99896814], [106.93722914, 47.99882058], [106.93709932, 47.99866699], [106.93698475, 47.99850803], [106.93688592, 47.99834438], [106.93687848, 47.99833067], [106.93685041, 47.9983043], [106.93670591, 47.99815673], [106.9365761, 47.99800314], [106.93646153, 47.99784418], [106.9363627, 47.99768053], [106.93628003, 47.99751289], [106.93621387, 47.99734198], [106.93616451, 47.99716854], [106.93613216, 47.99699329], [106.93611695, 47.99681701]]]}, "geometry_name": "geom", "properties": {"guid": 9174, "id": 9174, "object_no": null, "object_name": null, "layer_type_id": 172, "valid_to": null, "address_no": null, "border_type": "solid", "border_width": 0, "border_color": null, "border_opacity": null, "border_wellknown": null, "fill_type": "color", "fill_color": "#b4a7d6", "fill_opacity": 0.63, "fill_wellknown": null, "fill_shape_color": null, "fill_shape_width": null, "fill_shape_size": null, "fill_img_url": null, "marker_img_url": null}},{"type": "Feature", "id": "layer_data_map.fid--27e80436_1a098c1eed1_-5416", "geometry": {"type": "Polygon", "coordinates": [[[106.77568168, 47.95745327], [106.77584681, 47.95753698], [106.77600531, 47.95762629], [106.77615676, 47.95772097], [106.77630075, 47.95782075], [106.7764369, 47.95792538], [106.77656486, 47.95803459], [106.77668428, 47.95814806], [106.77679484, 47.95826552], [106.77689625, 47.95838665], [106.77698825, 47.95851112], [106.77707058, 47.95863861], [106.77714304, 47.95876877], [106.77720542, 47.95890127], [106.77725757, 47.95903575], [106.77729934, 47.95917186], [106.77733062, 47.95930922], [106.77735134, 47.95944749], [106.77735561, 47.95949053], [106.77757659, 47.9620221], [106.77758241, 47.96211787], [106.77758185, 47.96225683], [106.77757064, 47.96239559], [106.77754881, 47.96253378], [106.77752591, 47.96263523], [106.77665551, 47.96605117], [106.77664602, 47.96608698], [106.77660314, 47.96622293], [106.7765499, 47.96635722], [106.77652702, 47.96640765], [106.77534401, 47.96892665], [106.77530342, 47.96900849], [106.77522989, 47.96913839], [106.77514651, 47.96926557], [106.77505349, 47.9693897], [106.77495107, 47.96951046], [106.77483953, 47.96962751], [106.77471917, 47.96974055], [106.7745903, 47.96984928], [106.77445326, 47.96995341], [106.77430843, 47.97005266], [106.77415617, 47.97014678], [106.77399691, 47.9702355], [106.77383105, 47.97031861], [106.77365904, 47.97039587], [106.77348134, 47.97046708], [106.77329841, 47.97053205], [106.77311075, 47.97059061], [106.77304477, 47.97060936], [106.76812335, 47.97197322], [106.76799742, 47.97200646], [106.76780177, 47.97205174], [106.76760291, 47.9720902], [106.76740136, 47.97212174], [106.76729301, 47.97213569], [106.76242898, 47.9727155], [106.75535636, 47.97655129], [106.75531603, 47.97657287], [106.75515013, 47.97665595], [106.75497807, 47.97673318], [106.75480032, 47.97680436], [106.75461735, 47.9768693], [106.75445256, 47.97692111], [106.74591997, 47.97944652], [106.74589705, 47.97945324], [106.74570508, 47.97950519], [106.74550938, 47.97955044], [106.74531047, 47.97958886], [106.74510889, 47.97962036], [106.74490515, 47.97964485], [106.7446998, 47.97966226], [106.7444934, 47.97967255], [106.74438101, 47.97967515], [106.73732743, 47.97977099], [106.73721501, 47.97977251], [106.73712049, 47.97977359], [106.7369136, 47.97976957], [106.73670729, 47.9797584], [106.73650212, 47.97974011], [106.73629861, 47.97971475], [106.73609733, 47.9796824], [106.73589879, 47.97964312], [106.73570352, 47.97959704], [106.73551205, 47.97954427], [106.73532488, 47.97948495], [106.7351425, 47.97941924], [106.73496541, 47.97934732], [106.73479406, 47.97926937], [106.73462892, 47.97918559], [106.73447042, 47.97909623], [106.73431898, 47.9790015], [106.73417501, 47.97890166], [106.73403889, 47.97879698], [106.73391097, 47.97868773], [106.7337916, 47.97857421], [106.73368109, 47.97845671], [106.73357973, 47.97833554], [106.7334878, 47.97821103], [106.73340554, 47.97808351], [106.73333317, 47.97795332], [106.73327087, 47.9778208], [106.73321882, 47.9776863], [106.73317714, 47.97755018], [106.73314596, 47.9774128], [106.73312536, 47.97727452], [106.73311538, 47.97713571], [106.73311606, 47.97699675], [106.73312739, 47.97685799], [106.73314935, 47.9767198], [106.73318187, 47.97658256], [106.73322486, 47.97644663], [106.73327823, 47.97631236], [106.73334181, 47.97618011], [106.73341545, 47.97605024], [106.73345528, 47.9759887], [106.7334983, 47.97592289], [106.73726888, 47.97016522], [106.73731327, 47.97009982], [106.73740639, 47.96997572], [106.7375089, 47.969855], [106.73762052, 47.96973798], [106.73774097, 47.96962498], [106.73786991, 47.96951629], [106.73798872, 47.96942549], [106.74444799, 47.96470548], [106.74807327, 47.96012652], [106.74808017, 47.96011784], [106.74818264, 47.95999711], [106.74829422, 47.95988009], [106.74841462, 47.95976707], [106.74854352, 47.95965837], [106.74868058, 47.95955427], [106.74882543, 47.95945505], [106.74894758, 47.95937882], [106.75311462, 47.95688417], [106.75314474, 47.95686631], [106.75330401, 47.95677761], [106.75346985, 47.95669454], [106.75364185, 47.95661731], [106.75381953, 47.95654613], [106.75400244, 47.95648119], [106.75419007, 47.95642266], [106.75438195, 47.95637069], [106.75457755, 47.95632543], [106.75477636, 47.95628699], [106.75497785, 47.95625548], [106.75518149, 47.95623097], [106.75538674, 47.95621355], [106.75559305, 47.95620324], [106.75579988, 47.95620007], [106.75600667, 47.95620407], [106.75601808, 47.95620449], [106.75900869, 47.95631975], [106.75951963, 47.9546713], [106.75954543, 47.9545938], [106.7595987, 47.95445952], [106.75966219, 47.95432726], [106.75973573, 47.95419737], [106.75981914, 47.95407019], [106.75991217, 47.95394607], [106.76001459, 47.95382533], [106.76012613, 47.9537083], [106.76024649, 47.95359527], [106.76037535, 47.95348656], [106.76051237, 47.95338245], [106.76065719, 47.95328321], [106.76080942, 47.95318911], [106.76096866, 47.9531004], [106.76113448, 47.95301732], [106.76130645, 47.95294008], [106.76148411, 47.95286889], [106.76166699, 47.95280393], [106.76181212, 47.95275796], [106.76490266, 47.95182913], [106.76494515, 47.95181656], [106.76513699, 47.95176457], [106.76533257, 47.95171929], [106.76553135, 47.95168084], [106.76573282, 47.95164931], [106.76593643, 47.95162478], [106.76614166, 47.95160734], [106.76634795, 47.95159701], [106.76655476, 47.95159382], [106.76676154, 47.9515978], [106.76696774, 47.95160892], [106.76717281, 47.95162715], [106.76737621, 47.95165246], [106.76757741, 47.95168476], [106.76777586, 47.95172398], [106.76797105, 47.95177], [106.76816245, 47.95182272], [106.76834956, 47.95188199], [106.76853188, 47.95194765], [106.76870892, 47.95201952], [106.76888023, 47.95209742], [106.76904534, 47.95218115], [106.76920381, 47.95227047], [106.76935523, 47.95236515], [106.76949919, 47.95246494], [106.76963532, 47.95256958], [106.76976324, 47.95267879], [106.76988263, 47.95279228], [106.76999317, 47.95290975], [106.77009455, 47.95303088], [106.77018652, 47.95315536], [106.77026883, 47.95328285], [106.77034126, 47.95341302], [106.77040362, 47.95354552], [106.77045575, 47.95368], [106.7704975, 47.95381611], [106.77052876, 47.95395348], [106.77054945, 47.95409175], [106.77055953, 47.95423055], [106.77055895, 47.95436952], [106.77054772, 47.95450828], [106.77054082, 47.95455985], [106.77010972, 47.95746819], [106.77222722, 47.95705631], [106.7723324, 47.95703689], [106.77253388, 47.95700535], [106.77273752, 47.95698081], [106.77294276, 47.95696335], [106.77314907, 47.95695301], [106.7733559, 47.95694981], [106.7735627, 47.95695377], [106.77376892, 47.95696488], [106.77397402, 47.9569831], [106.77417745, 47.95700839], [106.77437867, 47.95704069], [106.77457715, 47.95707989], [106.77477236, 47.95712591], [106.77496379, 47.95717861], [106.77515092, 47.95723787], [106.77533327, 47.95730351], [106.77551034, 47.95737538], [106.77568168, 47.95745327]]]}, "geometry_name": "geom", "properties": {"guid": 9175, "id": 9175, "object_no": null, "object_name": null, "layer_type_id": 172, "valid_to": null, "address_no": null, "border_type": "solid", "border_width": 0, "border_color": null, "border_opacity": null, "border_wellknown": null, "fill_type": "color", "fill_color": "#b4a7d6", "fill_opacity": 0.63, "fill_wellknown": null, "fill_shape_color": null, "fill_shape_width": null, "fill_shape_size": null, "fill_img_url": null, "marker_img_url": null}},{"type": "Feature", "id": "layer_data_map.fid--27e80436_1a098c1eed1_-5415", "geometry": {"type": "Polygon", "coordinates": [[[106.49483293, 48.03348543], [106.49504003, 48.03348988], [106.4952465, 48.03350149], [106.49545182, 48.03352021], [106.49565543, 48.03354599], [106.49585678, 48.03357877], [106.49605536, 48.03361845], [106.49625062, 48.03366494], [106.49644206, 48.03371811], [106.49662917, 48.03377782], [106.49681145, 48.03384391], [106.49698841, 48.0339162], [106.49715958, 48.03399451], [106.49732453, 48.03407862], [106.49748279, 48.03416832], [106.49763397, 48.03426336], [106.49777764, 48.0343635], [106.49778447, 48.03436852], [106.50454449, 48.03935388], [106.5046735, 48.03945381], [106.50480109, 48.03956332], [106.50492011, 48.03967708], [106.50503024, 48.03979481], [106.50513118, 48.03991618], [106.50522268, 48.04004087], [106.50530449, 48.04016856], [106.50537638, 48.0402989], [106.50543817, 48.04043155], [106.5054897, 48.04056615], [106.50553083, 48.04070236], [106.50556145, 48.04083981], [106.50558148, 48.04097813], [106.50559086, 48.04111696], [106.50558958, 48.04125593], [106.50557762, 48.04139467], [106.50555504, 48.04153282], [106.50552187, 48.04167], [106.50547822, 48.04180586], [106.5054242, 48.04194002], [106.50535996, 48.04207215], [106.50528565, 48.04220188], [106.50520148, 48.04232888], [106.50510768, 48.0424528], [106.50500448, 48.04257332], [106.50489217, 48.04269011], [106.50477105, 48.04280288], [106.50464142, 48.04291131], [106.50450365, 48.04301512], [106.50435809, 48.04311404], [106.50428895, 48.04315763], [106.49770321, 48.04721167], [106.49761937, 48.04726185], [106.49745938, 48.0473502], [106.49729283, 48.04743291], [106.49712014, 48.04750976], [106.49694179, 48.04758055], [106.49675823, 48.04764509], [106.49656996, 48.0477032], [106.49637748, 48.04775474], [106.4961813, 48.04779957], [106.49598194, 48.04783757], [106.49577992, 48.04786863], [106.49557579, 48.04789268], [106.49537008, 48.04790965], [106.49516334, 48.04791949], [106.49495612, 48.04792219], [106.49474896, 48.04791773], [106.49454243, 48.04790613], [106.49433705, 48.04788741], [106.49413339, 48.04786162], [106.49393198, 48.04782884], [106.49373335, 48.04778916], [106.49353803, 48.04774266], [106.49334654, 48.04768949], [106.49315939, 48.04762978], [106.49297707, 48.04756368], [106.49280007, 48.04749138], [106.49262885, 48.04741307], [106.49246388, 48.04732895], [106.49230558, 48.04723925], [106.49215437, 48.0471442], [106.49201067, 48.04704405], [106.49199887, 48.04703536], [106.48517325, 48.04198208], [106.48516163, 48.04197328], [106.48503746, 48.04187709], [106.48490991, 48.04176756], [106.48479093, 48.04165377], [106.48468084, 48.04153603], [106.48457994, 48.04141464], [106.48448849, 48.04128993], [106.48440673, 48.04116223], [106.48433489, 48.04103188], [106.48427315, 48.04089922], [106.48422167, 48.0407646], [106.4841806, 48.04062838], [106.48415003, 48.04049093], [106.48413007, 48.0403526], [106.48412074, 48.04021377], [106.48412208, 48.0400748], [106.48413409, 48.03993606], [106.48415674, 48.03979792], [106.48418996, 48.03966074], [106.48423366, 48.03952489], [106.48428773, 48.03939073], [106.48435203, 48.03925862], [106.48442639, 48.0391289], [106.4845106, 48.03900192], [106.48460445, 48.03887802], [106.48470768, 48.03875752], [106.48482003, 48.03864074], [106.48494119, 48.038528], [106.48507085, 48.03841958], [106.48520865, 48.03831579], [106.48535424, 48.0382169], [106.48546921, 48.03814605], [106.48550712, 48.03812308], [106.49213197, 48.03416832], [106.49217035, 48.0341457], [106.4923303, 48.03405735], [106.49249682, 48.03397465], [106.49266947, 48.03389781], [106.49284779, 48.03382703], [106.4930313, 48.03376249], [106.49321952, 48.03370438], [106.49341195, 48.03365285], [106.49360808, 48.03360803], [106.49380739, 48.03357004], [106.49400935, 48.03353898], [106.49421343, 48.03351493], [106.49441908, 48.03349797], [106.49462577, 48.03348812], [106.49483293, 48.03348543]]]}, "geometry_name": "geom", "properties": {"guid": 9176, "id": 9176, "object_no": null, "object_name": null, "layer_type_id": 172, "valid_to": null, "address_no": null, "border_type": "solid", "border_width": 0, "border_color": null, "border_opacity": null, "border_wellknown": null, "fill_type": "color", "fill_color": "#b4a7d6", "fill_opacity": 0.63, "fill_wellknown": null, "fill_shape_color": null, "fill_shape_width": null, "fill_shape_size": null, "fill_img_url": null, "marker_img_url": null}},{"type": "Feature", "id": "layer_data_map.fid--27e80436_1a098c1eed1_-5414", "geometry": {"type": "Polygon", "coordinates": [[[106.68399414, 47.79553191], [106.68419689, 47.79555737], [106.68439743, 47.79558982], [106.68459523, 47.79562919], [106.68478976, 47.79567537], [106.6849805, 47.79572824], [106.68516695, 47.79578765], [106.68534862, 47.79585345], [106.68552501, 47.79592546], [106.68569567, 47.7960035], [106.68586015, 47.79608735], [106.686018, 47.7961768], [106.68616881, 47.7962716], [106.68631218, 47.79637151], [106.68644772, 47.79647625], [106.68657508, 47.79658557], [106.68662563, 47.79663236], [106.68682748, 47.79682353], [106.68689578, 47.79689031], [106.68700578, 47.79700787], [106.68710667, 47.79712908], [106.68719815, 47.79725364], [106.68728, 47.7973812], [106.687352, 47.79751143], [106.68741395, 47.79764398], [106.6874657, 47.79777851], [106.68750709, 47.79791466], [106.68753803, 47.79805206], [106.68755843, 47.79819035], [106.68756824, 47.79832917], [106.68756743, 47.79846814], [106.687556, 47.7986069], [106.68753399, 47.79874508], [106.68750145, 47.79888231], [106.68745846, 47.79901823], [106.68740515, 47.79915248], [106.68737532, 47.7992175], [106.68726103, 47.79945592], [106.68711825, 47.80080293], [106.68711523, 47.80082954], [106.68709322, 47.80096772], [106.68706067, 47.80110495], [106.68701769, 47.80124087], [106.68696437, 47.80137512], [106.68690087, 47.80150735], [106.68686844, 47.80156712], [106.6866453, 47.80196378], [106.68660421, 47.80203386], [106.68652086, 47.80216098], [106.68642791, 47.80228504], [106.6863256, 47.80240572], [106.68621421, 47.80252268], [106.68609403, 47.80263563], [106.68602375, 47.80269639], [106.68566538, 47.80299726], [106.685607, 47.80304513], [106.68547021, 47.80314916], [106.68532566, 47.8032483], [106.68517373, 47.80334229], [106.68501481, 47.8034309], [106.68484933, 47.80351387], [106.68467773, 47.80359099], [106.68463102, 47.80361053], [106.68446141, 47.80368041], [106.68433085, 47.80373193], [106.68414839, 47.80379676], [106.68396122, 47.80385517], [106.68376983, 47.80390702], [106.68357473, 47.80395215], [106.68337645, 47.80399046], [106.68317549, 47.80402184], [106.68297241, 47.80404621], [106.68276773, 47.80406351], [106.68256201, 47.80407368], [106.68235578, 47.8040767], [106.68214959, 47.80407257], [106.68194399, 47.80406129], [106.68173952, 47.8040429], [106.68163849, 47.80403112], [106.6672217, 47.80222149], [106.66711995, 47.80220779], [106.6669194, 47.8021753], [106.66672159, 47.8021359], [106.66652705, 47.80208969], [106.6663363, 47.8020368], [106.66614985, 47.80197736], [106.66596819, 47.80191153], [106.6657918, 47.80183948], [106.66562114, 47.80176142], [106.66545668, 47.80167754], [106.66529885, 47.80158806], [106.66523204, 47.80154725], [106.65874949, 47.79749577], [106.65868357, 47.79745433], [106.65859908, 47.79740068], [106.65845576, 47.79730074], [106.65832027, 47.79719596], [106.65819296, 47.79708661], [106.65807418, 47.796973], [106.65796424, 47.79685542], [106.65786342, 47.79673418], [106.65777201, 47.7966096], [106.65769023, 47.79648201], [106.65761831, 47.79635176], [106.65755643, 47.79621919], [106.65750477, 47.79608465], [106.65746345, 47.79594849], [106.65743259, 47.79581108], [106.65741227, 47.79567278], [106.65740254, 47.79553396], [106.65740344, 47.79539499], [106.65741494, 47.79525623], [106.65743704, 47.79511806], [106.65746965, 47.79498084], [106.65751271, 47.79484492], [106.6575661, 47.79471069], [106.65762967, 47.79457848], [106.65770325, 47.79444865], [106.65778666, 47.79432155], [106.65787966, 47.79419751], [106.65796362, 47.79409806], [106.65798195, 47.79407683], [106.65847919, 47.79351261], [106.65849796, 47.79349154], [106.65860939, 47.7933746], [106.65872961, 47.79326168], [106.6588583, 47.79315308], [106.65899512, 47.79304908], [106.65913969, 47.79294998], [106.65929165, 47.79285601], [106.65945058, 47.79276745], [106.65961606, 47.79268451], [106.65978767, 47.79260743], [106.65996493, 47.79253639], [106.66014738, 47.79247161], [106.66033454, 47.79241323], [106.66052591, 47.79236143], [106.66072099, 47.79231633], [106.66091925, 47.79227806], [106.66112017, 47.79224672], [106.66132322, 47.79222239], [106.66152786, 47.79220513], [106.66173354, 47.792195], [106.66183661, 47.79219261], [106.66725598, 47.792114], [106.6673591, 47.7921134], [106.66756524, 47.79211756], [106.66777079, 47.79212887], [106.6679752, 47.79214729], [106.66817794, 47.79217277], [106.66837846, 47.79220526], [106.66857623, 47.79224466], [106.66877073, 47.79229087], [106.66896145, 47.79234376], [106.66914787, 47.79240319], [106.6693295, 47.79246902], [106.66950587, 47.79254106], [106.66967649, 47.79261912], [106.66984093, 47.79270299], [106.66999874, 47.79279246], [106.67014952, 47.79288729], [106.67029284, 47.79298722], [106.67030529, 47.7929964], [106.6727322, 47.79479453], [106.67937725, 47.79534015], [106.67952527, 47.79535419], [106.67972803, 47.79537966], [106.67992857, 47.79541212], [106.68012636, 47.7954515], [106.68032088, 47.79549769], [106.68048451, 47.79554305], [106.68203382, 47.79554225], [106.68205295, 47.79554227], [106.68211745, 47.79554356], [106.68269984, 47.79549864], [106.6827595, 47.79549434], [106.6829652, 47.79548417], [106.68317139, 47.79548114], [106.68337755, 47.79548527], [106.68358311, 47.79549655], [106.68363992, 47.79550094], [106.68384651, 47.7955179], [106.68399414, 47.79553191]]]}, "geometry_name": "geom", "properties": {"guid": 9177, "id": 9177, "object_no": null, "object_name": null, "layer_type_id": 172, "valid_to": null, "address_no": null, "border_type": "solid", "border_width": 0, "border_color": null, "border_opacity": null, "border_wellknown": null, "fill_type": "color", "fill_color": "#b4a7d6", "fill_opacity": 0.63, "fill_wellknown": null, "fill_shape_color": null, "fill_shape_width": null, "fill_shape_size": null, "fill_img_url": null, "marker_img_url": null}}]}