{"type":"FeatureCollection","features":[{"type": "Feature", "id": "layer_data_map.fid--27e80436_1a098b908f8_7e97", "geometry": {"type": "Point", "coordinates": [106.89330734, 47.91533529]}, "geometry_name": "geom", "properties": {"guid": 9156, "id": 9156, "object_no": null, "object_name": null, "layer_type_id": 231, "valid_to": null, "address_no": null, "border_type": "solid", "border_width": null, "border_color": null, "border_opacity": null, "border_wellknown": "horizline", "fill_type": "color", "fill_color": "#63a347", "fill_opacity": 1, "fill_wellknown": "horizline", "fill_shape_color": null, "fill_shape_width": null, "fill_shape_size": null, "fill_img_url": null, "marker_img_url": null}},{"type": "Feature", "id": "layer_data_map.fid--27e80436_1a098b908f8_7e98", "geometry": {"type": "Point", "coordinates": [106.94086876, 47.91932219]}, "geometry_name": "geom", "properties": {"guid": 9157, "id": 9157, "object_no": null, "object_name": null, "layer_type_id": 231, "valid_to": null, "address_no": null, "border_type": "solid", "border_width": null, "border_color": null, "border_opacity": null, "border_wellknown": "horizline", "fill_type": "color", "fill_color": "#63a347", "fill_opacity": 1, "fill_wellknown": "horizline", "fill_shape_color": null, "fill_shape_width": null, "fill_shape_size": null, "fill_img_url": null, "marker_img_url": null}},{"type": "Feature", "id": "layer_data_map.fid--27e80436_1a098b908f8_7e99", "geometry": {"type": "Point", "coordinates": [106.81971317, 47.91067356]}, "geometry_name": "geom", "properties": {"guid": 9158, "id": 9158, "object_no": null, "object_name": null, "layer_type_id": 231, "valid_to": null, "address_no": null, "border_type": "solid", "border_width": null, "border_color": null, "border_opacity": null, "border_wellknown": "horizline", "fill_type": "color", "fill_color": "#63a347", "fill_opacity": 1, "fill_wellknown": "horizline", "fill_shape_color": null, "fill_shape_width": null, "fill_shape_size": null, "fill_img_url": null, "marker_img_url": null}},{"type": "Feature", "id": "layer_data_map.fid--27e80436_1a098b908f8_7e9a", "geometry": {"type": "Point", "coordinates": [106.92325734, 47.91823787]}, "geometry_name": "geom", "properties": {"guid": 9159, "id": 9159, "object_no": null, "object_name": null, "layer_type_id": 231, "valid_to": null, "address_no": null, "border_type": "solid", "border_width": null, "border_color": null, "border_opacity": null, "border_wellknown": "horizline", "fill_type": "color", "fill_color": "#63a347", "fill_opacity": 1, "fill_wellknown": "horizline", "fill_shape_color": null, "fill_shape_width": null, "fill_shape_size": null, "fill_img_url": null, "marker_img_url": null}},{"type": "Feature", "id": "layer_data_map.fid--27e80436_1a098b908f8_7e9b", "geometry": {"type": "Point", "coordinates": [106.92749202, 47.93068143]}, "geometry_name": "geom", "properties": {"guid": 9160, "id": 9160, "object_no": null, "object_name": null, "layer_type_id": 231, "valid_to": null, "address_no": null, "border_type": "solid", "border_width": null, "border_color": null, "border_opacity": null, "border_wellknown": "horizline", "fill_type": "color", "fill_color": "#63a347", "fill_opacity": 1, "fill_wellknown": "horizline", "fill_shape_color": null, "fill_shape_width": null, "fill_shape_size": null, "fill_img_url": null, "marker_img_url": null}},{"type": "Feature", "id": "layer_data_map.fid--27e80436_1a098b908f8_7e9c", "geometry": {"type": "Point", "coordinates": [106.9103358, 47.90131603]}, "geometry_name": "geom", "properties": {"guid": 9161, "id": 9161, "object_no": null, "object_name": null, "layer_type_id": 231, "valid_to": null, "address_no": null, "border_type": "solid", "border_width": null, "border_color": null, "border_opacity": null, "border_wellknown": "horizline", "fill_type": "color", "fill_color": "#63a347", "fill_opacity": 1, "fill_wellknown": "horizline", "fill_shape_color": null, "fill_shape_width": null, "fill_shape_size": null, "fill_img_url": null, "marker_img_url": null}},{"type": "Feature", "id": "layer_data_map.fid--27e80436_1a098b908f8_7e9d", "geometry": {"type": "Point", "coordinates": [106.89965894, 47.92009509]}, "geometry_name": "geom", "properties": {"guid": 9162, "id": 9162, "object_no": null, "object_name": null, "layer_type_id": 231, "valid_to": null, "address_no": null, "border_type": "solid", "border_width": null, "border_color": null, "border_opacity": null, "border_wellknown": "horizline", "fill_type": "color", "fill_color": "#63a347", "fill_opacity": 1, "fill_wellknown": "horizline", "fill_shape_color": null, "fill_shape_width": null, "fill_shape_size": null, "fill_img_url": null, "marker_img_url": null}},{"type": "Feature", "id": "layer_data_map.fid--27e80436_1a098b908f8_7e9e", "geometry": {"type": "Point", "coordinates": [107.25364821, 47.77298557]}, "geometry_name": "geom", "properties": {"guid": 9163, "id": 9163, "object_no": null, "object_name": null, "layer_type_id": 231, "valid_to": null, "address_no": null, "border_type": "solid", "border_width": null, "border_color": null, "border_opacity": null, "border_wellknown": "horizline", "fill_type": "color", "fill_color": "#63a347", "fill_opacity": 1, "fill_wellknown": "horizline", "fill_shape_color": null, "fill_shape_width": null, "fill_shape_size": null, "fill_img_url": null, "marker_img_url": null}},{"type": "Feature", "id": "layer_data_map.fid--27e80436_1a098b908f8_7e9f", "geometry": {"type": "Point", "coordinates": [106.98683897, 47.92316403]}, "geometry_name": "geom", "properties": {"guid": 9164, "id": 9164, "object_no": null, "object_name": null, "layer_type_id": 231, "valid_to": null, "address_no": null, "border_type": "solid", "border_width": null, "border_color": null, "border_opacity": null, "border_wellknown": "horizline", "fill_type": "color", "fill_color": "#63a347", "fill_opacity": 1, "fill_wellknown": "horizline", "fill_shape_color": null, "fill_shape_width": null, "fill_shape_size": null, "fill_img_url": null, "marker_img_url": null}}]}