{"type":"FeatureCollection","features":[{"type": "Feature", "id": "layer_data_map.fid--27e80436_1a098b908f8_-3992", "geometry": {"type": "Point", "coordinates": [106.88982862, 47.92558398]}, "geometry_name": "geom", "properties": {"guid": 1854, "id": 1854, "object_no": null, "object_name": null, "layer_type_id": 217, "valid_to": null, "address_no": null, "border_type": "solid", "border_width": null, "border_color": "#cc0000", "border_opacity": null, "border_wellknown": "shape://horizline", "fill_type": "img", "fill_color": null, "fill_opacity": null, "fill_wellknown": null, "fill_shape_color": null, "fill_shape_width": null, "fill_shape_size": null, "fill_img_url": "fill_img_url/6396944ea94fe.png", "marker_img_url": "marker_img_url/6396806ceda49.png"}},{"type": "Feature", "id": "layer_data_map.fid--27e80436_1a098b908f8_-3991", "geometry": {"type": "Point", "coordinates": [106.92813587, 47.93116034]}, "geometry_name": "geom", "properties": {"guid": 1855, "id": 1855, "object_no": null, "object_name": null, "layer_type_id": 217, "valid_to": null, "address_no": null, "border_type": "solid", "border_width": null, "border_color": "#cc0000", "border_opacity": null, "border_wellknown": "shape://horizline", "fill_type": "img", "fill_color": null, "fill_opacity": null, "fill_wellknown": null, "fill_shape_color": null, "fill_shape_width": null, "fill_shape_size": null, "fill_img_url": "fill_img_url/6396944ea94fe.png", "marker_img_url": "marker_img_url/6396806ceda49.png"}},{"type": "Feature", "id": "layer_data_map.fid--27e80436_1a098b908f8_-3990", "geometry": {"type": "Point", "coordinates": [106.92925112, 47.93035692]}, "geometry_name": "geom", "properties": {"guid": 1856, "id": 1856, "object_no": null, "object_name": null, "layer_type_id": 217, "valid_to": null, "address_no": null, "border_type": "solid", "border_width": null, "border_color": "#cc0000", "border_opacity": null, "border_wellknown": "shape://horizline", "fill_type": "img", "fill_color": null, "fill_opacity": null, "fill_wellknown": null, "fill_shape_color": null, "fill_shape_width": null, "fill_shape_size": null, "fill_img_url": "fill_img_url/6396944ea94fe.png", "marker_img_url": "marker_img_url/6396806ceda49.png"}},{"type": "Feature", "id": "layer_data_map.fid--27e80436_1a098b908f8_-398f", "geometry": {"type": "Point", "coordinates": [106.90159575, 47.91359339]}, "geometry_name": "geom", "properties": {"guid": 1857, "id": 1857, "object_no": null, "object_name": null, "layer_type_id": 217, "valid_to": null, "address_no": null, "border_type": "solid", "border_width": null, "border_color": "#cc0000", "border_opacity": null, "border_wellknown": "shape://horizline", "fill_type": "img", "fill_color": null, "fill_opacity": null, "fill_wellknown": null, "fill_shape_color": null, "fill_shape_width": null, "fill_shape_size": null, "fill_img_url": "fill_img_url/6396944ea94fe.png", "marker_img_url": "marker_img_url/6396806ceda49.png"}},{"type": "Feature", "id": "layer_data_map.fid--27e80436_1a098b908f8_-398e", "geometry": {"type": "Point", "coordinates": [106.92801434, 47.91734426]}, "geometry_name": "geom", "properties": {"guid": 1858, "id": 1858, "object_no": null, "object_name": null, "layer_type_id": 217, "valid_to": null, "address_no": null, "border_type": "solid", "border_width": null, "border_color": "#cc0000", "border_opacity": null, "border_wellknown": "shape://horizline", "fill_type": "img", "fill_color": null, "fill_opacity": null, "fill_wellknown": null, "fill_shape_color": null, "fill_shape_width": null, "fill_shape_size": null, "fill_img_url": "fill_img_url/6396944ea94fe.png", "marker_img_url": "marker_img_url/6396806ceda49.png"}},{"type": "Feature", "id": "layer_data_map.fid--27e80436_1a098b908f8_-398d", "geometry": {"type": "Point", "coordinates": [106.9269993, 47.91549083]}, "geometry_name": "geom", "properties": {"guid": 1859, "id": 1859, "object_no": null, "object_name": null, "layer_type_id": 217, "valid_to": null, "address_no": null, "border_type": "solid", "border_width": null, "border_color": "#cc0000", "border_opacity": null, "border_wellknown": "shape://horizline", "fill_type": "img", "fill_color": null, "fill_opacity": null, "fill_wellknown": null, "fill_shape_color": null, "fill_shape_width": null, "fill_shape_size": null, "fill_img_url": "fill_img_url/6396944ea94fe.png", "marker_img_url": "marker_img_url/6396806ceda49.png"}},{"type": "Feature", "id": "layer_data_map.fid--27e80436_1a098b908f8_-398c", "geometry": {"type": "Point", "coordinates": [106.8928715, 47.89781972]}, "geometry_name": "geom", "properties": {"guid": 1860, "id": 1860, "object_no": null, "object_name": null, "layer_type_id": 217, "valid_to": null, "address_no": null, "border_type": "solid", "border_width": null, "border_color": "#cc0000", "border_opacity": null, "border_wellknown": "shape://horizline", "fill_type": "img", "fill_color": null, "fill_opacity": null, "fill_wellknown": null, "fill_shape_color": null, "fill_shape_width": null, "fill_shape_size": null, "fill_img_url": "fill_img_url/6396944ea94fe.png", "marker_img_url": "marker_img_url/6396806ceda49.png"}},{"type": "Feature", "id": "layer_data_map.fid--27e80436_1a098b908f8_-398b", "geometry": {"type": "Point", "coordinates": [106.9671566, 47.91677915]}, "geometry_name": "geom", "properties": {"guid": 1861, "id": 1861, "object_no": null, "object_name": null, "layer_type_id": 217, "valid_to": null, "address_no": null, "border_type": "solid", "border_width": null, "border_color": "#cc0000", "border_opacity": null, "border_wellknown": "shape://horizline", "fill_type": "img", "fill_color": null, "fill_opacity": null, "fill_wellknown": null, "fill_shape_color": null, "fill_shape_width": null, "fill_shape_size": null, "fill_img_url": "fill_img_url/6396944ea94fe.png", "marker_img_url": "marker_img_url/6396806ceda49.png"}},{"type": "Feature", "id": "layer_data_map.fid--27e80436_1a098b908f8_-398a", "geometry": {"type": "Point", "coordinates": [106.96397697, 47.91880763]}, "geometry_name": "geom", "properties": {"guid": 1862, "id": 1862, "object_no": null, "object_name": null, "layer_type_id": 217, "valid_to": null, "address_no": null, "border_type": "solid", "border_width": null, "border_color": "#cc0000", "border_opacity": null, "border_wellknown": "shape://horizline", "fill_type": "img", "fill_color": null, "fill_opacity": null, "fill_wellknown": null, "fill_shape_color": null, "fill_shape_width": null, "fill_shape_size": null, "fill_img_url": "fill_img_url/6396944ea94fe.png", "marker_img_url": "marker_img_url/6396806ceda49.png"}},{"type": "Feature", "id": "layer_data_map.fid--27e80436_1a098b908f8_-3989", "geometry": {"type": "Point", "coordinates": [106.96818205, 47.91474784]}, "geometry_name": "geom", "properties": {"guid": 1863, "id": 1863, "object_no": null, "object_name": null, "layer_type_id": 217, "valid_to": null, "address_no": null, "border_type": "solid", "border_width": null, "border_color": "#cc0000", "border_opacity": null, "border_wellknown": "shape://horizline", "fill_type": "img", "fill_color": null, "fill_opacity": null, "fill_wellknown": null, "fill_shape_color": null, "fill_shape_width": null, "fill_shape_size": null, "fill_img_url": "fill_img_url/6396944ea94fe.png", "marker_img_url": "marker_img_url/6396806ceda49.png"}},{"type": "Feature", "id": "layer_data_map.fid--27e80436_1a098b908f8_-3988", "geometry": {"type": "Point", "coordinates": [106.91441284, 47.92336609]}, "geometry_name": "geom", "properties": {"guid": 1864, "id": 1864, "object_no": null, "object_name": null, "layer_type_id": 217, "valid_to": null, "address_no": null, "border_type": "solid", "border_width": null, "border_color": "#cc0000", "border_opacity": null, "border_wellknown": "shape://horizline", "fill_type": "img", "fill_color": null, "fill_opacity": null, "fill_wellknown": null, "fill_shape_color": null, "fill_shape_width": null, "fill_shape_size": null, "fill_img_url": "fill_img_url/6396944ea94fe.png", "marker_img_url": "marker_img_url/6396806ceda49.png"}},{"type": "Feature", "id": "layer_data_map.fid--27e80436_1a098b908f8_-3987", "geometry": {"type": "Point", "coordinates": [106.91396437, 47.92555301]}, "geometry_name": "geom", "properties": {"guid": 1865, "id": 1865, "object_no": null, "object_name": null, "layer_type_id": 217, "valid_to": null, "address_no": null, "border_type": "solid", "border_width": null, "border_color": "#cc0000", "border_opacity": null, "border_wellknown": "shape://horizline", "fill_type": "img", "fill_color": null, "fill_opacity": null, "fill_wellknown": null, "fill_shape_color": null, "fill_shape_width": null, "fill_shape_size": null, "fill_img_url": "fill_img_url/6396944ea94fe.png", "marker_img_url": "marker_img_url/6396806ceda49.png"}},{"type": "Feature", "id": "layer_data_map.fid--27e80436_1a098b908f8_-3986", "geometry": {"type": "Point", "coordinates": [106.8843274, 47.92001323]}, "geometry_name": "geom", "properties": {"guid": 1866, "id": 1866, "object_no": null, "object_name": null, "layer_type_id": 217, "valid_to": null, "address_no": null, "border_type": "solid", "border_width": null, "border_color": "#cc0000", "border_opacity": null, "border_wellknown": "shape://horizline", "fill_type": "img", "fill_color": null, "fill_opacity": null, "fill_wellknown": null, "fill_shape_color": null, "fill_shape_width": null, "fill_shape_size": null, "fill_img_url": "fill_img_url/6396944ea94fe.png", "marker_img_url": "marker_img_url/6396806ceda49.png"}},{"type": "Feature", "id": "layer_data_map.fid--27e80436_1a098b908f8_-3985", "geometry": {"type": "Point", "coordinates": [106.85704172, 47.91464673]}, "geometry_name": "geom", "properties": {"guid": 1867, "id": 1867, "object_no": null, "object_name": null, "layer_type_id": 217, "valid_to": null, "address_no": null, "border_type": "solid", "border_width": null, "border_color": "#cc0000", "border_opacity": null, "border_wellknown": "shape://horizline", "fill_type": "img", "fill_color": null, "fill_opacity": null, "fill_wellknown": null, "fill_shape_color": null, "fill_shape_width": null, "fill_shape_size": null, "fill_img_url": "fill_img_url/6396944ea94fe.png", "marker_img_url": "marker_img_url/6396806ceda49.png"}},{"type": "Feature", "id": "layer_data_map.fid--27e80436_1a098b908f8_-3984", "geometry": {"type": "Point", "coordinates": [106.96477865, 47.91767395]}, "geometry_name": "geom", "properties": {"guid": 1868, "id": 1868, "object_no": null, "object_name": null, "layer_type_id": 217, "valid_to": null, "address_no": null, "border_type": "solid", "border_width": null, "border_color": "#cc0000", "border_opacity": null, "border_wellknown": "shape://horizline", "fill_type": "img", "fill_color": null, "fill_opacity": null, "fill_wellknown": null, "fill_shape_color": null, "fill_shape_width": null, "fill_shape_size": null, "fill_img_url": "fill_img_url/6396944ea94fe.png", "marker_img_url": "marker_img_url/6396806ceda49.png"}},{"type": "Feature", "id": "layer_data_map.fid--27e80436_1a098b908f8_-3983", "geometry": {"type": "Point", "coordinates": [106.8572454, 47.91952722]}, "geometry_name": "geom", "properties": {"guid": 1869, "id": 1869, "object_no": null, "object_name": null, "layer_type_id": 217, "valid_to": null, "address_no": null, "border_type": "solid", "border_width": null, "border_color": "#cc0000", "border_opacity": null, "border_wellknown": "shape://horizline", "fill_type": "img", "fill_color": null, "fill_opacity": null, "fill_wellknown": null, "fill_shape_color": null, "fill_shape_width": null, "fill_shape_size": null, "fill_img_url": "fill_img_url/6396944ea94fe.png", "marker_img_url": "marker_img_url/6396806ceda49.png"}},{"type": "Feature", "id": "layer_data_map.fid--27e80436_1a098b908f8_-3982", "geometry": {"type": "Point", "coordinates": [106.8465043, 47.91524527]}, "geometry_name": "geom", "properties": {"guid": 1870, "id": 1870, "object_no": null, "object_name": null, "layer_type_id": 217, "valid_to": null, "address_no": null, "border_type": "solid", "border_width": null, "border_color": "#cc0000", "border_opacity": null, "border_wellknown": "shape://horizline", "fill_type": "img", "fill_color": null, "fill_opacity": null, "fill_wellknown": null, "fill_shape_color": null, "fill_shape_width": null, "fill_shape_size": null, "fill_img_url": "fill_img_url/6396944ea94fe.png", "marker_img_url": "marker_img_url/6396806ceda49.png"}},{"type": "Feature", "id": "layer_data_map.fid--27e80436_1a098b908f8_-3981", "geometry": {"type": "Point", "coordinates": [106.81248691, 47.92044091]}, "geometry_name": "geom", "properties": {"guid": 1871, "id": 1871, "object_no": null, "object_name": null, "layer_type_id": 217, "valid_to": null, "address_no": null, "border_type": "solid", "border_width": null, "border_color": "#cc0000", "border_opacity": null, "border_wellknown": "shape://horizline", "fill_type": "img", "fill_color": null, "fill_opacity": null, "fill_wellknown": null, "fill_shape_color": null, "fill_shape_width": null, "fill_shape_size": null, "fill_img_url": "fill_img_url/6396944ea94fe.png", "marker_img_url": "marker_img_url/6396806ceda49.png"}},{"type": "Feature", "id": "layer_data_map.fid--27e80436_1a098b908f8_-3980", "geometry": {"type": "Point", "coordinates": [106.79501699, 47.90762376]}, "geometry_name": "geom", "properties": {"guid": 1872, "id": 1872, "object_no": null, "object_name": null, "layer_type_id": 217, "valid_to": null, "address_no": null, "border_type": "solid", "border_width": null, "border_color": "#cc0000", "border_opacity": null, "border_wellknown": "shape://horizline", "fill_type": "img", "fill_color": null, "fill_opacity": null, "fill_wellknown": null, "fill_shape_color": null, "fill_shape_width": null, "fill_shape_size": null, "fill_img_url": "fill_img_url/6396944ea94fe.png", "marker_img_url": "marker_img_url/6396806ceda49.png"}},{"type": "Feature", "id": "layer_data_map.fid--27e80436_1a098b908f8_-397f", "geometry": {"type": "Point", "coordinates": [106.83852886, 47.91430472]}, "geometry_name": "geom", "properties": {"guid": 1873, "id": 1873, "object_no": null, "object_name": null, "layer_type_id": 217, "valid_to": null, "address_no": null, "border_type": "solid", "border_width": null, "border_color": "#cc0000", "border_opacity": null, "border_wellknown": "shape://horizline", "fill_type": "img", "fill_color": null, "fill_opacity": null, "fill_wellknown": null, "fill_shape_color": null, "fill_shape_width": null, "fill_shape_size": null, "fill_img_url": "fill_img_url/6396944ea94fe.png", "marker_img_url": "marker_img_url/6396806ceda49.png"}},{"type": "Feature", "id": "layer_data_map.fid--27e80436_1a098b908f8_-397e", "geometry": {"type": "Point", "coordinates": [106.9145195, 47.9215511]}, "geometry_name": "geom", "properties": {"guid": 1874, "id": 1874, "object_no": null, "object_name": null, "layer_type_id": 217, "valid_to": null, "address_no": null, "border_type": "solid", "border_width": null, "border_color": "#cc0000", "border_opacity": null, "border_wellknown": "shape://horizline", "fill_type": "img", "fill_color": null, "fill_opacity": null, "fill_wellknown": null, "fill_shape_color": null, "fill_shape_width": null, "fill_shape_size": null, "fill_img_url": "fill_img_url/6396944ea94fe.png", "marker_img_url": "marker_img_url/6396806ceda49.png"}},{"type": "Feature", "id": "layer_data_map.fid--27e80436_1a098b908f8_-397d", "geometry": {"type": "Point", "coordinates": [106.94145689, 47.91440577]}, "geometry_name": "geom", "properties": {"guid": 1875, "id": 1875, "object_no": null, "object_name": null, "layer_type_id": 217, "valid_to": null, "address_no": null, "border_type": "solid", "border_width": null, "border_color": "#cc0000", "border_opacity": null, "border_wellknown": "shape://horizline", "fill_type": "img", "fill_color": null, "fill_opacity": null, "fill_wellknown": null, "fill_shape_color": null, "fill_shape_width": null, "fill_shape_size": null, "fill_img_url": "fill_img_url/6396944ea94fe.png", "marker_img_url": "marker_img_url/6396806ceda49.png"}},{"type": "Feature", "id": "layer_data_map.fid--27e80436_1a098b908f8_-397c", "geometry": {"type": "Point", "coordinates": [106.94525398, 47.91475935]}, "geometry_name": "geom", "properties": {"guid": 1876, "id": 1876, "object_no": null, "object_name": null, "layer_type_id": 217, "valid_to": null, "address_no": null, "border_type": "solid", "border_width": null, "border_color": "#cc0000", "border_opacity": null, "border_wellknown": "shape://horizline", "fill_type": "img", "fill_color": null, "fill_opacity": null, "fill_wellknown": null, "fill_shape_color": null, "fill_shape_width": null, "fill_shape_size": null, "fill_img_url": "fill_img_url/6396944ea94fe.png", "marker_img_url": "marker_img_url/6396806ceda49.png"}},{"type": "Feature", "id": "layer_data_map.fid--27e80436_1a098b908f8_-397b", "geometry": {"type": "Point", "coordinates": [106.87696308, 47.9134866]}, "geometry_name": "geom", "properties": {"guid": 1877, "id": 1877, "object_no": null, "object_name": null, "layer_type_id": 217, "valid_to": null, "address_no": null, "border_type": "solid", "border_width": null, "border_color": "#cc0000", "border_opacity": null, "border_wellknown": "shape://horizline", "fill_type": "img", "fill_color": null, "fill_opacity": null, "fill_wellknown": null, "fill_shape_color": null, "fill_shape_width": null, "fill_shape_size": null, "fill_img_url": "fill_img_url/6396944ea94fe.png", "marker_img_url": "marker_img_url/6396806ceda49.png"}},{"type": "Feature", "id": "layer_data_map.fid--27e80436_1a098b908f8_-397a", "geometry": {"type": "Point", "coordinates": [106.92377384, 47.91626299]}, "geometry_name": "geom", "properties": {"guid": 1878, "id": 1878, "object_no": null, "object_name": null, "layer_type_id": 217, "valid_to": null, "address_no": null, "border_type": "solid", "border_width": null, "border_color": "#cc0000", "border_opacity": null, "border_wellknown": "shape://horizline", "fill_type": "img", "fill_color": null, "fill_opacity": null, "fill_wellknown": null, "fill_shape_color": null, "fill_shape_width": null, "fill_shape_size": null, "fill_img_url": "fill_img_url/6396944ea94fe.png", "marker_img_url": "marker_img_url/6396806ceda49.png"}},{"type": "Feature", "id": "layer_data_map.fid--27e80436_1a098b908f8_-3979", "geometry": {"type": "Point", "coordinates": [106.91400577, 47.89383384]}, "geometry_name": "geom", "properties": {"guid": 1879, "id": 1879, "object_no": null, "object_name": null, "layer_type_id": 217, "valid_to": null, "address_no": null, "border_type": "solid", "border_width": null, "border_color": "#cc0000", "border_opacity": null, "border_wellknown": "shape://horizline", "fill_type": "img", "fill_color": null, "fill_opacity": null, "fill_wellknown": null, "fill_shape_color": null, "fill_shape_width": null, "fill_shape_size": null, "fill_img_url": "fill_img_url/6396944ea94fe.png", "marker_img_url": "marker_img_url/6396806ceda49.png"}},{"type": "Feature", "id": "layer_data_map.fid--27e80436_1a098b908f8_-3978", "geometry": {"type": "Point", "coordinates": [106.92425381, 47.91710122]}, "geometry_name": "geom", "properties": {"guid": 1880, "id": 1880, "object_no": null, "object_name": null, "layer_type_id": 217, "valid_to": null, "address_no": null, "border_type": "solid", "border_width": null, "border_color": "#cc0000", "border_opacity": null, "border_wellknown": "shape://horizline", "fill_type": "img", "fill_color": null, "fill_opacity": null, "fill_wellknown": null, "fill_shape_color": null, "fill_shape_width": null, "fill_shape_size": null, "fill_img_url": "fill_img_url/6396944ea94fe.png", "marker_img_url": "marker_img_url/6396806ceda49.png"}},{"type": "Feature", "id": "layer_data_map.fid--27e80436_1a098b908f8_-3977", "geometry": {"type": "Point", "coordinates": [106.87864622, 47.9177613]}, "geometry_name": "geom", "properties": {"guid": 1881, "id": 1881, "object_no": null, "object_name": null, "layer_type_id": 217, "valid_to": null, "address_no": null, "border_type": "solid", "border_width": null, "border_color": "#cc0000", "border_opacity": null, "border_wellknown": "shape://horizline", "fill_type": "img", "fill_color": null, "fill_opacity": null, "fill_wellknown": null, "fill_shape_color": null, "fill_shape_width": null, "fill_shape_size": null, "fill_img_url": "fill_img_url/6396944ea94fe.png", "marker_img_url": "marker_img_url/6396806ceda49.png"}},{"type": "Feature", "id": "layer_data_map.fid--27e80436_1a098b908f8_-3976", "geometry": {"type": "Point", "coordinates": [106.93767038, 47.91963976]}, "geometry_name": "geom", "properties": {"guid": 1882, "id": 1882, "object_no": null, "object_name": null, "layer_type_id": 217, "valid_to": null, "address_no": null, "border_type": "solid", "border_width": null, "border_color": "#cc0000", "border_opacity": null, "border_wellknown": "shape://horizline", "fill_type": "img", "fill_color": null, "fill_opacity": null, "fill_wellknown": null, "fill_shape_color": null, "fill_shape_width": null, "fill_shape_size": null, "fill_img_url": "fill_img_url/6396944ea94fe.png", "marker_img_url": "marker_img_url/6396806ceda49.png"}},{"type": "Feature", "id": "layer_data_map.fid--27e80436_1a098b908f8_-3975", "geometry": {"type": "Point", "coordinates": [106.83279467, 47.86821124]}, "geometry_name": "geom", "properties": {"guid": 1883, "id": 1883, "object_no": null, "object_name": null, "layer_type_id": 217, "valid_to": null, "address_no": null, "border_type": "solid", "border_width": null, "border_color": "#cc0000", "border_opacity": null, "border_wellknown": "shape://horizline", "fill_type": "img", "fill_color": null, "fill_opacity": null, "fill_wellknown": null, "fill_shape_color": null, "fill_shape_width": null, "fill_shape_size": null, "fill_img_url": "fill_img_url/6396944ea94fe.png", "marker_img_url": "marker_img_url/6396806ceda49.png"}},{"type": "Feature", "id": "layer_data_map.fid--27e80436_1a098b908f8_-3974", "geometry": {"type": "Point", "coordinates": [106.92546832, 47.92590689]}, "geometry_name": "geom", "properties": {"guid": 1884, "id": 1884, "object_no": null, "object_name": null, "layer_type_id": 217, "valid_to": null, "address_no": null, "border_type": "solid", "border_width": null, "border_color": "#cc0000", "border_opacity": null, "border_wellknown": "shape://horizline", "fill_type": "img", "fill_color": null, "fill_opacity": null, "fill_wellknown": null, "fill_shape_color": null, "fill_shape_width": null, "fill_shape_size": null, "fill_img_url": "fill_img_url/6396944ea94fe.png", "marker_img_url": "marker_img_url/6396806ceda49.png"}},{"type": "Feature", "id": "layer_data_map.fid--27e80436_1a098b908f8_-3973", "geometry": {"type": "Point", "coordinates": [106.92723137, 47.93609256]}, "geometry_name": "geom", "properties": {"guid": 1885, "id": 1885, "object_no": null, "object_name": null, "layer_type_id": 217, "valid_to": null, "address_no": null, "border_type": "solid", "border_width": null, "border_color": "#cc0000", "border_opacity": null, "border_wellknown": "shape://horizline", "fill_type": "img", "fill_color": null, "fill_opacity": null, "fill_wellknown": null, "fill_shape_color": null, "fill_shape_width": null, "fill_shape_size": null, "fill_img_url": "fill_img_url/6396944ea94fe.png", "marker_img_url": "marker_img_url/6396806ceda49.png"}},{"type": "Feature", "id": "layer_data_map.fid--27e80436_1a098b908f8_-3972", "geometry": {"type": "Point", "coordinates": [107.00970939, 47.9336681]}, "geometry_name": "geom", "properties": {"guid": 1886, "id": 1886, "object_no": null, "object_name": null, "layer_type_id": 217, "valid_to": null, "address_no": null, "border_type": "solid", "border_width": null, "border_color": "#cc0000", "border_opacity": null, "border_wellknown": "shape://horizline", "fill_type": "img", "fill_color": null, "fill_opacity": null, "fill_wellknown": null, "fill_shape_color": null, "fill_shape_width": null, "fill_shape_size": null, "fill_img_url": "fill_img_url/6396944ea94fe.png", "marker_img_url": "marker_img_url/6396806ceda49.png"}},{"type": "Feature", "id": "layer_data_map.fid--27e80436_1a098b908f8_-3971", "geometry": {"type": "Point", "coordinates": [107.24541026, 47.76986773]}, "geometry_name": "geom", "properties": {"guid": 1887, "id": 1887, "object_no": null, "object_name": null, "layer_type_id": 217, "valid_to": null, "address_no": null, "border_type": "solid", "border_width": null, "border_color": "#cc0000", "border_opacity": null, "border_wellknown": "shape://horizline", "fill_type": "img", "fill_color": null, "fill_opacity": null, "fill_wellknown": null, "fill_shape_color": null, "fill_shape_width": null, "fill_shape_size": null, "fill_img_url": "fill_img_url/6396944ea94fe.png", "marker_img_url": "marker_img_url/6396806ceda49.png"}},{"type": "Feature", "id": "layer_data_map.fid--27e80436_1a098b908f8_-3970", "geometry": {"type": "Point", "coordinates": [106.94522263, 47.92270348]}, "geometry_name": "geom", "properties": {"guid": 1888, "id": 1888, "object_no": null, "object_name": null, "layer_type_id": 217, "valid_to": null, "address_no": null, "border_type": "solid", "border_width": null, "border_color": "#cc0000", "border_opacity": null, "border_wellknown": "shape://horizline", "fill_type": "img", "fill_color": null, "fill_opacity": null, "fill_wellknown": null, "fill_shape_color": null, "fill_shape_width": null, "fill_shape_size": null, "fill_img_url": "fill_img_url/6396944ea94fe.png", "marker_img_url": "marker_img_url/6396806ceda49.png"}},{"type": "Feature", "id": "layer_data_map.fid--27e80436_1a098b908f8_-396f", "geometry": {"type": "Point", "coordinates": [106.94113018, 47.92157277]}, "geometry_name": "geom", "properties": {"guid": 1889, "id": 1889, "object_no": null, "object_name": null, "layer_type_id": 217, "valid_to": null, "address_no": null, "border_type": "solid", "border_width": null, "border_color": "#cc0000", "border_opacity": null, "border_wellknown": "shape://horizline", "fill_type": "img", "fill_color": null, "fill_opacity": null, "fill_wellknown": null, "fill_shape_color": null, "fill_shape_width": null, "fill_shape_size": null, "fill_img_url": "fill_img_url/6396944ea94fe.png", "marker_img_url": "marker_img_url/6396806ceda49.png"}},{"type": "Feature", "id": "layer_data_map.fid--27e80436_1a098b908f8_-396e", "geometry": {"type": "Point", "coordinates": [107.43556856, 47.3510489]}, "geometry_name": "geom", "properties": {"guid": 1890, "id": 1890, "object_no": null, "object_name": null, "layer_type_id": 217, "valid_to": null, "address_no": null, "border_type": "solid", "border_width": null, "border_color": "#cc0000", "border_opacity": null, "border_wellknown": "shape://horizline", "fill_type": "img", "fill_color": null, "fill_opacity": null, "fill_wellknown": null, "fill_shape_color": null, "fill_shape_width": null, "fill_shape_size": null, "fill_img_url": "fill_img_url/6396944ea94fe.png", "marker_img_url": "marker_img_url/6396806ceda49.png"}},{"type": "Feature", "id": "layer_data_map.fid--27e80436_1a098b908f8_-396d", "geometry": {"type": "Point", "coordinates": [108.37237243, 47.78486445]}, "geometry_name": "geom", "properties": {"guid": 1891, "id": 1891, "object_no": null, "object_name": null, "layer_type_id": 217, "valid_to": null, "address_no": null, "border_type": "solid", "border_width": null, "border_color": "#cc0000", "border_opacity": null, "border_wellknown": "shape://horizline", "fill_type": "img", "fill_color": null, "fill_opacity": null, "fill_wellknown": null, "fill_shape_color": null, "fill_shape_width": null, "fill_shape_size": null, "fill_img_url": "fill_img_url/6396944ea94fe.png", "marker_img_url": "marker_img_url/6396806ceda49.png"}},{"type": "Feature", "id": "layer_data_map.fid--27e80436_1a098b908f8_-396c", "geometry": {"type": "Point", "coordinates": [106.89447337, 47.89925454]}, "geometry_name": "geom", "properties": {"guid": 1892, "id": 1892, "object_no": null, "object_name": null, "layer_type_id": 217, "valid_to": null, "address_no": null, "border_type": "solid", "border_width": null, "border_color": "#cc0000", "border_opacity": null, "border_wellknown": "shape://horizline", "fill_type": "img", "fill_color": null, "fill_opacity": null, "fill_wellknown": null, "fill_shape_color": null, "fill_shape_width": null, "fill_shape_size": null, "fill_img_url": "fill_img_url/6396944ea94fe.png", "marker_img_url": "marker_img_url/6396806ceda49.png"}},{"type": "Feature", "id": "layer_data_map.fid--27e80436_1a098b908f8_-396b", "geometry": {"type": "Point", "coordinates": [106.9776299, 47.91857944]}, "geometry_name": "geom", "properties": {"guid": 1893, "id": 1893, "object_no": null, "object_name": null, "layer_type_id": 217, "valid_to": null, "address_no": null, "border_type": "solid", "border_width": null, "border_color": "#cc0000", "border_opacity": null, "border_wellknown": "shape://horizline", "fill_type": "img", "fill_color": null, "fill_opacity": null, "fill_wellknown": null, "fill_shape_color": null, "fill_shape_width": null, "fill_shape_size": null, "fill_img_url": "fill_img_url/6396944ea94fe.png", "marker_img_url": "marker_img_url/6396806ceda49.png"}},{"type": "Feature", "id": "layer_data_map.fid--27e80436_1a098b908f8_-396a", "geometry": {"type": "Point", "coordinates": [106.81354825, 47.91158916]}, "geometry_name": "geom", "properties": {"guid": 1894, "id": 1894, "object_no": null, "object_name": null, "layer_type_id": 217, "valid_to": null, "address_no": null, "border_type": "solid", "border_width": null, "border_color": "#cc0000", "border_opacity": null, "border_wellknown": "shape://horizline", "fill_type": "img", "fill_color": null, "fill_opacity": null, "fill_wellknown": null, "fill_shape_color": null, "fill_shape_width": null, "fill_shape_size": null, "fill_img_url": "fill_img_url/6396944ea94fe.png", "marker_img_url": "marker_img_url/6396806ceda49.png"}},{"type": "Feature", "id": "layer_data_map.fid--27e80436_1a098b908f8_-3969", "geometry": {"type": "Point", "coordinates": [107.16255702, 47.8116532]}, "geometry_name": "geom", "properties": {"guid": 1895, "id": 1895, "object_no": null, "object_name": null, "layer_type_id": 217, "valid_to": null, "address_no": null, "border_type": "solid", "border_width": null, "border_color": "#cc0000", "border_opacity": null, "border_wellknown": "shape://horizline", "fill_type": "img", "fill_color": null, "fill_opacity": null, "fill_wellknown": null, "fill_shape_color": null, "fill_shape_width": null, "fill_shape_size": null, "fill_img_url": "fill_img_url/6396944ea94fe.png", "marker_img_url": "marker_img_url/6396806ceda49.png"}},{"type": "Feature", "id": "layer_data_map.fid--27e80436_1a098b908f8_-3968", "geometry": {"type": "Point", "coordinates": [106.56215278, 47.75347521]}, "geometry_name": "geom", "properties": {"guid": 1896, "id": 1896, "object_no": null, "object_name": null, "layer_type_id": 217, "valid_to": null, "address_no": null, "border_type": "solid", "border_width": null, "border_color": "#cc0000", "border_opacity": null, "border_wellknown": "shape://horizline", "fill_type": "img", "fill_color": null, "fill_opacity": null, "fill_wellknown": null, "fill_shape_color": null, "fill_shape_width": null, "fill_shape_size": null, "fill_img_url": "fill_img_url/6396944ea94fe.png", "marker_img_url": "marker_img_url/6396806ceda49.png"}},{"type": "Feature", "id": "layer_data_map.fid--27e80436_1a098b908f8_-3967", "geometry": {"type": "Point", "coordinates": [107.25351004, 47.76926576]}, "geometry_name": "geom", "properties": {"guid": 1897, "id": 1897, "object_no": null, "object_name": null, "layer_type_id": 217, "valid_to": null, "address_no": null, "border_type": "solid", "border_width": null, "border_color": "#cc0000", "border_opacity": null, "border_wellknown": "shape://horizline", "fill_type": "img", "fill_color": null, "fill_opacity": null, "fill_wellknown": null, "fill_shape_color": null, "fill_shape_width": null, "fill_shape_size": null, "fill_img_url": "fill_img_url/6396944ea94fe.png", "marker_img_url": "marker_img_url/6396806ceda49.png"}},{"type": "Feature", "id": "layer_data_map.fid--27e80436_1a098b908f8_-3966", "geometry": {"type": "Point", "coordinates": [107.15646955, 47.92727704]}, "geometry_name": "geom", "properties": {"guid": 1898, "id": 1898, "object_no": null, "object_name": null, "layer_type_id": 217, "valid_to": null, "address_no": null, "border_type": "solid", "border_width": null, "border_color": "#cc0000", "border_opacity": null, "border_wellknown": "shape://horizline", "fill_type": "img", "fill_color": null, "fill_opacity": null, "fill_wellknown": null, "fill_shape_color": null, "fill_shape_width": null, "fill_shape_size": null, "fill_img_url": "fill_img_url/6396944ea94fe.png", "marker_img_url": "marker_img_url/6396806ceda49.png"}},{"type": "Feature", "id": "layer_data_map.fid--27e80436_1a098b908f8_-3965", "geometry": {"type": "Point", "coordinates": [106.64828068, 48.12437781]}, "geometry_name": "geom", "properties": {"guid": 1899, "id": 1899, "object_no": null, "object_name": null, "layer_type_id": 217, "valid_to": null, "address_no": null, "border_type": "solid", "border_width": null, "border_color": "#cc0000", "border_opacity": null, "border_wellknown": "shape://horizline", "fill_type": "img", "fill_color": null, "fill_opacity": null, "fill_wellknown": null, "fill_shape_color": null, "fill_shape_width": null, "fill_shape_size": null, "fill_img_url": "fill_img_url/6396944ea94fe.png", "marker_img_url": "marker_img_url/6396806ceda49.png"}}]}