{"type":"FeatureCollection","features":[{"type": "Feature", "id": "layer_data_map.fid--27e80436_1a098c1eed1_-53e7", "geometry": {"type": "Polygon", "coordinates": [[[107.46615671, 47.64964517], [107.46660493, 47.64972632], [107.46702549, 47.64985883], [107.46740561, 47.65003867], [107.46773374, 47.65026038], [107.46799991, 47.65051723], [107.46819604, 47.65080141], [107.46831616, 47.65110427], [107.46835662, 47.65141664], [107.46831619, 47.651729], [107.4681961, 47.65203188], [107.46799999, 47.65231606], [107.46773383, 47.65257291], [107.4674057, 47.65279464], [107.46702557, 47.65297449], [107.46660499, 47.65310701], [107.46615674, 47.65318816], [107.46569444, 47.65321549], [107.46523215, 47.65318817], [107.4647839, 47.65310701], [107.46436332, 47.65297449], [107.46398319, 47.65279464], [107.46365506, 47.65257291], [107.4633889, 47.65231606], [107.46319279, 47.65203187], [107.4630727, 47.651729], [107.46303227, 47.65141664], [107.46307273, 47.65110427], [107.46319285, 47.6508014], [107.46338898, 47.65051723], [107.46365515, 47.65026038], [107.46398328, 47.65003867], [107.4643634, 47.64985883], [107.46478396, 47.64972632], [107.46523218, 47.64964517], [107.46569444, 47.64961784], [107.46615671, 47.64964517]]]}, "geometry_name": "geom", "properties": {"guid": 85934, "id": 85934, "object_no": null, "object_name": null, "layer_type_id": 165, "valid_to": null, "address_no": null, "border_type": "solid", "border_width": null, "border_color": null, "border_opacity": null, "border_wellknown": null, "fill_type": "color", "fill_color": null, "fill_opacity": 1, "fill_wellknown": null, "fill_shape_color": null, "fill_shape_width": null, "fill_shape_size": null, "fill_img_url": null, "marker_img_url": null}},{"type": "Feature", "id": "layer_data_map.fid--27e80436_1a098c1eed1_-53e6", "geometry": {"type": "Polygon", "coordinates": [[[107.3968514, 47.67742295], [107.39729986, 47.67750411], [107.39772064, 47.67763661], [107.39810096, 47.67781646], [107.39842927, 47.67803817], [107.39869558, 47.67829501], [107.39889181, 47.67857919], [107.39901199, 47.67888205], [107.39905247, 47.67919441], [107.39901202, 47.67950678], [107.39889187, 47.67980965], [107.39869566, 47.68009383], [107.39842936, 47.68035069], [107.39810105, 47.68057241], [107.39772072, 47.68075226], [107.39729992, 47.68088478], [107.39685143, 47.68096593], [107.39638889, 47.68099326], [107.39592635, 47.68096593], [107.39547786, 47.68088478], [107.39505706, 47.68075226], [107.39467673, 47.68057241], [107.39434842, 47.68035069], [107.39408212, 47.68009383], [107.39388591, 47.67980965], [107.39376576, 47.67950678], [107.39372531, 47.67919441], [107.39376579, 47.67888205], [107.39388597, 47.67857918], [107.3940822, 47.67829501], [107.39434851, 47.67803817], [107.39467682, 47.67781646], [107.39505714, 47.67763661], [107.39547792, 47.6775041], [107.39592638, 47.67742295], [107.39638889, 47.67739563], [107.3968514, 47.67742295]]]}, "geometry_name": "geom", "properties": {"guid": 85935, "id": 85935, "object_no": null, "object_name": null, "layer_type_id": 165, "valid_to": null, "address_no": null, "border_type": "solid", "border_width": null, "border_color": null, "border_opacity": null, "border_wellknown": null, "fill_type": "color", "fill_color": null, "fill_opacity": 1, "fill_wellknown": null, "fill_shape_color": null, "fill_shape_width": null, "fill_shape_size": null, "fill_img_url": null, "marker_img_url": null}},{"type": "Feature", "id": "layer_data_map.fid--27e80436_1a098c1eed1_-53e5", "geometry": {"type": "Polygon", "coordinates": [[[107.36935188, 47.73178686], [107.36980081, 47.73186801], [107.37022203, 47.73200052], [107.37060274, 47.73218036], [107.37093139, 47.73240207], [107.37119798, 47.73265891], [107.37139441, 47.73294308], [107.37151472, 47.73324595], [107.37155524, 47.7335583], [107.37151475, 47.73387066], [107.37139447, 47.73417353], [107.37119806, 47.73445771], [107.37093148, 47.73471456], [107.37060283, 47.73493628], [107.37022211, 47.73511613], [107.36980087, 47.73524865], [107.36935191, 47.73532981], [107.36888889, 47.73535714], [107.36842587, 47.73532981], [107.36797691, 47.73524865], [107.36755567, 47.73511613], [107.36717495, 47.73493628], [107.3668463, 47.73471456], [107.36657972, 47.73445771], [107.36638331, 47.73417353], [107.36626303, 47.73387066], [107.36622253, 47.7335583], [107.36626306, 47.73324595], [107.36638336, 47.73294308], [107.3665798, 47.73265891], [107.36684639, 47.73240207], [107.36717504, 47.73218036], [107.36755575, 47.73200052], [107.36797697, 47.73186801], [107.3684259, 47.73178686], [107.36888889, 47.73175953], [107.36935188, 47.73178686]]]}, "geometry_name": "geom", "properties": {"guid": 85936, "id": 85936, "object_no": null, "object_name": null, "layer_type_id": 165, "valid_to": null, "address_no": null, "border_type": "solid", "border_width": null, "border_color": null, "border_opacity": null, "border_wellknown": null, "fill_type": "color", "fill_color": null, "fill_opacity": 1, "fill_wellknown": null, "fill_shape_color": null, "fill_shape_width": null, "fill_shape_size": null, "fill_img_url": null, "marker_img_url": null}},{"type": "Feature", "id": "layer_data_map.fid--27e80436_1a098c1eed1_-53e4", "geometry": {"type": "Polygon", "coordinates": [[[106.92813984, 47.75478246], [106.92795347, 47.75477147], [106.92750435, 47.75469031], [106.92708295, 47.7545578], [106.92676812, 47.75440913], [106.92813984, 47.75478246]]]}, "geometry_name": "geom", "properties": {"guid": 85937, "id": 85937, "object_no": null, "object_name": null, "layer_type_id": 165, "valid_to": null, "address_no": null, "border_type": "solid", "border_width": null, "border_color": null, "border_opacity": null, "border_wellknown": null, "fill_type": "color", "fill_color": null, "fill_opacity": 1, "fill_wellknown": null, "fill_shape_color": null, "fill_shape_width": null, "fill_shape_size": null, "fill_img_url": null, "marker_img_url": null}},{"type": "Feature", "id": "layer_data_map.fid--27e80436_1a098c1eed1_-53e3", "geometry": {"type": "Polygon", "coordinates": [[[106.93380501, 47.77100632], [106.93425427, 47.77108747], [106.93467581, 47.77121997], [106.93505681, 47.77139981], [106.9353857, 47.77162152], [106.93565249, 47.77187836], [106.93584907, 47.77216253], [106.93596947, 47.77246539], [106.93601002, 47.77277775], [106.9359695, 47.7730901], [106.93584913, 47.77339297], [106.93565257, 47.77367715], [106.93538579, 47.773934], [106.9350569, 47.77415572], [106.93467589, 47.77433557], [106.93425433, 47.77446808], [106.93380504, 47.77454924], [106.93334167, 47.77457657], [106.9328783, 47.77454924], [106.93242901, 47.77446808], [106.93200745, 47.77433557], [106.93162644, 47.77415572], [106.93129754, 47.773934], [106.93103076, 47.77367715], [106.9308342, 47.77339297], [106.93071383, 47.7730901], [106.93067331, 47.77277775], [106.93071386, 47.77246539], [106.93083426, 47.77216253], [106.93103084, 47.77187836], [106.93129763, 47.77162152], [106.93162653, 47.77139981], [106.93200753, 47.77121997], [106.93242906, 47.77108747], [106.93287833, 47.77100632], [106.93334167, 47.77097899], [106.93380501, 47.77100632]]]}, "geometry_name": "geom", "properties": {"guid": 85938, "id": 85938, "object_no": null, "object_name": null, "layer_type_id": 165, "valid_to": null, "address_no": null, "border_type": "solid", "border_width": null, "border_color": null, "border_opacity": null, "border_wellknown": null, "fill_type": "color", "fill_color": null, "fill_opacity": 1, "fill_wellknown": null, "fill_shape_color": null, "fill_shape_width": null, "fill_shape_size": null, "fill_img_url": null, "marker_img_url": null}},{"type": "Feature", "id": "layer_data_map.fid--27e80436_1a098c1eed1_-53e2", "geometry": {"type": "Polygon", "coordinates": [[[107.20240796, 47.79072854], [107.20285739, 47.79080969], [107.20327909, 47.7909422], [107.20366024, 47.79112204], [107.20398925, 47.79134375], [107.20425614, 47.79160059], [107.2044528, 47.79188475], [107.20457324, 47.79218761], [107.20461381, 47.79249997], [107.20457328, 47.79281233], [107.20445286, 47.79311519], [107.20425623, 47.79339937], [107.20398934, 47.79365622], [107.20366033, 47.79387794], [107.20327917, 47.79405778], [107.20285745, 47.7941903], [107.20240799, 47.79427145], [107.20194444, 47.79429878], [107.2014809, 47.79427145], [107.20103144, 47.7941903], [107.20060972, 47.79405778], [107.20022856, 47.79387794], [107.19989955, 47.79365622], [107.19963266, 47.79339937], [107.19943603, 47.79311519], [107.19931561, 47.79281233], [107.19927508, 47.79249997], [107.19931565, 47.79218762], [107.19943609, 47.79188475], [107.19963275, 47.79160059], [107.19989964, 47.79134375], [107.20022865, 47.79112204], [107.2006098, 47.7909422], [107.2010315, 47.79080969], [107.20148093, 47.79072854], [107.20194445, 47.79070122], [107.20240796, 47.79072854]]]}, "geometry_name": "geom", "properties": {"guid": 85939, "id": 85939, "object_no": null, "object_name": null, "layer_type_id": 165, "valid_to": null, "address_no": null, "border_type": "solid", "border_width": null, "border_color": null, "border_opacity": null, "border_wellknown": null, "fill_type": "color", "fill_color": null, "fill_opacity": 1, "fill_wellknown": null, "fill_shape_color": null, "fill_shape_width": null, "fill_shape_size": null, "fill_img_url": null, "marker_img_url": null}},{"type": "Feature", "id": "layer_data_map.fid--27e80436_1a098c1eed1_-53e1", "geometry": {"type": "Polygon", "coordinates": [[[107.20518607, 47.82795078], [107.20563582, 47.82803193], [107.20605782, 47.82816443], [107.20643924, 47.82834427], [107.20676849, 47.82856598], [107.20703557, 47.82882281], [107.20723237, 47.82910698], [107.2073529, 47.82940984], [107.2073935, 47.82972219], [107.20735293, 47.83003454], [107.20723243, 47.83033741], [107.20703565, 47.83062159], [107.20676858, 47.83087843], [107.20643933, 47.83110015], [107.2060579, 47.83128], [107.20563588, 47.83141251], [107.2051861, 47.83149367], [107.20472222, 47.83152099], [107.20425834, 47.83149366], [107.20380856, 47.83141251], [107.20338655, 47.83127999], [107.20300511, 47.83110015], [107.20267586, 47.83087843], [107.20240879, 47.83062158], [107.20221202, 47.83033741], [107.20209151, 47.83003455], [107.20205095, 47.82972219], [107.20209155, 47.82940984], [107.20221208, 47.82910698], [107.20240887, 47.82882281], [107.20267595, 47.82856598], [107.2030052, 47.82834427], [107.20338663, 47.82816443], [107.20380862, 47.82803193], [107.20425838, 47.82795078], [107.20472222, 47.82792345], [107.20518607, 47.82795078]]]}, "geometry_name": "geom", "properties": {"guid": 85940, "id": 85940, "object_no": null, "object_name": null, "layer_type_id": 165, "valid_to": null, "address_no": null, "border_type": "solid", "border_width": null, "border_color": null, "border_opacity": null, "border_wellknown": null, "fill_type": "color", "fill_color": null, "fill_opacity": 1, "fill_wellknown": null, "fill_shape_color": null, "fill_shape_width": null, "fill_shape_size": null, "fill_img_url": null, "marker_img_url": null}},{"type": "Feature", "id": "layer_data_map.fid--27e80436_1a098c1eed1_-53e0", "geometry": {"type": "Polygon", "coordinates": [[[107.26736476, 47.93017303], [107.2678154, 47.93025418], [107.26823823, 47.93038668], [107.2686204, 47.93056652], [107.2689503, 47.93078822], [107.26921791, 47.93104505], [107.26941509, 47.93132921], [107.26953586, 47.93163207], [107.26957654, 47.93194441], [107.26953589, 47.93225676], [107.26941515, 47.93255962], [107.26921799, 47.93284379], [107.26895039, 47.93310063], [107.26862049, 47.93332235], [107.26823831, 47.93350219], [107.26781546, 47.9336347], [107.26736479, 47.93371586], [107.2669, 47.93374318], [107.26643521, 47.93371586], [107.26598454, 47.9336347], [107.26556169, 47.93350219], [107.26517951, 47.93332235], [107.26484961, 47.93310064], [107.26458201, 47.93284379], [107.26438485, 47.93255962], [107.26426411, 47.93225676], [107.26422347, 47.93194441], [107.26426414, 47.93163207], [107.26438491, 47.93132921], [107.26458209, 47.93104505], [107.2648497, 47.93078822], [107.2651796, 47.93056652], [107.26556177, 47.93038668], [107.2659846, 47.93025418], [107.26643524, 47.93017303], [107.2669, 47.93014571], [107.26736476, 47.93017303]]]}, "geometry_name": "geom", "properties": {"guid": 85941, "id": 85941, "object_no": null, "object_name": null, "layer_type_id": 165, "valid_to": null, "address_no": null, "border_type": "solid", "border_width": null, "border_color": null, "border_opacity": null, "border_wellknown": null, "fill_type": "color", "fill_color": null, "fill_opacity": 1, "fill_wellknown": null, "fill_shape_color": null, "fill_shape_width": null, "fill_shape_size": null, "fill_img_url": null, "marker_img_url": null}},{"type": "Feature", "id": "layer_data_map.fid--27e80436_1a098c1eed1_-53df", "geometry": {"type": "Polygon", "coordinates": [[[106.61579828, 47.95100637], [106.6162491, 47.95108752], [106.6166721, 47.95122002], [106.61705442, 47.95139986], [106.61738446, 47.95162156], [106.61765217, 47.95187839], [106.61784944, 47.95216255], [106.61797025, 47.9524654], [106.61801095, 47.95277775], [106.61797028, 47.95309009], [106.6178495, 47.95339295], [106.61765225, 47.95367712], [106.61738455, 47.95393396], [106.61705451, 47.95415568], [106.61667218, 47.95433552], [106.61624916, 47.95446803], [106.61579831, 47.95454918], [106.61533333, 47.95457651], [106.61486836, 47.95454918], [106.61441751, 47.95446803], [106.61399449, 47.95433552], [106.61361215, 47.95415567], [106.61328212, 47.95393396], [106.61301441, 47.95367712], [106.61281717, 47.95339295], [106.61269638, 47.9530901], [106.61265572, 47.95277775], [106.61269642, 47.9524654], [106.61281723, 47.95216255], [106.61301449, 47.95187839], [106.61328221, 47.95162156], [106.61361224, 47.95139986], [106.61399457, 47.95122002], [106.61441757, 47.95108752], [106.61486839, 47.95100637], [106.61533333, 47.95097905], [106.61579828, 47.95100637]]]}, "geometry_name": "geom", "properties": {"guid": 85942, "id": 85942, "object_no": null, "object_name": null, "layer_type_id": 165, "valid_to": null, "address_no": null, "border_type": "solid", "border_width": null, "border_color": null, "border_opacity": null, "border_wellknown": null, "fill_type": "color", "fill_color": null, "fill_opacity": 1, "fill_wellknown": null, "fill_shape_color": null, "fill_shape_width": null, "fill_shape_size": null, "fill_img_url": null, "marker_img_url": null}},{"type": "Feature", "id": "layer_data_map.fid--27e80436_1a098c1eed1_-53de", "geometry": {"type": "Polygon", "coordinates": [[[106.45965996, 48.01408972], [106.46011133, 48.01417087], [106.46053484, 48.01430337], [106.46091763, 48.0144832], [106.46124807, 48.0147049], [106.46151611, 48.01496173], [106.46171361, 48.01524589], [106.46183458, 48.01554874], [106.46187532, 48.01586108], [106.46183461, 48.01617342], [106.46171368, 48.01647628], [106.46151619, 48.01676044], [106.46124816, 48.01701728], [106.46091773, 48.01723899], [106.46053492, 48.01741883], [106.46011139, 48.01755135], [106.45965999, 48.0176325], [106.45929651, 48.01765383], [106.45906503, 48.01406999], [106.45919444, 48.0140624], [106.45965996, 48.01408972]]]}, "geometry_name": "geom", "properties": {"guid": 85943, "id": 85943, "object_no": null, "object_name": null, "layer_type_id": 165, "valid_to": null, "address_no": null, "border_type": "solid", "border_width": null, "border_color": null, "border_opacity": null, "border_wellknown": null, "fill_type": "color", "fill_color": null, "fill_opacity": 1, "fill_wellknown": null, "fill_shape_color": null, "fill_shape_width": null, "fill_shape_size": null, "fill_img_url": null, "marker_img_url": null}}]}