{"type":"FeatureCollection","features":[{"type": "Feature", "id": "layer_data_map.fid--27e80436_1a098c1eed1_1faf", "geometry": {"type": "Point", "coordinates": [106.85059062, 47.8280449]}, "geometry_name": "geom", "properties": {"guid": 6514, "id": 6514, "object_no": null, "object_name": null, "layer_type_id": 224, "valid_to": null, "address_no": null, "border_type": "solid", "border_width": null, "border_color": null, "border_opacity": null, "border_wellknown": "horizline", "fill_type": "color", "fill_color": "#660000", "fill_opacity": 1, "fill_wellknown": "horizline", "fill_shape_color": null, "fill_shape_width": null, "fill_shape_size": null, "fill_img_url": null, "marker_img_url": null}},{"type": "Feature", "id": "layer_data_map.fid--27e80436_1a098c1eed1_1fb0", "geometry": {"type": "Point", "coordinates": [106.78701914, 47.80787758]}, "geometry_name": "geom", "properties": {"guid": 6515, "id": 6515, "object_no": null, "object_name": null, "layer_type_id": 224, "valid_to": null, "address_no": null, "border_type": "solid", "border_width": null, "border_color": null, "border_opacity": null, "border_wellknown": "horizline", "fill_type": "color", "fill_color": "#660000", "fill_opacity": 1, "fill_wellknown": "horizline", "fill_shape_color": null, "fill_shape_width": null, "fill_shape_size": null, "fill_img_url": null, "marker_img_url": null}},{"type": "Feature", "id": "layer_data_map.fid--27e80436_1a098c1eed1_1fb1", "geometry": {"type": "Point", "coordinates": [106.83659663, 47.809174]}, "geometry_name": "geom", "properties": {"guid": 6516, "id": 6516, "object_no": null, "object_name": null, "layer_type_id": 224, "valid_to": null, "address_no": null, "border_type": "solid", "border_width": null, "border_color": null, "border_opacity": null, "border_wellknown": "horizline", "fill_type": "color", "fill_color": "#660000", "fill_opacity": 1, "fill_wellknown": "horizline", "fill_shape_color": null, "fill_shape_width": null, "fill_shape_size": null, "fill_img_url": null, "marker_img_url": null}},{"type": "Feature", "id": "layer_data_map.fid--27e80436_1a098c1eed1_1fb2", "geometry": {"type": "Point", "coordinates": [106.8172525, 47.80939536]}, "geometry_name": "geom", "properties": {"guid": 6517, "id": 6517, "object_no": null, "object_name": null, "layer_type_id": 224, "valid_to": null, "address_no": null, "border_type": "solid", "border_width": null, "border_color": null, "border_opacity": null, "border_wellknown": "horizline", "fill_type": "color", "fill_color": "#660000", "fill_opacity": 1, "fill_wellknown": "horizline", "fill_shape_color": null, "fill_shape_width": null, "fill_shape_size": null, "fill_img_url": null, "marker_img_url": null}},{"type": "Feature", "id": "layer_data_map.fid--27e80436_1a098c1eed1_1fb3", "geometry": {"type": "Point", "coordinates": [106.8491818, 47.77525969]}, "geometry_name": "geom", "properties": {"guid": 6518, "id": 6518, "object_no": null, "object_name": null, "layer_type_id": 224, "valid_to": null, "address_no": null, "border_type": "solid", "border_width": null, "border_color": null, "border_opacity": null, "border_wellknown": "horizline", "fill_type": "color", "fill_color": "#660000", "fill_opacity": 1, "fill_wellknown": "horizline", "fill_shape_color": null, "fill_shape_width": null, "fill_shape_size": null, "fill_img_url": null, "marker_img_url": null}},{"type": "Feature", "id": "layer_data_map.fid--27e80436_1a098c1eed1_1fb4", "geometry": {"type": "Point", "coordinates": [106.67494439, 47.85279613]}, "geometry_name": "geom", "properties": {"guid": 6519, "id": 6519, "object_no": null, "object_name": null, "layer_type_id": 224, "valid_to": null, "address_no": null, "border_type": "solid", "border_width": null, "border_color": null, "border_opacity": null, "border_wellknown": "horizline", "fill_type": "color", "fill_color": "#660000", "fill_opacity": 1, "fill_wellknown": "horizline", "fill_shape_color": null, "fill_shape_width": null, "fill_shape_size": null, "fill_img_url": null, "marker_img_url": null}},{"type": "Feature", "id": "layer_data_map.fid--27e80436_1a098c1eed1_1fb5", "geometry": {"type": "Point", "coordinates": [106.66239644, 47.85141897]}, "geometry_name": "geom", "properties": {"guid": 6520, "id": 6520, "object_no": null, "object_name": null, "layer_type_id": 224, "valid_to": null, "address_no": null, "border_type": "solid", "border_width": null, "border_color": null, "border_opacity": null, "border_wellknown": "horizline", "fill_type": "color", "fill_color": "#660000", "fill_opacity": 1, "fill_wellknown": "horizline", "fill_shape_color": null, "fill_shape_width": null, "fill_shape_size": null, "fill_img_url": null, "marker_img_url": null}},{"type": "Feature", "id": "layer_data_map.fid--27e80436_1a098c1eed1_1fb6", "geometry": {"type": "Point", "coordinates": [106.6801346, 47.85245647]}, "geometry_name": "geom", "properties": {"guid": 6521, "id": 6521, "object_no": null, "object_name": null, "layer_type_id": 224, "valid_to": null, "address_no": null, "border_type": "solid", "border_width": null, "border_color": null, "border_opacity": null, "border_wellknown": "horizline", "fill_type": "color", "fill_color": "#660000", "fill_opacity": 1, "fill_wellknown": "horizline", "fill_shape_color": null, "fill_shape_width": null, "fill_shape_size": null, "fill_img_url": null, "marker_img_url": null}},{"type": "Feature", "id": "layer_data_map.fid--27e80436_1a098c1eed1_1fb7", "geometry": {"type": "Point", "coordinates": [106.89863371, 47.8806227]}, "geometry_name": "geom", "properties": {"guid": 6522, "id": 6522, "object_no": null, "object_name": null, "layer_type_id": 224, "valid_to": null, "address_no": null, "border_type": "solid", "border_width": null, "border_color": null, "border_opacity": null, "border_wellknown": "horizline", "fill_type": "color", "fill_color": "#660000", "fill_opacity": 1, "fill_wellknown": "horizline", "fill_shape_color": null, "fill_shape_width": null, "fill_shape_size": null, "fill_img_url": null, "marker_img_url": null}},{"type": "Feature", "id": "layer_data_map.fid--27e80436_1a098c1eed1_1fb8", "geometry": {"type": "Point", "coordinates": [106.90339638, 47.86387955]}, "geometry_name": "geom", "properties": {"guid": 6523, "id": 6523, "object_no": null, "object_name": null, "layer_type_id": 224, "valid_to": null, "address_no": null, "border_type": "solid", "border_width": null, "border_color": null, "border_opacity": null, "border_wellknown": "horizline", "fill_type": "color", "fill_color": "#660000", "fill_opacity": 1, "fill_wellknown": "horizline", "fill_shape_color": null, "fill_shape_width": null, "fill_shape_size": null, "fill_img_url": null, "marker_img_url": null}},{"type": "Feature", "id": "layer_data_map.fid--27e80436_1a098c1eed1_1fb9", "geometry": {"type": "Point", "coordinates": [106.97432301, 47.88138995]}, "geometry_name": "geom", "properties": {"guid": 6524, "id": 6524, "object_no": null, "object_name": null, "layer_type_id": 224, "valid_to": null, "address_no": null, "border_type": "solid", "border_width": null, "border_color": null, "border_opacity": null, "border_wellknown": "horizline", "fill_type": "color", "fill_color": "#660000", "fill_opacity": 1, "fill_wellknown": "horizline", "fill_shape_color": null, "fill_shape_width": null, "fill_shape_size": null, "fill_img_url": null, "marker_img_url": null}},{"type": "Feature", "id": "layer_data_map.fid--27e80436_1a098c1eed1_1fba", "geometry": {"type": "Point", "coordinates": [107.1370265, 47.91974907]}, "geometry_name": "geom", "properties": {"guid": 6525, "id": 6525, "object_no": null, "object_name": null, "layer_type_id": 224, "valid_to": null, "address_no": null, "border_type": "solid", "border_width": null, "border_color": null, "border_opacity": null, "border_wellknown": "horizline", "fill_type": "color", "fill_color": "#660000", "fill_opacity": 1, "fill_wellknown": "horizline", "fill_shape_color": null, "fill_shape_width": null, "fill_shape_size": null, "fill_img_url": null, "marker_img_url": null}},{"type": "Feature", "id": "layer_data_map.fid--27e80436_1a098c1eed1_1fbb", "geometry": {"type": "Point", "coordinates": [107.05188206, 47.86631887]}, "geometry_name": "geom", "properties": {"guid": 6526, "id": 6526, "object_no": null, "object_name": null, "layer_type_id": 224, "valid_to": null, "address_no": null, "border_type": "solid", "border_width": null, "border_color": null, "border_opacity": null, "border_wellknown": "horizline", "fill_type": "color", "fill_color": "#660000", "fill_opacity": 1, "fill_wellknown": "horizline", "fill_shape_color": null, "fill_shape_width": null, "fill_shape_size": null, "fill_img_url": null, "marker_img_url": null}},{"type": "Feature", "id": "layer_data_map.fid--27e80436_1a098c1eed1_1fbc", "geometry": {"type": "Point", "coordinates": [106.98223029, 47.88380039]}, "geometry_name": "geom", "properties": {"guid": 6527, "id": 6527, "object_no": null, "object_name": null, "layer_type_id": 224, "valid_to": null, "address_no": null, "border_type": "solid", "border_width": null, "border_color": null, "border_opacity": null, "border_wellknown": "horizline", "fill_type": "color", "fill_color": "#660000", "fill_opacity": 1, "fill_wellknown": "horizline", "fill_shape_color": null, "fill_shape_width": null, "fill_shape_size": null, "fill_img_url": null, "marker_img_url": null}},{"type": "Feature", "id": "layer_data_map.fid--27e80436_1a098c1eed1_1fbd", "geometry": {"type": "Point", "coordinates": [107.00524147, 47.88014088]}, "geometry_name": "geom", "properties": {"guid": 6528, "id": 6528, "object_no": null, "object_name": null, "layer_type_id": 224, "valid_to": null, "address_no": null, "border_type": "solid", "border_width": null, "border_color": null, "border_opacity": null, "border_wellknown": "horizline", "fill_type": "color", "fill_color": "#660000", "fill_opacity": 1, "fill_wellknown": "horizline", "fill_shape_color": null, "fill_shape_width": null, "fill_shape_size": null, "fill_img_url": null, "marker_img_url": null}},{"type": "Feature", "id": "layer_data_map.fid--27e80436_1a098c1eed1_1fe3", "geometry": {"type": "Point", "coordinates": [107.0005079, 47.8864019]}, "geometry_name": "geom", "properties": {"guid": 6529, "id": 6529, "object_no": null, "object_name": null, "layer_type_id": 224, "valid_to": null, "address_no": null, "border_type": "solid", "border_width": null, "border_color": null, "border_opacity": null, "border_wellknown": "horizline", "fill_type": "color", "fill_color": "#660000", "fill_opacity": 1, "fill_wellknown": "horizline", "fill_shape_color": null, "fill_shape_width": null, "fill_shape_size": null, "fill_img_url": null, "marker_img_url": null}},{"type": "Feature", "id": "layer_data_map.fid--27e80436_1a098c1eed1_1fe4", "geometry": {"type": "Point", "coordinates": [106.91511858, 48.11621978]}, "geometry_name": "geom", "properties": {"guid": 6530, "id": 6530, "object_no": null, "object_name": null, "layer_type_id": 224, "valid_to": null, "address_no": null, "border_type": "solid", "border_width": null, "border_color": null, "border_opacity": null, "border_wellknown": "horizline", "fill_type": "color", "fill_color": "#660000", "fill_opacity": 1, "fill_wellknown": "horizline", "fill_shape_color": null, "fill_shape_width": null, "fill_shape_size": null, "fill_img_url": null, "marker_img_url": null}},{"type": "Feature", "id": "layer_data_map.fid--27e80436_1a098c1eed1_1fe5", "geometry": {"type": "Point", "coordinates": [106.91014947, 48.10219987]}, "geometry_name": "geom", "properties": {"guid": 6531, "id": 6531, "object_no": null, "object_name": null, "layer_type_id": 224, "valid_to": null, "address_no": null, "border_type": "solid", "border_width": null, "border_color": null, "border_opacity": null, "border_wellknown": "horizline", "fill_type": "color", "fill_color": "#660000", "fill_opacity": 1, "fill_wellknown": "horizline", "fill_shape_color": null, "fill_shape_width": null, "fill_shape_size": null, "fill_img_url": null, "marker_img_url": null}},{"type": "Feature", "id": "layer_data_map.fid--27e80436_1a098c1eed1_1fe6", "geometry": {"type": "Point", "coordinates": [106.89672111, 48.00910798]}, "geometry_name": "geom", "properties": {"guid": 6532, "id": 6532, "object_no": null, "object_name": null, "layer_type_id": 224, "valid_to": null, "address_no": null, "border_type": "solid", "border_width": null, "border_color": null, "border_opacity": null, "border_wellknown": "horizline", "fill_type": "color", "fill_color": "#660000", "fill_opacity": 1, "fill_wellknown": "horizline", "fill_shape_color": null, "fill_shape_width": null, "fill_shape_size": null, "fill_img_url": null, "marker_img_url": null}},{"type": "Feature", "id": "layer_data_map.fid--27e80436_1a098c1eed1_1fe7", "geometry": {"type": "Point", "coordinates": [106.89016307, 48.01468228]}, "geometry_name": "geom", "properties": {"guid": 6533, "id": 6533, "object_no": null, "object_name": null, "layer_type_id": 224, "valid_to": null, "address_no": null, "border_type": "solid", "border_width": null, "border_color": null, "border_opacity": null, "border_wellknown": "horizline", "fill_type": "color", "fill_color": "#660000", "fill_opacity": 1, "fill_wellknown": "horizline", "fill_shape_color": null, "fill_shape_width": null, "fill_shape_size": null, "fill_img_url": null, "marker_img_url": null}},{"type": "Feature", "id": "layer_data_map.fid--27e80436_1a098c1eed1_1fe8", "geometry": {"type": "Point", "coordinates": [107.12508699, 47.91350126]}, "geometry_name": "geom", "properties": {"guid": 6534, "id": 6534, "object_no": null, "object_name": null, "layer_type_id": 224, "valid_to": null, "address_no": null, "border_type": "solid", "border_width": null, "border_color": null, "border_opacity": null, "border_wellknown": "horizline", "fill_type": "color", "fill_color": "#660000", "fill_opacity": 1, "fill_wellknown": "horizline", "fill_shape_color": null, "fill_shape_width": null, "fill_shape_size": null, "fill_img_url": null, "marker_img_url": null}},{"type": "Feature", "id": "layer_data_map.fid--27e80436_1a098c1eed1_1fe9", "geometry": {"type": "Point", "coordinates": [107.12860956, 47.91434066]}, "geometry_name": "geom", "properties": {"guid": 6535, "id": 6535, "object_no": null, "object_name": null, "layer_type_id": 224, "valid_to": null, "address_no": null, "border_type": "solid", "border_width": null, "border_color": null, "border_opacity": null, "border_wellknown": "horizline", "fill_type": "color", "fill_color": "#660000", "fill_opacity": 1, "fill_wellknown": "horizline", "fill_shape_color": null, "fill_shape_width": null, "fill_shape_size": null, "fill_img_url": null, "marker_img_url": null}},{"type": "Feature", "id": "layer_data_map.fid--27e80436_1a098c1eed1_1ffd", "geometry": {"type": "Point", "coordinates": [107.13812536, 47.91800217]}, "geometry_name": "geom", "properties": {"guid": 6537, "id": 6537, "object_no": null, "object_name": null, "layer_type_id": 224, "valid_to": null, "address_no": null, "border_type": "solid", "border_width": null, "border_color": null, "border_opacity": null, "border_wellknown": "horizline", "fill_type": "color", "fill_color": "#660000", "fill_opacity": 1, "fill_wellknown": "horizline", "fill_shape_color": null, "fill_shape_width": null, "fill_shape_size": null, "fill_img_url": null, "marker_img_url": null}},{"type": "Feature", "id": "layer_data_map.fid--27e80436_1a098c1eed1_1ffe", "geometry": {"type": "Point", "coordinates": [107.13911982, 47.91646273]}, "geometry_name": "geom", "properties": {"guid": 6538, "id": 6538, "object_no": null, "object_name": null, "layer_type_id": 224, "valid_to": null, "address_no": null, "border_type": "solid", "border_width": null, "border_color": null, "border_opacity": null, "border_wellknown": "horizline", "fill_type": "color", "fill_color": "#660000", "fill_opacity": 1, "fill_wellknown": "horizline", "fill_shape_color": null, "fill_shape_width": null, "fill_shape_size": null, "fill_img_url": null, "marker_img_url": null}},{"type": "Feature", "id": "layer_data_map.fid--27e80436_1a098c1eed1_1fff", "geometry": {"type": "Point", "coordinates": [107.1279654, 47.91994353]}, "geometry_name": "geom", "properties": {"guid": 6539, "id": 6539, "object_no": null, "object_name": null, "layer_type_id": 224, "valid_to": null, "address_no": null, "border_type": "solid", "border_width": null, "border_color": null, "border_opacity": null, "border_wellknown": "horizline", "fill_type": "color", "fill_color": "#660000", "fill_opacity": 1, "fill_wellknown": "horizline", "fill_shape_color": null, "fill_shape_width": null, "fill_shape_size": null, "fill_img_url": null, "marker_img_url": null}},{"type": "Feature", "id": "layer_data_map.fid--27e80436_1a098c1eed1_2000", "geometry": {"type": "Point", "coordinates": [107.14589576, 47.92602037]}, "geometry_name": "geom", "properties": {"guid": 6540, "id": 6540, "object_no": null, "object_name": null, "layer_type_id": 224, "valid_to": null, "address_no": null, "border_type": "solid", "border_width": null, "border_color": null, "border_opacity": null, "border_wellknown": "horizline", "fill_type": "color", "fill_color": "#660000", "fill_opacity": 1, "fill_wellknown": "horizline", "fill_shape_color": null, "fill_shape_width": null, "fill_shape_size": null, "fill_img_url": null, "marker_img_url": null}},{"type": "Feature", "id": "layer_data_map.fid--27e80436_1a098c1eed1_2001", "geometry": {"type": "Point", "coordinates": [107.18408248, 47.98497189]}, "geometry_name": "geom", "properties": {"guid": 6541, "id": 6541, "object_no": null, "object_name": null, "layer_type_id": 224, "valid_to": null, "address_no": null, "border_type": "solid", "border_width": null, "border_color": null, "border_opacity": null, "border_wellknown": "horizline", "fill_type": "color", "fill_color": "#660000", "fill_opacity": 1, "fill_wellknown": "horizline", "fill_shape_color": null, "fill_shape_width": null, "fill_shape_size": null, "fill_img_url": null, "marker_img_url": null}},{"type": "Feature", "id": "layer_data_map.fid--27e80436_1a098c1eed1_2002", "geometry": {"type": "Point", "coordinates": [107.21366856, 48.00465664]}, "geometry_name": "geom", "properties": {"guid": 6542, "id": 6542, "object_no": null, "object_name": null, "layer_type_id": 224, "valid_to": null, "address_no": null, "border_type": "solid", "border_width": null, "border_color": null, "border_opacity": null, "border_wellknown": "horizline", "fill_type": "color", "fill_color": "#660000", "fill_opacity": 1, "fill_wellknown": "horizline", "fill_shape_color": null, "fill_shape_width": null, "fill_shape_size": null, "fill_img_url": null, "marker_img_url": null}},{"type": "Feature", "id": "layer_data_map.fid--27e80436_1a098c1eed1_2003", "geometry": {"type": "Point", "coordinates": [107.27531985, 48.01969015]}, "geometry_name": "geom", "properties": {"guid": 6543, "id": 6543, "object_no": null, "object_name": null, "layer_type_id": 224, "valid_to": null, "address_no": null, "border_type": "solid", "border_width": null, "border_color": null, "border_opacity": null, "border_wellknown": "horizline", "fill_type": "color", "fill_color": "#660000", "fill_opacity": 1, "fill_wellknown": "horizline", "fill_shape_color": null, "fill_shape_width": null, "fill_shape_size": null, "fill_img_url": null, "marker_img_url": null}},{"type": "Feature", "id": "layer_data_map.fid--27e80436_1a098c1eed1_2004", "geometry": {"type": "Point", "coordinates": [107.27340542, 48.02053751]}, "geometry_name": "geom", "properties": {"guid": 6544, "id": 6544, "object_no": null, "object_name": null, "layer_type_id": 224, "valid_to": null, "address_no": null, "border_type": "solid", "border_width": null, "border_color": null, "border_opacity": null, "border_wellknown": "horizline", "fill_type": "color", "fill_color": "#660000", "fill_opacity": 1, "fill_wellknown": "horizline", "fill_shape_color": null, "fill_shape_width": null, "fill_shape_size": null, "fill_img_url": null, "marker_img_url": null}},{"type": "Feature", "id": "layer_data_map.fid--27e80436_1a098c1eed1_2005", "geometry": {"type": "Point", "coordinates": [107.39229687, 47.98054695]}, "geometry_name": "geom", "properties": {"guid": 6545, "id": 6545, "object_no": null, "object_name": null, "layer_type_id": 224, "valid_to": null, "address_no": null, "border_type": "solid", "border_width": null, "border_color": null, "border_opacity": null, "border_wellknown": "horizline", "fill_type": "color", "fill_color": "#660000", "fill_opacity": 1, "fill_wellknown": "horizline", "fill_shape_color": null, "fill_shape_width": null, "fill_shape_size": null, "fill_img_url": null, "marker_img_url": null}},{"type": "Feature", "id": "layer_data_map.fid--27e80436_1a098c1eed1_2006", "geometry": {"type": "Point", "coordinates": [107.4185806, 47.97939032]}, "geometry_name": "geom", "properties": {"guid": 6546, "id": 6546, "object_no": null, "object_name": null, "layer_type_id": 224, "valid_to": null, "address_no": null, "border_type": "solid", "border_width": null, "border_color": null, "border_opacity": null, "border_wellknown": "horizline", "fill_type": "color", "fill_color": "#660000", "fill_opacity": 1, "fill_wellknown": "horizline", "fill_shape_color": null, "fill_shape_width": null, "fill_shape_size": null, "fill_img_url": null, "marker_img_url": null}},{"type": "Feature", "id": "layer_data_map.fid--27e80436_1a098c1eed1_2007", "geometry": {"type": "Point", "coordinates": [107.44219445, 47.98164015]}, "geometry_name": "geom", "properties": {"guid": 6547, "id": 6547, "object_no": null, "object_name": null, "layer_type_id": 224, "valid_to": null, "address_no": null, "border_type": "solid", "border_width": null, "border_color": null, "border_opacity": null, "border_wellknown": "horizline", "fill_type": "color", "fill_color": "#660000", "fill_opacity": 1, "fill_wellknown": "horizline", "fill_shape_color": null, "fill_shape_width": null, "fill_shape_size": null, "fill_img_url": null, "marker_img_url": null}},{"type": "Feature", "id": "layer_data_map.fid--27e80436_1a098c1eed1_2008", "geometry": {"type": "Point", "coordinates": [107.45544806, 47.99250716]}, "geometry_name": "geom", "properties": {"guid": 6548, "id": 6548, "object_no": null, "object_name": null, "layer_type_id": 224, "valid_to": null, "address_no": null, "border_type": "solid", "border_width": null, "border_color": null, "border_opacity": null, "border_wellknown": "horizline", "fill_type": "color", "fill_color": "#660000", "fill_opacity": 1, "fill_wellknown": "horizline", "fill_shape_color": null, "fill_shape_width": null, "fill_shape_size": null, "fill_img_url": null, "marker_img_url": null}},{"type": "Feature", "id": "layer_data_map.fid--27e80436_1a098c1eed1_2009", "geometry": {"type": "Point", "coordinates": [107.47121933, 47.97563614]}, "geometry_name": "geom", "properties": {"guid": 6549, "id": 6549, "object_no": null, "object_name": null, "layer_type_id": 224, "valid_to": null, "address_no": null, "border_type": "solid", "border_width": null, "border_color": null, "border_opacity": null, "border_wellknown": "horizline", "fill_type": "color", "fill_color": "#660000", "fill_opacity": 1, "fill_wellknown": "horizline", "fill_shape_color": null, "fill_shape_width": null, "fill_shape_size": null, "fill_img_url": null, "marker_img_url": null}},{"type": "Feature", "id": "layer_data_map.fid--27e80436_1a098c1eed1_200a", "geometry": {"type": "Point", "coordinates": [107.45229099, 47.9494813]}, "geometry_name": "geom", "properties": {"guid": 6550, "id": 6550, "object_no": null, "object_name": null, "layer_type_id": 224, "valid_to": null, "address_no": null, "border_type": "solid", "border_width": null, "border_color": null, "border_opacity": null, "border_wellknown": "horizline", "fill_type": "color", "fill_color": "#660000", "fill_opacity": 1, "fill_wellknown": "horizline", "fill_shape_color": null, "fill_shape_width": null, "fill_shape_size": null, "fill_img_url": null, "marker_img_url": null}},{"type": "Feature", "id": "layer_data_map.fid--27e80436_1a098c1eed1_200b", "geometry": {"type": "Point", "coordinates": [107.44402062, 47.93027358]}, "geometry_name": "geom", "properties": {"guid": 6551, "id": 6551, "object_no": null, "object_name": null, "layer_type_id": 224, "valid_to": null, "address_no": null, "border_type": "solid", "border_width": null, "border_color": null, "border_opacity": null, "border_wellknown": "horizline", "fill_type": "color", "fill_color": "#660000", "fill_opacity": 1, "fill_wellknown": "horizline", "fill_shape_color": null, "fill_shape_width": null, "fill_shape_size": null, "fill_img_url": null, "marker_img_url": null}},{"type": "Feature", "id": "layer_data_map.fid--27e80436_1a098c1eed1_200c", "geometry": {"type": "Point", "coordinates": [107.42538836, 47.92738219]}, "geometry_name": "geom", "properties": {"guid": 6552, "id": 6552, "object_no": null, "object_name": null, "layer_type_id": 224, "valid_to": null, "address_no": null, "border_type": "solid", "border_width": null, "border_color": null, "border_opacity": null, "border_wellknown": "horizline", "fill_type": "color", "fill_color": "#660000", "fill_opacity": 1, "fill_wellknown": "horizline", "fill_shape_color": null, "fill_shape_width": null, "fill_shape_size": null, "fill_img_url": null, "marker_img_url": null}},{"type": "Feature", "id": "layer_data_map.fid--27e80436_1a098c1eed1_200d", "geometry": {"type": "Point", "coordinates": [107.42395616, 47.9089518]}, "geometry_name": "geom", "properties": {"guid": 6553, "id": 6553, "object_no": null, "object_name": null, "layer_type_id": 224, "valid_to": null, "address_no": null, "border_type": "solid", "border_width": null, "border_color": null, "border_opacity": null, "border_wellknown": "horizline", "fill_type": "color", "fill_color": "#660000", "fill_opacity": 1, "fill_wellknown": "horizline", "fill_shape_color": null, "fill_shape_width": null, "fill_shape_size": null, "fill_img_url": null, "marker_img_url": null}},{"type": "Feature", "id": "layer_data_map.fid--27e80436_1a098c1eed1_200e", "geometry": {"type": "Point", "coordinates": [107.39559387, 47.90059169]}, "geometry_name": "geom", "properties": {"guid": 6554, "id": 6554, "object_no": null, "object_name": null, "layer_type_id": 224, "valid_to": null, "address_no": null, "border_type": "solid", "border_width": null, "border_color": null, "border_opacity": null, "border_wellknown": "horizline", "fill_type": "color", "fill_color": "#660000", "fill_opacity": 1, "fill_wellknown": "horizline", "fill_shape_color": null, "fill_shape_width": null, "fill_shape_size": null, "fill_img_url": null, "marker_img_url": null}},{"type": "Feature", "id": "layer_data_map.fid--27e80436_1a098c1eed1_200f", "geometry": {"type": "Point", "coordinates": [107.38991277, 47.88521629]}, "geometry_name": "geom", "properties": {"guid": 6555, "id": 6555, "object_no": null, "object_name": null, "layer_type_id": 224, "valid_to": null, "address_no": null, "border_type": "solid", "border_width": null, "border_color": null, "border_opacity": null, "border_wellknown": "horizline", "fill_type": "color", "fill_color": "#660000", "fill_opacity": 1, "fill_wellknown": "horizline", "fill_shape_color": null, "fill_shape_width": null, "fill_shape_size": null, "fill_img_url": null, "marker_img_url": null}},{"type": "Feature", "id": "layer_data_map.fid--27e80436_1a098c1eed1_2010", "geometry": {"type": "Point", "coordinates": [107.39149785, 47.88059316]}, "geometry_name": "geom", "properties": {"guid": 6556, "id": 6556, "object_no": null, "object_name": null, "layer_type_id": 224, "valid_to": null, "address_no": null, "border_type": "solid", "border_width": null, "border_color": null, "border_opacity": null, "border_wellknown": "horizline", "fill_type": "color", "fill_color": "#660000", "fill_opacity": 1, "fill_wellknown": "horizline", "fill_shape_color": null, "fill_shape_width": null, "fill_shape_size": null, "fill_img_url": null, "marker_img_url": null}},{"type": "Feature", "id": "layer_data_map.fid--27e80436_1a098c1eed1_2011", "geometry": {"type": "Point", "coordinates": [107.38752368, 47.87189802]}, "geometry_name": "geom", "properties": {"guid": 6557, "id": 6557, "object_no": null, "object_name": null, "layer_type_id": 224, "valid_to": null, "address_no": null, "border_type": "solid", "border_width": null, "border_color": null, "border_opacity": null, "border_wellknown": "horizline", "fill_type": "color", "fill_color": "#660000", "fill_opacity": 1, "fill_wellknown": "horizline", "fill_shape_color": null, "fill_shape_width": null, "fill_shape_size": null, "fill_img_url": null, "marker_img_url": null}},{"type": "Feature", "id": "layer_data_map.fid--27e80436_1a098c1eed1_2012", "geometry": {"type": "Point", "coordinates": [107.38240225, 47.86778097]}, "geometry_name": "geom", "properties": {"guid": 6558, "id": 6558, "object_no": null, "object_name": null, "layer_type_id": 224, "valid_to": null, "address_no": null, "border_type": "solid", "border_width": null, "border_color": null, "border_opacity": null, "border_wellknown": "horizline", "fill_type": "color", "fill_color": "#660000", "fill_opacity": 1, "fill_wellknown": "horizline", "fill_shape_color": null, "fill_shape_width": null, "fill_shape_size": null, "fill_img_url": null, "marker_img_url": null}},{"type": "Feature", "id": "layer_data_map.fid--27e80436_1a098c1eed1_2013", "geometry": {"type": "Point", "coordinates": [107.39509985, 47.86445974]}, "geometry_name": "geom", "properties": {"guid": 6559, "id": 6559, "object_no": null, "object_name": null, "layer_type_id": 224, "valid_to": null, "address_no": null, "border_type": "solid", "border_width": null, "border_color": null, "border_opacity": null, "border_wellknown": "horizline", "fill_type": "color", "fill_color": "#660000", "fill_opacity": 1, "fill_wellknown": "horizline", "fill_shape_color": null, "fill_shape_width": null, "fill_shape_size": null, "fill_img_url": null, "marker_img_url": null}},{"type": "Feature", "id": "layer_data_map.fid--27e80436_1a098c1eed1_2014", "geometry": {"type": "Point", "coordinates": [107.40447764, 47.85078128]}, "geometry_name": "geom", "properties": {"guid": 6560, "id": 6560, "object_no": null, "object_name": null, "layer_type_id": 224, "valid_to": null, "address_no": null, "border_type": "solid", "border_width": null, "border_color": null, "border_opacity": null, "border_wellknown": "horizline", "fill_type": "color", "fill_color": "#660000", "fill_opacity": 1, "fill_wellknown": "horizline", "fill_shape_color": null, "fill_shape_width": null, "fill_shape_size": null, "fill_img_url": null, "marker_img_url": null}},{"type": "Feature", "id": "layer_data_map.fid--27e80436_1a098c1eed1_2015", "geometry": {"type": "Point", "coordinates": [107.39702339, 47.83878348]}, "geometry_name": "geom", "properties": {"guid": 6561, "id": 6561, "object_no": null, "object_name": null, "layer_type_id": 224, "valid_to": null, "address_no": null, "border_type": "solid", "border_width": null, "border_color": null, "border_opacity": null, "border_wellknown": "horizline", "fill_type": "color", "fill_color": "#660000", "fill_opacity": 1, "fill_wellknown": "horizline", "fill_shape_color": null, "fill_shape_width": null, "fill_shape_size": null, "fill_img_url": null, "marker_img_url": null}},{"type": "Feature", "id": "layer_data_map.fid--27e80436_1a098c1eed1_2016", "geometry": {"type": "Point", "coordinates": [107.41917558, 47.85326989]}, "geometry_name": "geom", "properties": {"guid": 6562, "id": 6562, "object_no": null, "object_name": null, "layer_type_id": 224, "valid_to": null, "address_no": null, "border_type": "solid", "border_width": null, "border_color": null, "border_opacity": null, "border_wellknown": "horizline", "fill_type": "color", "fill_color": "#660000", "fill_opacity": 1, "fill_wellknown": "horizline", "fill_shape_color": null, "fill_shape_width": null, "fill_shape_size": null, "fill_img_url": null, "marker_img_url": null}},{"type": "Feature", "id": "layer_data_map.fid--27e80436_1a098c1eed1_2017", "geometry": {"type": "Point", "coordinates": [107.42965011, 47.85896362]}, "geometry_name": "geom", "properties": {"guid": 6563, "id": 6563, "object_no": null, "object_name": null, "layer_type_id": 224, "valid_to": null, "address_no": null, "border_type": "solid", "border_width": null, "border_color": null, "border_opacity": null, "border_wellknown": "horizline", "fill_type": "color", "fill_color": "#660000", "fill_opacity": 1, "fill_wellknown": "horizline", "fill_shape_color": null, "fill_shape_width": null, "fill_shape_size": null, "fill_img_url": null, "marker_img_url": null}},{"type": "Feature", "id": "layer_data_map.fid--27e80436_1a098c1eed1_2018", "geometry": {"type": "Point", "coordinates": [107.42217812, 47.86365698]}, "geometry_name": "geom", "properties": {"guid": 6564, "id": 6564, "object_no": null, "object_name": null, "layer_type_id": 224, "valid_to": null, "address_no": null, "border_type": "solid", "border_width": null, "border_color": null, "border_opacity": null, "border_wellknown": "horizline", "fill_type": "color", "fill_color": "#660000", "fill_opacity": 1, "fill_wellknown": "horizline", "fill_shape_color": null, "fill_shape_width": null, "fill_shape_size": null, "fill_img_url": null, "marker_img_url": null}},{"type": "Feature", "id": "layer_data_map.fid--27e80436_1a098c1eed1_2019", "geometry": {"type": "Point", "coordinates": [107.42544614, 47.8659092]}, "geometry_name": "geom", "properties": {"guid": 6565, "id": 6565, "object_no": null, "object_name": null, "layer_type_id": 224, "valid_to": null, "address_no": null, "border_type": "solid", "border_width": null, "border_color": null, "border_opacity": null, "border_wellknown": "horizline", "fill_type": "color", "fill_color": "#660000", "fill_opacity": 1, "fill_wellknown": "horizline", "fill_shape_color": null, "fill_shape_width": null, "fill_shape_size": null, "fill_img_url": null, "marker_img_url": null}},{"type": "Feature", "id": "layer_data_map.fid--27e80436_1a098c1eed1_201a", "geometry": {"type": "Point", "coordinates": [107.43262522, 47.86145755]}, "geometry_name": "geom", "properties": {"guid": 6566, "id": 6566, "object_no": null, "object_name": null, "layer_type_id": 224, "valid_to": null, "address_no": null, "border_type": "solid", "border_width": null, "border_color": null, "border_opacity": null, "border_wellknown": "horizline", "fill_type": "color", "fill_color": "#660000", "fill_opacity": 1, "fill_wellknown": "horizline", "fill_shape_color": null, "fill_shape_width": null, "fill_shape_size": null, "fill_img_url": null, "marker_img_url": null}},{"type": "Feature", "id": "layer_data_map.fid--27e80436_1a098c1eed1_201b", "geometry": {"type": "Point", "coordinates": [107.43519311, 47.86303154]}, "geometry_name": "geom", "properties": {"guid": 6567, "id": 6567, "object_no": null, "object_name": null, "layer_type_id": 224, "valid_to": null, "address_no": null, "border_type": "solid", "border_width": null, "border_color": null, "border_opacity": null, "border_wellknown": "horizline", "fill_type": "color", "fill_color": "#660000", "fill_opacity": 1, "fill_wellknown": "horizline", "fill_shape_color": null, "fill_shape_width": null, "fill_shape_size": null, "fill_img_url": null, "marker_img_url": null}},{"type": "Feature", "id": "layer_data_map.fid--27e80436_1a098c1eed1_201c", "geometry": {"type": "Point", "coordinates": [107.42691519, 47.87198484]}, "geometry_name": "geom", "properties": {"guid": 6568, "id": 6568, "object_no": null, "object_name": null, "layer_type_id": 224, "valid_to": null, "address_no": null, "border_type": "solid", "border_width": null, "border_color": null, "border_opacity": null, "border_wellknown": "horizline", "fill_type": "color", "fill_color": "#660000", "fill_opacity": 1, "fill_wellknown": "horizline", "fill_shape_color": null, "fill_shape_width": null, "fill_shape_size": null, "fill_img_url": null, "marker_img_url": null}},{"type": "Feature", "id": "layer_data_map.fid--27e80436_1a098c1eed1_201d", "geometry": {"type": "Point", "coordinates": [107.4417144, 47.85740525]}, "geometry_name": "geom", "properties": {"guid": 6569, "id": 6569, "object_no": null, "object_name": null, "layer_type_id": 224, "valid_to": null, "address_no": null, "border_type": "solid", "border_width": null, "border_color": null, "border_opacity": null, "border_wellknown": "horizline", "fill_type": "color", "fill_color": "#660000", "fill_opacity": 1, "fill_wellknown": "horizline", "fill_shape_color": null, "fill_shape_width": null, "fill_shape_size": null, "fill_img_url": null, "marker_img_url": null}},{"type": "Feature", "id": "layer_data_map.fid--27e80436_1a098c1eed1_201e", "geometry": {"type": "Point", "coordinates": [107.44812206, 47.88240738]}, "geometry_name": "geom", "properties": {"guid": 6570, "id": 6570, "object_no": null, "object_name": null, "layer_type_id": 224, "valid_to": null, "address_no": null, "border_type": "solid", "border_width": null, "border_color": null, "border_opacity": null, "border_wellknown": "horizline", "fill_type": "color", "fill_color": "#660000", "fill_opacity": 1, "fill_wellknown": "horizline", "fill_shape_color": null, "fill_shape_width": null, "fill_shape_size": null, "fill_img_url": null, "marker_img_url": null}},{"type": "Feature", "id": "layer_data_map.fid--27e80436_1a098c1eed1_201f", "geometry": {"type": "Point", "coordinates": [107.46286862, 47.87131643]}, "geometry_name": "geom", "properties": {"guid": 6571, "id": 6571, "object_no": null, "object_name": null, "layer_type_id": 224, "valid_to": null, "address_no": null, "border_type": "solid", "border_width": null, "border_color": null, "border_opacity": null, "border_wellknown": "horizline", "fill_type": "color", "fill_color": "#660000", "fill_opacity": 1, "fill_wellknown": "horizline", "fill_shape_color": null, "fill_shape_width": null, "fill_shape_size": null, "fill_img_url": null, "marker_img_url": null}},{"type": "Feature", "id": "layer_data_map.fid--27e80436_1a098c1eed1_2020", "geometry": {"type": "Point", "coordinates": [107.42373056, 47.88987103]}, "geometry_name": "geom", "properties": {"guid": 6572, "id": 6572, "object_no": null, "object_name": null, "layer_type_id": 224, "valid_to": null, "address_no": null, "border_type": "solid", "border_width": null, "border_color": null, "border_opacity": null, "border_wellknown": "horizline", "fill_type": "color", "fill_color": "#660000", "fill_opacity": 1, "fill_wellknown": "horizline", "fill_shape_color": null, "fill_shape_width": null, "fill_shape_size": null, "fill_img_url": null, "marker_img_url": null}},{"type": "Feature", "id": "layer_data_map.fid--27e80436_1a098c1eed1_2021", "geometry": {"type": "Point", "coordinates": [107.41491486, 47.89257097]}, "geometry_name": "geom", "properties": {"guid": 6573, "id": 6573, "object_no": null, "object_name": null, "layer_type_id": 224, "valid_to": null, "address_no": null, "border_type": "solid", "border_width": null, "border_color": null, "border_opacity": null, "border_wellknown": "horizline", "fill_type": "color", "fill_color": "#660000", "fill_opacity": 1, "fill_wellknown": "horizline", "fill_shape_color": null, "fill_shape_width": null, "fill_shape_size": null, "fill_img_url": null, "marker_img_url": null}},{"type": "Feature", "id": "layer_data_map.fid--27e80436_1a098c1eed1_2022", "geometry": {"type": "Point", "coordinates": [107.42548302, 47.89510503]}, "geometry_name": "geom", "properties": {"guid": 6574, "id": 6574, "object_no": null, "object_name": null, "layer_type_id": 224, "valid_to": null, "address_no": null, "border_type": "solid", "border_width": null, "border_color": null, "border_opacity": null, "border_wellknown": "horizline", "fill_type": "color", "fill_color": "#660000", "fill_opacity": 1, "fill_wellknown": "horizline", "fill_shape_color": null, "fill_shape_width": null, "fill_shape_size": null, "fill_img_url": null, "marker_img_url": null}},{"type": "Feature", "id": "layer_data_map.fid--27e80436_1a098c1eed1_2023", "geometry": {"type": "Point", "coordinates": [107.3659091, 47.82094846]}, "geometry_name": "geom", "properties": {"guid": 6575, "id": 6575, "object_no": null, "object_name": null, "layer_type_id": 224, "valid_to": null, "address_no": null, "border_type": "solid", "border_width": null, "border_color": null, "border_opacity": null, "border_wellknown": "horizline", "fill_type": "color", "fill_color": "#660000", "fill_opacity": 1, "fill_wellknown": "horizline", "fill_shape_color": null, "fill_shape_width": null, "fill_shape_size": null, "fill_img_url": null, "marker_img_url": null}},{"type": "Feature", "id": "layer_data_map.fid--27e80436_1a098c1eed1_2024", "geometry": {"type": "Point", "coordinates": [107.38510047, 47.82410801]}, "geometry_name": "geom", "properties": {"guid": 6576, "id": 6576, "object_no": null, "object_name": null, "layer_type_id": 224, "valid_to": null, "address_no": null, "border_type": "solid", "border_width": null, "border_color": null, "border_opacity": null, "border_wellknown": "horizline", "fill_type": "color", "fill_color": "#660000", "fill_opacity": 1, "fill_wellknown": "horizline", "fill_shape_color": null, "fill_shape_width": null, "fill_shape_size": null, "fill_img_url": null, "marker_img_url": null}},{"type": "Feature", "id": "layer_data_map.fid--27e80436_1a098c1eed1_2025", "geometry": {"type": "Point", "coordinates": [107.39928129, 47.81363268]}, "geometry_name": "geom", "properties": {"guid": 6577, "id": 6577, "object_no": null, "object_name": null, "layer_type_id": 224, "valid_to": null, "address_no": null, "border_type": "solid", "border_width": null, "border_color": null, "border_opacity": null, "border_wellknown": "horizline", "fill_type": "color", "fill_color": "#660000", "fill_opacity": 1, "fill_wellknown": "horizline", "fill_shape_color": null, "fill_shape_width": null, "fill_shape_size": null, "fill_img_url": null, "marker_img_url": null}},{"type": "Feature", "id": "layer_data_map.fid--27e80436_1a098c1eed1_2026", "geometry": {"type": "Point", "coordinates": [107.34844818, 47.81348691]}, "geometry_name": "geom", "properties": {"guid": 6578, "id": 6578, "object_no": null, "object_name": null, "layer_type_id": 224, "valid_to": null, "address_no": null, "border_type": "solid", "border_width": null, "border_color": null, "border_opacity": null, "border_wellknown": "horizline", "fill_type": "color", "fill_color": "#660000", "fill_opacity": 1, "fill_wellknown": "horizline", "fill_shape_color": null, "fill_shape_width": null, "fill_shape_size": null, "fill_img_url": null, "marker_img_url": null}},{"type": "Feature", "id": "layer_data_map.fid--27e80436_1a098c1eed1_2027", "geometry": {"type": "Point", "coordinates": [107.3467022, 47.81403689]}, "geometry_name": "geom", "properties": {"guid": 6579, "id": 6579, "object_no": null, "object_name": null, "layer_type_id": 224, "valid_to": null, "address_no": null, "border_type": "solid", "border_width": null, "border_color": null, "border_opacity": null, "border_wellknown": "horizline", "fill_type": "color", "fill_color": "#660000", "fill_opacity": 1, "fill_wellknown": "horizline", "fill_shape_color": null, "fill_shape_width": null, "fill_shape_size": null, "fill_img_url": null, "marker_img_url": null}},{"type": "Feature", "id": "layer_data_map.fid--27e80436_1a098c1eed1_2028", "geometry": {"type": "Point", "coordinates": [107.44184671, 47.82840098]}, "geometry_name": "geom", "properties": {"guid": 6580, "id": 6580, "object_no": null, "object_name": null, "layer_type_id": 224, "valid_to": null, "address_no": null, "border_type": "solid", "border_width": null, "border_color": null, "border_opacity": null, "border_wellknown": "horizline", "fill_type": "color", "fill_color": "#660000", "fill_opacity": 1, "fill_wellknown": "horizline", "fill_shape_color": null, "fill_shape_width": null, "fill_shape_size": null, "fill_img_url": null, "marker_img_url": null}},{"type": "Feature", "id": "layer_data_map.fid--27e80436_1a098c1eed1_2029", "geometry": {"type": "Point", "coordinates": [107.44028841, 47.8363336]}, "geometry_name": "geom", "properties": {"guid": 6581, "id": 6581, "object_no": null, "object_name": null, "layer_type_id": 224, "valid_to": null, "address_no": null, "border_type": "solid", "border_width": null, "border_color": null, "border_opacity": null, "border_wellknown": "horizline", "fill_type": "color", "fill_color": "#660000", "fill_opacity": 1, "fill_wellknown": "horizline", "fill_shape_color": null, "fill_shape_width": null, "fill_shape_size": null, "fill_img_url": null, "marker_img_url": null}},{"type": "Feature", "id": "layer_data_map.fid--27e80436_1a098c1eed1_202a", "geometry": {"type": "Point", "coordinates": [107.33041698, 47.81725486]}, "geometry_name": "geom", "properties": {"guid": 6582, "id": 6582, "object_no": null, "object_name": null, "layer_type_id": 224, "valid_to": null, "address_no": null, "border_type": "solid", "border_width": null, "border_color": null, "border_opacity": null, "border_wellknown": "horizline", "fill_type": "color", "fill_color": "#660000", "fill_opacity": 1, "fill_wellknown": "horizline", "fill_shape_color": null, "fill_shape_width": null, "fill_shape_size": null, "fill_img_url": null, "marker_img_url": null}},{"type": "Feature", "id": "layer_data_map.fid--27e80436_1a098c1eed1_202b", "geometry": {"type": "Point", "coordinates": [106.96578287, 48.04324134]}, "geometry_name": "geom", "properties": {"guid": 6583, "id": 6583, "object_no": null, "object_name": null, "layer_type_id": 224, "valid_to": null, "address_no": null, "border_type": "solid", "border_width": null, "border_color": null, "border_opacity": null, "border_wellknown": "horizline", "fill_type": "color", "fill_color": "#660000", "fill_opacity": 1, "fill_wellknown": "horizline", "fill_shape_color": null, "fill_shape_width": null, "fill_shape_size": null, "fill_img_url": null, "marker_img_url": null}},{"type": "Feature", "id": "layer_data_map.fid--27e80436_1a098c1eed1_202c", "geometry": {"type": "Point", "coordinates": [107.00302254, 48.05841831]}, "geometry_name": "geom", "properties": {"guid": 6584, "id": 6584, "object_no": null, "object_name": null, "layer_type_id": 224, "valid_to": null, "address_no": null, "border_type": "solid", "border_width": null, "border_color": null, "border_opacity": null, "border_wellknown": "horizline", "fill_type": "color", "fill_color": "#660000", "fill_opacity": 1, "fill_wellknown": "horizline", "fill_shape_color": null, "fill_shape_width": null, "fill_shape_size": null, "fill_img_url": null, "marker_img_url": null}},{"type": "Feature", "id": "layer_data_map.fid--27e80436_1a098c1eed1_202d", "geometry": {"type": "Point", "coordinates": [107.00431204, 48.05983863]}, "geometry_name": "geom", "properties": {"guid": 6585, "id": 6585, "object_no": null, "object_name": null, "layer_type_id": 224, "valid_to": null, "address_no": null, "border_type": "solid", "border_width": null, "border_color": null, "border_opacity": null, "border_wellknown": "horizline", "fill_type": "color", "fill_color": "#660000", "fill_opacity": 1, "fill_wellknown": "horizline", "fill_shape_color": null, "fill_shape_width": null, "fill_shape_size": null, "fill_img_url": null, "marker_img_url": null}},{"type": "Feature", "id": "layer_data_map.fid--27e80436_1a098c1eed1_202e", "geometry": {"type": "Point", "coordinates": [106.8604343, 48.07499381]}, "geometry_name": "geom", "properties": {"guid": 6586, "id": 6586, "object_no": null, "object_name": null, "layer_type_id": 224, "valid_to": null, "address_no": null, "border_type": "solid", "border_width": null, "border_color": null, "border_opacity": null, "border_wellknown": "horizline", "fill_type": "color", "fill_color": "#660000", "fill_opacity": 1, "fill_wellknown": "horizline", "fill_shape_color": null, "fill_shape_width": null, "fill_shape_size": null, "fill_img_url": null, "marker_img_url": null}},{"type": "Feature", "id": "layer_data_map.fid--27e80436_1a098c1eed1_202f", "geometry": {"type": "Point", "coordinates": [106.91479391, 48.11493108]}, "geometry_name": "geom", "properties": {"guid": 6587, "id": 6587, "object_no": null, "object_name": null, "layer_type_id": 224, "valid_to": null, "address_no": null, "border_type": "solid", "border_width": null, "border_color": null, "border_opacity": null, "border_wellknown": "horizline", "fill_type": "color", "fill_color": "#660000", "fill_opacity": 1, "fill_wellknown": "horizline", "fill_shape_color": null, "fill_shape_width": null, "fill_shape_size": null, "fill_img_url": null, "marker_img_url": null}},{"type": "Feature", "id": "layer_data_map.fid--27e80436_1a098c1eed1_2030", "geometry": {"type": "Point", "coordinates": [106.88373576, 48.1303143]}, "geometry_name": "geom", "properties": {"guid": 6588, "id": 6588, "object_no": null, "object_name": null, "layer_type_id": 224, "valid_to": null, "address_no": null, "border_type": "solid", "border_width": null, "border_color": null, "border_opacity": null, "border_wellknown": "horizline", "fill_type": "color", "fill_color": "#660000", "fill_opacity": 1, "fill_wellknown": "horizline", "fill_shape_color": null, "fill_shape_width": null, "fill_shape_size": null, "fill_img_url": null, "marker_img_url": null}},{"type": "Feature", "id": "layer_data_map.fid--27e80436_1a098c1eed1_2031", "geometry": {"type": "Point", "coordinates": [106.89771746, 48.13546089]}, "geometry_name": "geom", "properties": {"guid": 6589, "id": 6589, "object_no": null, "object_name": null, "layer_type_id": 224, "valid_to": null, "address_no": null, "border_type": "solid", "border_width": null, "border_color": null, "border_opacity": null, "border_wellknown": "horizline", "fill_type": "color", "fill_color": "#660000", "fill_opacity": 1, "fill_wellknown": "horizline", "fill_shape_color": null, "fill_shape_width": null, "fill_shape_size": null, "fill_img_url": null, "marker_img_url": null}},{"type": "Feature", "id": "layer_data_map.fid--27e80436_1a098c1eed1_2032", "geometry": {"type": "Point", "coordinates": [106.89255772, 48.15317983]}, "geometry_name": "geom", "properties": {"guid": 6590, "id": 6590, "object_no": null, "object_name": null, "layer_type_id": 224, "valid_to": null, "address_no": null, "border_type": "solid", "border_width": null, "border_color": null, "border_opacity": null, "border_wellknown": "horizline", "fill_type": "color", "fill_color": "#660000", "fill_opacity": 1, "fill_wellknown": "horizline", "fill_shape_color": null, "fill_shape_width": null, "fill_shape_size": null, "fill_img_url": null, "marker_img_url": null}},{"type": "Feature", "id": "layer_data_map.fid--27e80436_1a098c1eed1_2033", "geometry": {"type": "Point", "coordinates": [106.81962846, 48.01514082]}, "geometry_name": "geom", "properties": {"guid": 6591, "id": 6591, "object_no": null, "object_name": null, "layer_type_id": 224, "valid_to": null, "address_no": null, "border_type": "solid", "border_width": null, "border_color": null, "border_opacity": null, "border_wellknown": "horizline", "fill_type": "color", "fill_color": "#660000", "fill_opacity": 1, "fill_wellknown": "horizline", "fill_shape_color": null, "fill_shape_width": null, "fill_shape_size": null, "fill_img_url": null, "marker_img_url": null}},{"type": "Feature", "id": "layer_data_map.fid--27e80436_1a098c1eed1_2034", "geometry": {"type": "Point", "coordinates": [106.7877073, 48.02268866]}, "geometry_name": "geom", "properties": {"guid": 6592, "id": 6592, "object_no": null, "object_name": null, "layer_type_id": 224, "valid_to": null, "address_no": null, "border_type": "solid", "border_width": null, "border_color": null, "border_opacity": null, "border_wellknown": "horizline", "fill_type": "color", "fill_color": "#660000", "fill_opacity": 1, "fill_wellknown": "horizline", "fill_shape_color": null, "fill_shape_width": null, "fill_shape_size": null, "fill_img_url": null, "marker_img_url": null}},{"type": "Feature", "id": "layer_data_map.fid--27e80436_1a098c1eed1_2035", "geometry": {"type": "Point", "coordinates": [106.78415283, 48.03279967]}, "geometry_name": "geom", "properties": {"guid": 6593, "id": 6593, "object_no": null, "object_name": null, "layer_type_id": 224, "valid_to": null, "address_no": null, "border_type": "solid", "border_width": null, "border_color": null, "border_opacity": null, "border_wellknown": "horizline", "fill_type": "color", "fill_color": "#660000", "fill_opacity": 1, "fill_wellknown": "horizline", "fill_shape_color": null, "fill_shape_width": null, "fill_shape_size": null, "fill_img_url": null, "marker_img_url": null}},{"type": "Feature", "id": "layer_data_map.fid--27e80436_1a098c1eed1_2036", "geometry": {"type": "Point", "coordinates": [106.79025263, 48.0349244]}, "geometry_name": "geom", "properties": {"guid": 6594, "id": 6594, "object_no": null, "object_name": null, "layer_type_id": 224, "valid_to": null, "address_no": null, "border_type": "solid", "border_width": null, "border_color": null, "border_opacity": null, "border_wellknown": "horizline", "fill_type": "color", "fill_color": "#660000", "fill_opacity": 1, "fill_wellknown": "horizline", "fill_shape_color": null, "fill_shape_width": null, "fill_shape_size": null, "fill_img_url": null, "marker_img_url": null}},{"type": "Feature", "id": "layer_data_map.fid--27e80436_1a098c1eed1_2037", "geometry": {"type": "Point", "coordinates": [106.73290948, 48.02203769]}, "geometry_name": "geom", "properties": {"guid": 6595, "id": 6595, "object_no": null, "object_name": null, "layer_type_id": 224, "valid_to": null, "address_no": null, "border_type": "solid", "border_width": null, "border_color": null, "border_opacity": null, "border_wellknown": "horizline", "fill_type": "color", "fill_color": "#660000", "fill_opacity": 1, "fill_wellknown": "horizline", "fill_shape_color": null, "fill_shape_width": null, "fill_shape_size": null, "fill_img_url": null, "marker_img_url": null}},{"type": "Feature", "id": "layer_data_map.fid--27e80436_1a098c1eed1_2038", "geometry": {"type": "Point", "coordinates": [106.7019507, 48.01724043]}, "geometry_name": "geom", "properties": {"guid": 6596, "id": 6596, "object_no": null, "object_name": null, "layer_type_id": 224, "valid_to": null, "address_no": null, "border_type": "solid", "border_width": null, "border_color": null, "border_opacity": null, "border_wellknown": "horizline", "fill_type": "color", "fill_color": "#660000", "fill_opacity": 1, "fill_wellknown": "horizline", "fill_shape_color": null, "fill_shape_width": null, "fill_shape_size": null, "fill_img_url": null, "marker_img_url": null}},{"type": "Feature", "id": "layer_data_map.fid--27e80436_1a098c1eed1_2039", "geometry": {"type": "Point", "coordinates": [106.71324383, 47.97436773]}, "geometry_name": "geom", "properties": {"guid": 6597, "id": 6597, "object_no": null, "object_name": null, "layer_type_id": 224, "valid_to": null, "address_no": null, "border_type": "solid", "border_width": null, "border_color": null, "border_opacity": null, "border_wellknown": "horizline", "fill_type": "color", "fill_color": "#660000", "fill_opacity": 1, "fill_wellknown": "horizline", "fill_shape_color": null, "fill_shape_width": null, "fill_shape_size": null, "fill_img_url": null, "marker_img_url": null}},{"type": "Feature", "id": "layer_data_map.fid--27e80436_1a098c1eed1_203a", "geometry": {"type": "Point", "coordinates": [106.71327744, 47.96782962]}, "geometry_name": "geom", "properties": {"guid": 6598, "id": 6598, "object_no": null, "object_name": null, "layer_type_id": 224, "valid_to": null, "address_no": null, "border_type": "solid", "border_width": null, "border_color": null, "border_opacity": null, "border_wellknown": "horizline", "fill_type": "color", "fill_color": "#660000", "fill_opacity": 1, "fill_wellknown": "horizline", "fill_shape_color": null, "fill_shape_width": null, "fill_shape_size": null, "fill_img_url": null, "marker_img_url": null}},{"type": "Feature", "id": "layer_data_map.fid--27e80436_1a098c1eed1_203b", "geometry": {"type": "Point", "coordinates": [106.71602826, 47.95937776]}, "geometry_name": "geom", "properties": {"guid": 6599, "id": 6599, "object_no": null, "object_name": null, "layer_type_id": 224, "valid_to": null, "address_no": null, "border_type": "solid", "border_width": null, "border_color": null, "border_opacity": null, "border_wellknown": "horizline", "fill_type": "color", "fill_color": "#660000", "fill_opacity": 1, "fill_wellknown": "horizline", "fill_shape_color": null, "fill_shape_width": null, "fill_shape_size": null, "fill_img_url": null, "marker_img_url": null}},{"type": "Feature", "id": "layer_data_map.fid--27e80436_1a098c1eed1_203c", "geometry": {"type": "Point", "coordinates": [106.718843, 47.95928805]}, "geometry_name": "geom", "properties": {"guid": 6600, "id": 6600, "object_no": null, "object_name": null, "layer_type_id": 224, "valid_to": null, "address_no": null, "border_type": "solid", "border_width": null, "border_color": null, "border_opacity": null, "border_wellknown": "horizline", "fill_type": "color", "fill_color": "#660000", "fill_opacity": 1, "fill_wellknown": "horizline", "fill_shape_color": null, "fill_shape_width": null, "fill_shape_size": null, "fill_img_url": null, "marker_img_url": null}},{"type": "Feature", "id": "layer_data_map.fid--27e80436_1a098c1eed1_203d", "geometry": {"type": "Point", "coordinates": [106.71566775, 47.95823092]}, "geometry_name": "geom", "properties": {"guid": 6601, "id": 6601, "object_no": null, "object_name": null, "layer_type_id": 224, "valid_to": null, "address_no": null, "border_type": "solid", "border_width": null, "border_color": null, "border_opacity": null, "border_wellknown": "horizline", "fill_type": "color", "fill_color": "#660000", "fill_opacity": 1, "fill_wellknown": "horizline", "fill_shape_color": null, "fill_shape_width": null, "fill_shape_size": null, "fill_img_url": null, "marker_img_url": null}},{"type": "Feature", "id": "layer_data_map.fid--27e80436_1a098c1eed1_203e", "geometry": {"type": "Point", "coordinates": [106.71433073, 47.95509893]}, "geometry_name": "geom", "properties": {"guid": 6602, "id": 6602, "object_no": null, "object_name": null, "layer_type_id": 224, "valid_to": null, "address_no": null, "border_type": "solid", "border_width": null, "border_color": null, "border_opacity": null, "border_wellknown": "horizline", "fill_type": "color", "fill_color": "#660000", "fill_opacity": 1, "fill_wellknown": "horizline", "fill_shape_color": null, "fill_shape_width": null, "fill_shape_size": null, "fill_img_url": null, "marker_img_url": null}},{"type": "Feature", "id": "layer_data_map.fid--27e80436_1a098c1eed1_203f", "geometry": {"type": "Point", "coordinates": [106.70977377, 47.94802972]}, "geometry_name": "geom", "properties": {"guid": 6603, "id": 6603, "object_no": null, "object_name": null, "layer_type_id": 224, "valid_to": null, "address_no": null, "border_type": "solid", "border_width": null, "border_color": null, "border_opacity": null, "border_wellknown": "horizline", "fill_type": "color", "fill_color": "#660000", "fill_opacity": 1, "fill_wellknown": "horizline", "fill_shape_color": null, "fill_shape_width": null, "fill_shape_size": null, "fill_img_url": null, "marker_img_url": null}},{"type": "Feature", "id": "layer_data_map.fid--27e80436_1a098c1eed1_2040", "geometry": {"type": "Point", "coordinates": [108.4760873, 47.76395904]}, "geometry_name": "geom", "properties": {"guid": 6604, "id": 6604, "object_no": null, "object_name": null, "layer_type_id": 224, "valid_to": null, "address_no": null, "border_type": "solid", "border_width": null, "border_color": null, "border_opacity": null, "border_wellknown": "horizline", "fill_type": "color", "fill_color": "#660000", "fill_opacity": 1, "fill_wellknown": "horizline", "fill_shape_color": null, "fill_shape_width": null, "fill_shape_size": null, "fill_img_url": null, "marker_img_url": null}},{"type": "Feature", "id": "layer_data_map.fid--27e80436_1a098c1eed1_2041", "geometry": {"type": "Point", "coordinates": [108.49391198, 47.74529588]}, "geometry_name": "geom", "properties": {"guid": 6605, "id": 6605, "object_no": null, "object_name": null, "layer_type_id": 224, "valid_to": null, "address_no": null, "border_type": "solid", "border_width": null, "border_color": null, "border_opacity": null, "border_wellknown": "horizline", "fill_type": "color", "fill_color": "#660000", "fill_opacity": 1, "fill_wellknown": "horizline", "fill_shape_color": null, "fill_shape_width": null, "fill_shape_size": null, "fill_img_url": null, "marker_img_url": null}},{"type": "Feature", "id": "layer_data_map.fid--27e80436_1a098c1eed1_2042", "geometry": {"type": "Point", "coordinates": [108.48540169, 47.73823327]}, "geometry_name": "geom", "properties": {"guid": 6606, "id": 6606, "object_no": null, "object_name": null, "layer_type_id": 224, "valid_to": null, "address_no": null, "border_type": "solid", "border_width": null, "border_color": null, "border_opacity": null, "border_wellknown": "horizline", "fill_type": "color", "fill_color": "#660000", "fill_opacity": 1, "fill_wellknown": "horizline", "fill_shape_color": null, "fill_shape_width": null, "fill_shape_size": null, "fill_img_url": null, "marker_img_url": null}},{"type": "Feature", "id": "layer_data_map.fid--27e80436_1a098c1eed1_2043", "geometry": {"type": "Point", "coordinates": [108.48295155, 47.72124998]}, "geometry_name": "geom", "properties": {"guid": 6607, "id": 6607, "object_no": null, "object_name": null, "layer_type_id": 224, "valid_to": null, "address_no": null, "border_type": "solid", "border_width": null, "border_color": null, "border_opacity": null, "border_wellknown": "horizline", "fill_type": "color", "fill_color": "#660000", "fill_opacity": 1, "fill_wellknown": "horizline", "fill_shape_color": null, "fill_shape_width": null, "fill_shape_size": null, "fill_img_url": null, "marker_img_url": null}},{"type": "Feature", "id": "layer_data_map.fid--27e80436_1a098c1eed1_2044", "geometry": {"type": "Point", "coordinates": [108.47616299, 47.92244388]}, "geometry_name": "geom", "properties": {"guid": 6608, "id": 6608, "object_no": null, "object_name": null, "layer_type_id": 224, "valid_to": null, "address_no": null, "border_type": "solid", "border_width": null, "border_color": null, "border_opacity": null, "border_wellknown": "horizline", "fill_type": "color", "fill_color": "#660000", "fill_opacity": 1, "fill_wellknown": "horizline", "fill_shape_color": null, "fill_shape_width": null, "fill_shape_size": null, "fill_img_url": null, "marker_img_url": null}},{"type": "Feature", "id": "layer_data_map.fid--27e80436_1a098c1eed1_2045", "geometry": {"type": "Point", "coordinates": [106.79299106, 48.09138755]}, "geometry_name": "geom", "properties": {"guid": 6609, "id": 6609, "object_no": null, "object_name": null, "layer_type_id": 224, "valid_to": null, "address_no": null, "border_type": "solid", "border_width": null, "border_color": null, "border_opacity": null, "border_wellknown": "horizline", "fill_type": "color", "fill_color": "#660000", "fill_opacity": 1, "fill_wellknown": "horizline", "fill_shape_color": null, "fill_shape_width": null, "fill_shape_size": null, "fill_img_url": null, "marker_img_url": null}},{"type": "Feature", "id": "layer_data_map.fid--27e80436_1a098c1eed1_2046", "geometry": {"type": "Point", "coordinates": [106.47742149, 48.06851061]}, "geometry_name": "geom", "properties": {"guid": 6610, "id": 6610, "object_no": null, "object_name": null, "layer_type_id": 224, "valid_to": null, "address_no": null, "border_type": "solid", "border_width": null, "border_color": null, "border_opacity": null, "border_wellknown": "horizline", "fill_type": "color", "fill_color": "#660000", "fill_opacity": 1, "fill_wellknown": "horizline", "fill_shape_color": null, "fill_shape_width": null, "fill_shape_size": null, "fill_img_url": null, "marker_img_url": null}},{"type": "Feature", "id": "layer_data_map.fid--27e80436_1a098c1eed1_2047", "geometry": {"type": "Point", "coordinates": [106.85115929, 47.77818729]}, "geometry_name": "geom", "properties": {"guid": 6611, "id": 6611, "object_no": null, "object_name": null, "layer_type_id": 224, "valid_to": null, "address_no": null, "border_type": "solid", "border_width": null, "border_color": null, "border_opacity": null, "border_wellknown": "horizline", "fill_type": "color", "fill_color": "#660000", "fill_opacity": 1, "fill_wellknown": "horizline", "fill_shape_color": null, "fill_shape_width": null, "fill_shape_size": null, "fill_img_url": null, "marker_img_url": null}},{"type": "Feature", "id": "layer_data_map.fid--27e80436_1a098c1eed1_2048", "geometry": {"type": "Point", "coordinates": [106.67857563, 47.85461753]}, "geometry_name": "geom", "properties": {"guid": 6612, "id": 6612, "object_no": null, "object_name": null, "layer_type_id": 224, "valid_to": null, "address_no": null, "border_type": "solid", "border_width": null, "border_color": null, "border_opacity": null, "border_wellknown": "horizline", "fill_type": "color", "fill_color": "#660000", "fill_opacity": 1, "fill_wellknown": "horizline", "fill_shape_color": null, "fill_shape_width": null, "fill_shape_size": null, "fill_img_url": null, "marker_img_url": null}},{"type": "Feature", "id": "layer_data_map.fid--27e80436_1a098c1eed1_2049", "geometry": {"type": "Point", "coordinates": [106.86369942, 47.78257909]}, "geometry_name": "geom", "properties": {"guid": 6613, "id": 6613, "object_no": null, "object_name": null, "layer_type_id": 224, "valid_to": null, "address_no": null, "border_type": "solid", "border_width": null, "border_color": null, "border_opacity": null, "border_wellknown": "horizline", "fill_type": "color", "fill_color": "#660000", "fill_opacity": 1, "fill_wellknown": "horizline", "fill_shape_color": null, "fill_shape_width": null, "fill_shape_size": null, "fill_img_url": null, "marker_img_url": null}},{"type": "Feature", "id": "layer_data_map.fid--27e80436_1a098c1eed1_204a", "geometry": {"type": "Point", "coordinates": [106.80160232, 47.79845992]}, "geometry_name": "geom", "properties": {"guid": 6614, "id": 6614, "object_no": null, "object_name": null, "layer_type_id": 224, "valid_to": null, "address_no": null, "border_type": "solid", "border_width": null, "border_color": null, "border_opacity": null, "border_wellknown": "horizline", "fill_type": "color", "fill_color": "#660000", "fill_opacity": 1, "fill_wellknown": "horizline", "fill_shape_color": null, "fill_shape_width": null, "fill_shape_size": null, "fill_img_url": null, "marker_img_url": null}},{"type": "Feature", "id": "layer_data_map.fid--27e80436_1a098c1eed1_204b", "geometry": {"type": "Point", "coordinates": [106.81134535, 47.84469422]}, "geometry_name": "geom", "properties": {"guid": 6615, "id": 6615, "object_no": null, "object_name": null, "layer_type_id": 224, "valid_to": null, "address_no": null, "border_type": "solid", "border_width": null, "border_color": null, "border_opacity": null, "border_wellknown": "horizline", "fill_type": "color", "fill_color": "#660000", "fill_opacity": 1, "fill_wellknown": "horizline", "fill_shape_color": null, "fill_shape_width": null, "fill_shape_size": null, "fill_img_url": null, "marker_img_url": null}},{"type": "Feature", "id": "layer_data_map.fid--27e80436_1a098c1eed1_204c", "geometry": {"type": "Point", "coordinates": [107.00336557, 48.05408732]}, "geometry_name": "geom", "properties": {"guid": 6616, "id": 6616, "object_no": null, "object_name": null, "layer_type_id": 224, "valid_to": null, "address_no": null, "border_type": "solid", "border_width": null, "border_color": null, "border_opacity": null, "border_wellknown": "horizline", "fill_type": "color", "fill_color": "#660000", "fill_opacity": 1, "fill_wellknown": "horizline", "fill_shape_color": null, "fill_shape_width": null, "fill_shape_size": null, "fill_img_url": null, "marker_img_url": null}},{"type": "Feature", "id": "layer_data_map.fid--27e80436_1a098c1eed1_204d", "geometry": {"type": "Point", "coordinates": [106.9695784, 48.04108293]}, "geometry_name": "geom", "properties": {"guid": 6617, "id": 6617, "object_no": null, "object_name": null, "layer_type_id": 224, "valid_to": null, "address_no": null, "border_type": "solid", "border_width": null, "border_color": null, "border_opacity": null, "border_wellknown": "horizline", "fill_type": "color", "fill_color": "#660000", "fill_opacity": 1, "fill_wellknown": "horizline", "fill_shape_color": null, "fill_shape_width": null, "fill_shape_size": null, "fill_img_url": null, "marker_img_url": null}},{"type": "Feature", "id": "layer_data_map.fid--27e80436_1a098c1eed1_204e", "geometry": {"type": "Point", "coordinates": [106.97471625, 48.05287372]}, "geometry_name": "geom", "properties": {"guid": 6618, "id": 6618, "object_no": null, "object_name": null, "layer_type_id": 224, "valid_to": null, "address_no": null, "border_type": "solid", "border_width": null, "border_color": null, "border_opacity": null, "border_wellknown": "horizline", "fill_type": "color", "fill_color": "#660000", "fill_opacity": 1, "fill_wellknown": "horizline", "fill_shape_color": null, "fill_shape_width": null, "fill_shape_size": null, "fill_img_url": null, "marker_img_url": null}},{"type": "Feature", "id": "layer_data_map.fid--27e80436_1a098c1eed1_204f", "geometry": {"type": "Point", "coordinates": [106.90582878, 48.11475075]}, "geometry_name": "geom", "properties": {"guid": 6619, "id": 6619, "object_no": null, "object_name": null, "layer_type_id": 224, "valid_to": null, "address_no": null, "border_type": "solid", "border_width": null, "border_color": null, "border_opacity": null, "border_wellknown": "horizline", "fill_type": "color", "fill_color": "#660000", "fill_opacity": 1, "fill_wellknown": "horizline", "fill_shape_color": null, "fill_shape_width": null, "fill_shape_size": null, "fill_img_url": null, "marker_img_url": null}},{"type": "Feature", "id": "layer_data_map.fid--27e80436_1a098c1eed1_2050", "geometry": {"type": "Point", "coordinates": [106.91768106, 47.9306866]}, "geometry_name": "geom", "properties": {"guid": 6620, "id": 6620, "object_no": null, "object_name": null, "layer_type_id": 224, "valid_to": null, "address_no": null, "border_type": "solid", "border_width": null, "border_color": null, "border_opacity": null, "border_wellknown": "horizline", "fill_type": "color", "fill_color": "#660000", "fill_opacity": 1, "fill_wellknown": "horizline", "fill_shape_color": null, "fill_shape_width": null, "fill_shape_size": null, "fill_img_url": null, "marker_img_url": null}},{"type": "Feature", "id": "layer_data_map.fid--27e80436_1a098c1eed1_2051", "geometry": {"type": "Point", "coordinates": [107.38713802, 47.81285336]}, "geometry_name": "geom", "properties": {"guid": 6621, "id": 6621, "object_no": null, "object_name": null, "layer_type_id": 224, "valid_to": null, "address_no": null, "border_type": "solid", "border_width": null, "border_color": null, "border_opacity": null, "border_wellknown": "horizline", "fill_type": "color", "fill_color": "#660000", "fill_opacity": 1, "fill_wellknown": "horizline", "fill_shape_color": null, "fill_shape_width": null, "fill_shape_size": null, "fill_img_url": null, "marker_img_url": null}},{"type": "Feature", "id": "layer_data_map.fid--27e80436_1a098c1eed1_2052", "geometry": {"type": "Point", "coordinates": [107.40542276, 47.91001898]}, "geometry_name": "geom", "properties": {"guid": 6622, "id": 6622, "object_no": null, "object_name": null, "layer_type_id": 224, "valid_to": null, "address_no": null, "border_type": "solid", "border_width": null, "border_color": null, "border_opacity": null, "border_wellknown": "horizline", "fill_type": "color", "fill_color": "#660000", "fill_opacity": 1, "fill_wellknown": "horizline", "fill_shape_color": null, "fill_shape_width": null, "fill_shape_size": null, "fill_img_url": null, "marker_img_url": null}},{"type": "Feature", "id": "layer_data_map.fid--27e80436_1a098c1eed1_2053", "geometry": {"type": "Point", "coordinates": [107.42218316, 47.87287349]}, "geometry_name": "geom", "properties": {"guid": 6623, "id": 6623, "object_no": null, "object_name": null, "layer_type_id": 224, "valid_to": null, "address_no": null, "border_type": "solid", "border_width": null, "border_color": null, "border_opacity": null, "border_wellknown": "horizline", "fill_type": "color", "fill_color": "#660000", "fill_opacity": 1, "fill_wellknown": "horizline", "fill_shape_color": null, "fill_shape_width": null, "fill_shape_size": null, "fill_img_url": null, "marker_img_url": null}},{"type": "Feature", "id": "layer_data_map.fid--27e80436_1a098c1eed1_2054", "geometry": {"type": "Point", "coordinates": [107.42318492, 47.85655473]}, "geometry_name": "geom", "properties": {"guid": 6624, "id": 6624, "object_no": null, "object_name": null, "layer_type_id": 224, "valid_to": null, "address_no": null, "border_type": "solid", "border_width": null, "border_color": null, "border_opacity": null, "border_wellknown": "horizline", "fill_type": "color", "fill_color": "#660000", "fill_opacity": 1, "fill_wellknown": "horizline", "fill_shape_color": null, "fill_shape_width": null, "fill_shape_size": null, "fill_img_url": null, "marker_img_url": null}},{"type": "Feature", "id": "layer_data_map.fid--27e80436_1a098c1eed1_2055", "geometry": {"type": "Point", "coordinates": [107.42593632, 47.9057833]}, "geometry_name": "geom", "properties": {"guid": 6625, "id": 6625, "object_no": null, "object_name": null, "layer_type_id": 224, "valid_to": null, "address_no": null, "border_type": "solid", "border_width": null, "border_color": null, "border_opacity": null, "border_wellknown": "horizline", "fill_type": "color", "fill_color": "#660000", "fill_opacity": 1, "fill_wellknown": "horizline", "fill_shape_color": null, "fill_shape_width": null, "fill_shape_size": null, "fill_img_url": null, "marker_img_url": null}},{"type": "Feature", "id": "layer_data_map.fid--27e80436_1a098c1eed1_2056", "geometry": {"type": "Point", "coordinates": [107.40151577, 47.86019247]}, "geometry_name": "geom", "properties": {"guid": 6626, "id": 6626, "object_no": null, "object_name": null, "layer_type_id": 224, "valid_to": null, "address_no": null, "border_type": "solid", "border_width": null, "border_color": null, "border_opacity": null, "border_wellknown": "horizline", "fill_type": "color", "fill_color": "#660000", "fill_opacity": 1, "fill_wellknown": "horizline", "fill_shape_color": null, "fill_shape_width": null, "fill_shape_size": null, "fill_img_url": null, "marker_img_url": null}},{"type": "Feature", "id": "layer_data_map.fid--27e80436_1a098c1eed1_2057", "geometry": {"type": "Point", "coordinates": [107.39592594, 47.8312734]}, "geometry_name": "geom", "properties": {"guid": 6627, "id": 6627, "object_no": null, "object_name": null, "layer_type_id": 224, "valid_to": null, "address_no": null, "border_type": "solid", "border_width": null, "border_color": null, "border_opacity": null, "border_wellknown": "horizline", "fill_type": "color", "fill_color": "#660000", "fill_opacity": 1, "fill_wellknown": "horizline", "fill_shape_color": null, "fill_shape_width": null, "fill_shape_size": null, "fill_img_url": null, "marker_img_url": null}},{"type": "Feature", "id": "layer_data_map.fid--27e80436_1a098c1eed1_2058", "geometry": {"type": "Point", "coordinates": [107.43702272, 47.85869101]}, "geometry_name": "geom", "properties": {"guid": 6628, "id": 6628, "object_no": null, "object_name": null, "layer_type_id": 224, "valid_to": null, "address_no": null, "border_type": "solid", "border_width": null, "border_color": null, "border_opacity": null, "border_wellknown": "horizline", "fill_type": "color", "fill_color": "#660000", "fill_opacity": 1, "fill_wellknown": "horizline", "fill_shape_color": null, "fill_shape_width": null, "fill_shape_size": null, "fill_img_url": null, "marker_img_url": null}}]}