{"type":"FeatureCollection","features":[{"type": "Feature", "id": "layer_data_map.fid--27e80436_1a098c1eed1_-7fbe", "geometry": {"type": "Polygon", "coordinates": [[[106.90944001, 47.9139165], [106.90947111, 47.91382912], [106.90969832, 47.91385927], [106.90966959, 47.91395611], [106.90944001, 47.9139165]]]}, "geometry_name": "geom", "properties": {"guid": 3245324, "id": 3245324, "object_no": "1460500268", "object_name": "Чин ван Ханддоржийн байшин (МУ-ын засгийн газрын 2020 оны 13 дугаар тогтоолоор батлагдсан)", "layer_type_id": 977, "valid_to": null, "address_no": null, "border_type": "solid", "border_width": 1, "border_color": "#f4cccc", "border_opacity": 0.5, "border_wellknown": "shape://horizline", "fill_type": "color", "fill_color": "#d45656", "fill_opacity": 0.6, "fill_wellknown": null, "fill_shape_color": null, "fill_shape_width": null, "fill_shape_size": null, "fill_img_url": null, "marker_img_url": null}},{"type": "Feature", "id": "layer_data_map.fid--27e80436_1a098c1eed1_-7fbd", "geometry": {"type": "Polygon", "coordinates": [[[106.91365197, 47.9145419], [106.91423851, 47.91418876], [106.91476805, 47.91458844], [106.91463194, 47.91467485], [106.9147982, 47.91480372], [106.91449627, 47.91499197], [106.91431564, 47.91485655], [106.91416929, 47.91493907], [106.91365197, 47.9145419]]]}, "geometry_name": "geom", "properties": {"guid": 3245325, "id": 3245325, "object_no": "1460500393", "object_name": "Улсын драмын эрдмийн театр (2021 оны  НИТХТ 12/35, дүүргийн хамгаалалтад авсан)", "layer_type_id": 977, "valid_to": null, "address_no": null, "border_type": "solid", "border_width": 1, "border_color": "#f4cccc", "border_opacity": 0.5, "border_wellknown": "shape://horizline", "fill_type": "color", "fill_color": "#d45656", "fill_opacity": 0.6, "fill_wellknown": null, "fill_shape_color": null, "fill_shape_width": null, "fill_shape_size": null, "fill_img_url": null, "marker_img_url": null}},{"type": "Feature", "id": "layer_data_map.fid--27e80436_1a098c1eed1_-7fbc", "geometry": {"type": "Polygon", "coordinates": [[[106.91602063, 47.91494211], [106.91605535, 47.91506232], [106.916164, 47.91505236], [106.91605269, 47.91460772], [106.91594627, 47.91462306], [106.91596878, 47.91474076], [106.91590442, 47.91474726], [106.91586173, 47.9146299], [106.91581632, 47.91449359], [106.91623426, 47.91444047], [106.91623471, 47.91445268], [106.91627683, 47.91444519], [106.9163046, 47.91454108], [106.91625638, 47.91454732], [106.91626585, 47.91458516], [106.91624371, 47.91458688], [106.91628312, 47.91472466], [106.91629941, 47.91472846], [106.91634404, 47.9147345], [106.91636669, 47.91474633], [106.91640184, 47.91476882], [106.91641671, 47.91478893], [106.91641776, 47.91481741], [106.91641266, 47.91484328], [106.91637937, 47.91487098], [106.91635561, 47.91488359], [106.91632353, 47.91488955], [106.9163589, 47.91502739], [106.91638306, 47.91502563], [106.91641853, 47.91516618], [106.91599655, 47.91521937], [106.91596295, 47.91507472], [106.915981, 47.9150717], [106.91595228, 47.91495004], [106.91602063, 47.91494211]]]}, "geometry_name": "geom", "properties": {"guid": 3245326, "id": 3245326, "object_no": "1460600043", "object_name": "Үндэсний төв номын сангийн барилга (2021 оны НИТХТ 12/35 дүүргийн хамгаалалтад авсан)", "layer_type_id": 977, "valid_to": null, "address_no": null, "border_type": "solid", "border_width": 1, "border_color": "#f4cccc", "border_opacity": 0.5, "border_wellknown": "shape://horizline", "fill_type": "color", "fill_color": "#d45656", "fill_opacity": 0.6, "fill_wellknown": null, "fill_shape_color": null, "fill_shape_width": null, "fill_shape_size": null, "fill_img_url": null, "marker_img_url": null}},{"type": "Feature", "id": "layer_data_map.fid--27e80436_1a098c1eed1_-7fbb", "geometry": {"type": "Polygon", "coordinates": [[[106.91554316, 47.91797585], [106.91557438, 47.91778261], [106.915611, 47.91779014], [106.91561675, 47.9177819], [106.91571204, 47.91779253], [106.91571214, 47.91779524], [106.91598764, 47.9178205], [106.91598744, 47.91781507], [106.91607863, 47.91782441], [106.91607888, 47.91783119], [106.91611934, 47.91783323], [106.91607974, 47.91801846], [106.91604938, 47.91801626], [106.91603954, 47.91802321], [106.91595647, 47.91801509], [106.91594814, 47.91800844], [106.91567683, 47.91798719], [106.9156629, 47.91799285], [106.91557983, 47.91798473], [106.91557544, 47.91797531], [106.91554316, 47.91797585]]]}, "geometry_name": "geom", "properties": {"guid": 3245328, "id": 3245328, "object_no": "1500400134", "object_name": "Элдэв Очирын нэрэмжит хүүхдийн кино театр барилга", "layer_type_id": 977, "valid_to": null, "address_no": null, "border_type": "solid", "border_width": 1, "border_color": "#f4cccc", "border_opacity": 0.5, "border_wellknown": "shape://horizline", "fill_type": "color", "fill_color": "#d45656", "fill_opacity": 0.6, "fill_wellknown": null, "fill_shape_color": null, "fill_shape_width": null, "fill_shape_size": null, "fill_img_url": null, "marker_img_url": null}},{"type": "Feature", "id": "layer_data_map.fid--27e80436_1a098c1eed1_-7fba", "geometry": {"type": "MultiPolygon", "coordinates": [[[[106.91567824, 47.91896838], [106.91565346, 47.9189671], [106.91564292, 47.9190236], [106.91565257, 47.91902513], [106.9156482, 47.91907067], [106.91589122, 47.91909104], [106.91590274, 47.91902028], [106.9158925, 47.91901638], [106.91594135, 47.91875363], [106.91594538, 47.91875357], [106.91597392, 47.91859702], [106.91596984, 47.91859573], [106.91603857, 47.91827022], [106.9157955, 47.91824849], [106.9157853, 47.91830024], [106.91577102, 47.9182964], [106.91577106, 47.91835204], [106.91579123, 47.91835171], [106.91574052, 47.91861856], [106.91571232, 47.91862038], [106.91570391, 47.91869746], [106.91572544, 47.91870227], [106.91567824, 47.91896838]]], [[[106.91570327, 47.91870332], [106.91570391, 47.91869746], [106.9157, 47.91869659], [106.91570327, 47.91870332]]]]}, "geometry_name": "geom", "properties": {"guid": 3245329, "id": 3245329, "object_no": "1500400118", "object_name": "Монголын орчин үеийн анхны зочид буудлын барилга (2021 оны НИТХТ 12/35 дүүргийн хамгаалалтад авсан)", "layer_type_id": 977, "valid_to": null, "address_no": null, "border_type": "solid", "border_width": 1, "border_color": "#f4cccc", "border_opacity": 0.5, "border_wellknown": "shape://horizline", "fill_type": "color", "fill_color": "#d45656", "fill_opacity": 0.6, "fill_wellknown": null, "fill_shape_color": null, "fill_shape_width": null, "fill_shape_size": null, "fill_img_url": null, "marker_img_url": null}},{"type": "Feature", "id": "layer_data_map.fid--27e80436_1a098c1eed1_-7fb9", "geometry": {"type": "Polygon", "coordinates": [[[106.90764554, 47.92015292], [106.9076676, 47.91998427], [106.90774447, 47.91998842], [106.90775085, 47.91994217], [106.90794505, 47.91995251], [106.90793918, 47.92001232], [106.9079877, 47.92001423], [106.9079618, 47.92018838], [106.907893, 47.92018409], [106.90789664, 47.92017317], [106.90764554, 47.92015292]]]}, "geometry_name": "geom", "properties": {"guid": 3245330, "id": 3245330, "object_no": "1500300295", "object_name": "Туул зоогийн газар (2021 оны НИТХТ 12/35) дүүргийн хамгаалалтад авсан", "layer_type_id": 977, "valid_to": null, "address_no": null, "border_type": "solid", "border_width": 1, "border_color": "#f4cccc", "border_opacity": 0.5, "border_wellknown": "shape://horizline", "fill_type": "color", "fill_color": "#d45656", "fill_opacity": 0.6, "fill_wellknown": null, "fill_shape_color": null, "fill_shape_width": null, "fill_shape_size": null, "fill_img_url": null, "marker_img_url": null}},{"type": "Feature", "id": "layer_data_map.fid--27e80436_1a098c1eed1_-7fb8", "geometry": {"type": "Polygon", "coordinates": [[[106.90925242, 47.92025649], [106.90941464, 47.92027551], [106.90939946, 47.92041148], [106.90943194, 47.92041636], [106.90942457, 47.92043549], [106.90921786, 47.9204145], [106.90925242, 47.92025649]]]}, "geometry_name": "geom", "properties": {"guid": 3245331, "id": 3245331, "object_no": "1500300357", "object_name": "Анхны европ эмийн сангийн байшин (2021 оны НИТХТ 12/35 дүүргийн хамгаалалтад авсан)", "layer_type_id": 977, "valid_to": null, "address_no": null, "border_type": "solid", "border_width": 1, "border_color": "#f4cccc", "border_opacity": 0.5, "border_wellknown": "shape://horizline", "fill_type": "color", "fill_color": "#d45656", "fill_opacity": 0.6, "fill_wellknown": null, "fill_shape_color": null, "fill_shape_width": null, "fill_shape_size": null, "fill_img_url": null, "marker_img_url": null}},{"type": "Feature", "id": "layer_data_map.fid--27e80436_1a098c1eed1_-7fb7", "geometry": {"type": "Polygon", "coordinates": [[[106.90882916, 47.91983739], [106.90879588, 47.9198108], [106.90883782, 47.91963367], [106.90889855, 47.91963809], [106.90890089, 47.91959191], [106.90905867, 47.91960014], [106.90906037, 47.91964625], [106.90914128, 47.91965034], [106.90913013, 47.91978624], [106.90910651, 47.91980292], [106.90912769, 47.91982971], [106.909084, 47.91984943], [106.90905899, 47.91982814], [106.90902207, 47.91981246], [106.90901549, 47.91985329], [106.90882916, 47.91983739]]]}, "geometry_name": "geom", "properties": {"guid": 3245332, "id": 3245332, "object_no": null, "object_name": "Анхны кино театр байрлаж байсан байшин (2021 оны НИТХТ 12/35 дүүргийн хамгаалалтад авсан)", "layer_type_id": 977, "valid_to": null, "address_no": null, "border_type": "solid", "border_width": 1, "border_color": "#f4cccc", "border_opacity": 0.5, "border_wellknown": "shape://horizline", "fill_type": "color", "fill_color": "#d45656", "fill_opacity": 0.6, "fill_wellknown": null, "fill_shape_color": null, "fill_shape_width": null, "fill_shape_size": null, "fill_img_url": null, "marker_img_url": null}},{"type": "Feature", "id": "layer_data_map.fid--27e80436_1a098c1eed1_-7fb6", "geometry": {"type": "Polygon", "coordinates": [[[106.9092855, 47.91997569], [106.91005852, 47.9200239], [106.91001037, 47.92036128], [106.9099053, 47.92035895], [106.90991777, 47.92020403], [106.90949703, 47.92018253], [106.9094906, 47.92022742], [106.90924974, 47.92021107], [106.9092855, 47.91997569]]]}, "geometry_name": "geom", "properties": {"guid": 3245333, "id": 3245333, "object_no": "1500300364", "object_name": "Өндөр хоршооны 2 давхар барилга  (МУ-ын Засгийн газрын 2020 оны 13 дугаар тогтоолоор улсын хамгаалалтад авсан)", "layer_type_id": 977, "valid_to": null, "address_no": null, "border_type": "solid", "border_width": 1, "border_color": "#f4cccc", "border_opacity": 0.5, "border_wellknown": "shape://horizline", "fill_type": "color", "fill_color": "#d45656", "fill_opacity": 0.6, "fill_wellknown": null, "fill_shape_color": null, "fill_shape_width": null, "fill_shape_size": null, "fill_img_url": null, "marker_img_url": null}},{"type": "Feature", "id": "layer_data_map.fid--27e80436_1a098c1eed1_-7fb5", "geometry": {"type": "Polygon", "coordinates": [[[106.91562439, 47.91919151], [106.91587347, 47.91921179], [106.91575506, 47.91988691], [106.91525468, 47.91984097], [106.91526014, 47.91977031], [106.91553526, 47.91978472], [106.91562439, 47.91919151]]]}, "geometry_name": "geom", "properties": {"guid": 3245334, "id": 3245334, "object_no": "1500400126", "object_name": "Монголын Үйлдвэрчний төв зөвлөлийн барилга ( 2021 оны НИТХТ 12/35 дүүргийн хамгаалалтад авсан)", "layer_type_id": 977, "valid_to": null, "address_no": null, "border_type": "solid", "border_width": 1, "border_color": "#f4cccc", "border_opacity": 0.5, "border_wellknown": "shape://horizline", "fill_type": "color", "fill_color": "#d45656", "fill_opacity": 0.6, "fill_wellknown": null, "fill_shape_color": null, "fill_shape_width": null, "fill_shape_size": null, "fill_img_url": null, "marker_img_url": null}},{"type": "Feature", "id": "layer_data_map.fid--27e80436_1a098c1eed1_-7fb4", "geometry": {"type": "Polygon", "coordinates": [[[106.91530829, 47.91932436], [106.91530647, 47.91932982], [106.9153044, 47.9193285], [106.91531225, 47.91921301], [106.9154375, 47.91921499], [106.9154357, 47.91933038], [106.91530829, 47.91932436]]]}, "geometry_name": "geom", "properties": {"guid": 3245335, "id": 3245335, "object_no": null, "object_name": "Ерөнхий сайд жигжиджавын амьдарч байсан байшин", "layer_type_id": 977, "valid_to": null, "address_no": null, "border_type": "solid", "border_width": 1, "border_color": "#f4cccc", "border_opacity": 0.5, "border_wellknown": "shape://horizline", "fill_type": "color", "fill_color": "#d45656", "fill_opacity": 0.6, "fill_wellknown": null, "fill_shape_color": null, "fill_shape_width": null, "fill_shape_size": null, "fill_img_url": null, "marker_img_url": null}},{"type": "Feature", "id": "layer_data_map.fid--27e80436_1a098c1eed1_-7fb3", "geometry": {"type": "Polygon", "coordinates": [[[106.91926682, 47.91876153], [106.91933191, 47.91839266], [106.92041724, 47.918479], [106.92034621, 47.9188507], [106.91926682, 47.91876153]]]}, "geometry_name": "geom", "properties": {"guid": 3245336, "id": 3245336, "object_no": "1460900055", "object_name": "Улсын дуурь бүжгийн эрдмийн театрын барилга (2021 оны НИТХТ 12/35, дүүргийн хамгаалалтад авсан)", "layer_type_id": 977, "valid_to": null, "address_no": null, "border_type": "solid", "border_width": 1, "border_color": "#f4cccc", "border_opacity": 0.5, "border_wellknown": "shape://horizline", "fill_type": "color", "fill_color": "#d45656", "fill_opacity": 0.6, "fill_wellknown": null, "fill_shape_color": null, "fill_shape_width": null, "fill_shape_size": null, "fill_img_url": null, "marker_img_url": null}},{"type": "Feature", "id": "layer_data_map.fid--27e80436_1a098c1eed1_-7fb2", "geometry": {"type": "Polygon", "coordinates": [[[106.92051821, 47.91706181], [106.92056969, 47.91692523], [106.92054497, 47.91691207], [106.9206007, 47.91667228], [106.92078268, 47.91668009], [106.92081093, 47.91667962], [106.92077408, 47.91688381], [106.92070134, 47.91688231], [106.92069518, 47.91693399], [106.92097138, 47.91697822], [106.92098258, 47.91695361], [106.92108013, 47.91697098], [106.92108033, 47.9169764], [106.92127493, 47.91699757], [106.92129653, 47.91692664], [106.92125547, 47.91690833], [106.92127707, 47.91683739], [106.92152846, 47.91686576], [106.92141502, 47.91718252], [106.92094663, 47.91718221], [106.92051821, 47.91706181]]]}, "geometry_name": "geom", "properties": {"guid": 3245337, "id": 3245337, "object_no": "1460700331", "object_name": "Гадаад харилцааны яамны барилга (2021 оны  НИТХТ 12/35, дүүргийн хамгаалалтад авсан)", "layer_type_id": 977, "valid_to": null, "address_no": null, "border_type": "solid", "border_width": 1, "border_color": "#f4cccc", "border_opacity": 0.5, "border_wellknown": "shape://horizline", "fill_type": "color", "fill_color": "#d45656", "fill_opacity": 0.6, "fill_wellknown": null, "fill_shape_color": null, "fill_shape_width": null, "fill_shape_size": null, "fill_img_url": null, "marker_img_url": null}},{"type": "Feature", "id": "layer_data_map.fid--27e80436_1a098c1eed1_-7fb1", "geometry": {"type": "Polygon", "coordinates": [[[106.9216422, 47.91721128], [106.9216968, 47.91705023], [106.92201346, 47.9170965], [106.9219629, 47.91725749], [106.9216422, 47.91721128]]]}, "geometry_name": "geom", "properties": {"guid": 3245338, "id": 3245338, "object_no": "1460700196", "object_name": "Монгол Улсын их сургуулийн анхны хичээлийн байр (2021 оны НИТХТ 12/35, дүүргийн хамгаалалтад авсан)", "layer_type_id": 977, "valid_to": null, "address_no": null, "border_type": "solid", "border_width": 1, "border_color": "#f4cccc", "border_opacity": 0.5, "border_wellknown": "shape://horizline", "fill_type": "color", "fill_color": "#d45656", "fill_opacity": 0.6, "fill_wellknown": null, "fill_shape_color": null, "fill_shape_width": null, "fill_shape_size": null, "fill_img_url": null, "marker_img_url": null}},{"type": "Feature", "id": "layer_data_map.fid--27e80436_1a098c1eed1_-7fb0", "geometry": {"type": "Polygon", "coordinates": [[[106.92414334, 47.91851093], [106.92396695, 47.91849082], [106.92403073, 47.91825089], [106.92413968, 47.91824906], [106.92414145, 47.91824225], [106.92426049, 47.91824025], [106.92427486, 47.9182468], [106.92436768, 47.91824524], [106.92436727, 47.91823439], [106.92438286, 47.9182192], [106.92447164, 47.91821771], [106.92449827, 47.91822813], [106.92449706, 47.91824986], [106.92459592, 47.9182482], [106.92460354, 47.91823586], [106.92472072, 47.91823797], [106.92472102, 47.91824611], [106.92484178, 47.91823594], [106.92484399, 47.9183499], [106.92467269, 47.9183582], [106.92455596, 47.9183683], [106.92454708, 47.91845531], [106.92433926, 47.91845879], [106.92432968, 47.91836395], [106.92418224, 47.91836235], [106.92414334, 47.91851093]]]}, "geometry_name": "geom", "properties": {"guid": 3245339, "id": 3245339, "object_no": "1460800117", "object_name": "БНМАУ-ын Засгийн газар байрлаж байсан барилга (2021 оны НИТХТ 12/35, дүүргийн хамгаалалтад авсан)", "layer_type_id": 977, "valid_to": null, "address_no": null, "border_type": "solid", "border_width": 1, "border_color": "#f4cccc", "border_opacity": 0.5, "border_wellknown": "shape://horizline", "fill_type": "color", "fill_color": "#d45656", "fill_opacity": 0.6, "fill_wellknown": null, "fill_shape_color": null, "fill_shape_width": null, "fill_shape_size": null, "fill_img_url": null, "marker_img_url": null}},{"type": "Feature", "id": "layer_data_map.fid--27e80436_1a098c1eed1_-7faf", "geometry": {"type": "Polygon", "coordinates": [[[106.92575558, 47.91734525], [106.92581591, 47.91723024], [106.92590333, 47.91724641], [106.92588628, 47.91727656], [106.92591477, 47.91728286], [106.92600971, 47.91712113], [106.92596512, 47.91711645], [106.92602798, 47.91701496], [106.92605446, 47.9170213], [106.92614556, 47.91686506], [106.92610289, 47.91685763], [106.92609543, 47.91687404], [106.92603031, 47.91686021], [106.92608086, 47.9167535], [106.92624786, 47.91679277], [106.9262574, 47.91677768], [106.92633265, 47.91679271], [106.92631711, 47.91680925], [106.92644745, 47.91683964], [106.9263961, 47.91692464], [106.92632704, 47.91691359], [106.92623064, 47.91709028], [106.92624699, 47.91709543], [106.92621475, 47.91715162], [106.92620048, 47.91714778], [106.92611023, 47.91732709], [106.9261755, 47.91734499], [106.92612419, 47.91743135], [106.92600198, 47.91740219], [106.92598654, 47.91742145], [106.92590312, 47.91740385], [106.92591447, 47.9173833], [106.92575558, 47.91734525]]]}, "geometry_name": "geom", "properties": {"guid": 3245340, "id": 3245340, "object_no": "1460700155", "object_name": "Улсын төв поликлиник байрлаж байсан барилга ( 2021 оны НИТХТ 12/35, дүүргийн хамгаалалтад авсан)", "layer_type_id": 977, "valid_to": null, "address_no": null, "border_type": "solid", "border_width": 1, "border_color": "#f4cccc", "border_opacity": 0.5, "border_wellknown": "shape://horizline", "fill_type": "color", "fill_color": "#d45656", "fill_opacity": 0.6, "fill_wellknown": null, "fill_shape_color": null, "fill_shape_width": null, "fill_shape_size": null, "fill_img_url": null, "marker_img_url": null}},{"type": "Feature", "id": "layer_data_map.fid--27e80436_1a098c1eed1_-7fae", "geometry": {"type": "Polygon", "coordinates": [[[106.93447508, 47.91831897], [106.93450088, 47.91822558], [106.93485258, 47.91826376], [106.9348524, 47.91825901], [106.93506017, 47.91828129], [106.93504555, 47.91832225], [106.93507191, 47.9183252], [106.93505297, 47.91838591], [106.93497191, 47.91837778], [106.93497204, 47.91838117], [106.93494226, 47.91839457], [106.93491083, 47.91839102], [106.93488816, 47.91837851], [106.9348877, 47.91836631], [106.93447508, 47.91831897]]]}, "geometry_name": "geom", "properties": {"guid": 3245341, "id": 3245341, "object_no": "1330501503", "object_name": "Анхны холбооны байшин (Боловсрол, соёл, шинжлэх ухаан, спортын сайдын 2020 оны А/161 тоот тушаалаар)", "layer_type_id": 977, "valid_to": null, "address_no": null, "border_type": "solid", "border_width": 1, "border_color": "#f4cccc", "border_opacity": 0.5, "border_wellknown": "shape://horizline", "fill_type": "color", "fill_color": "#d45656", "fill_opacity": 0.6, "fill_wellknown": null, "fill_shape_color": null, "fill_shape_width": null, "fill_shape_size": null, "fill_img_url": null, "marker_img_url": null}},{"type": "Feature", "id": "layer_data_map.fid--27e80436_1a098c1eed1_-7fad", "geometry": {"type": "Polygon", "coordinates": [[[106.93296147, 47.91581474], [106.93296325, 47.91575432], [106.93307727, 47.91575308], [106.93307777, 47.91571235], [106.93314649, 47.91571459], [106.93314573, 47.91569424], [106.93323862, 47.91569471], [106.93323945, 47.91571709], [106.93330812, 47.91571797], [106.93330493, 47.91579471], [106.93324453, 47.91579912], [106.93324523, 47.9158181], [106.93304941, 47.91581801], [106.93296147, 47.91581474]]]}, "geometry_name": "geom", "properties": {"guid": 3245342, "id": 3245342, "object_no": null, "object_name": "Гоожингийн өндөр хэмээх 2 давхар барилга (2007 оны 197 дугаар тогтоолоор нийслэлийн хамгаалалтад авсан)", "layer_type_id": 977, "valid_to": null, "address_no": null, "border_type": "solid", "border_width": 1, "border_color": "#f4cccc", "border_opacity": 0.5, "border_wellknown": "shape://horizline", "fill_type": "color", "fill_color": "#d45656", "fill_opacity": 0.6, "fill_wellknown": null, "fill_shape_color": null, "fill_shape_width": null, "fill_shape_size": null, "fill_img_url": null, "marker_img_url": null}},{"type": "Feature", "id": "layer_data_map.fid--27e80436_1a098c1eed1_-7fac", "geometry": {"type": "Polygon", "coordinates": [[[106.93599295, 47.91830933], [106.93601044, 47.91818282], [106.93601654, 47.91818408], [106.9361378, 47.91818746], [106.93612082, 47.91832753], [106.93610872, 47.91832774], [106.93610932, 47.91834401], [106.9359474, 47.91833317], [106.9359526, 47.91831001], [106.93599295, 47.91830933]]]}, "geometry_name": "geom", "properties": {"guid": 3245343, "id": 3245343, "object_no": "1330501129", "object_name": "Ардын намын төв хороо, Ардын засгийн газрын байшин  (Боловсрол, соёл, шинжлэх ухаан, спортын сайдын 2020 оны А/161 тоот тушаалаар)", "layer_type_id": 977, "valid_to": null, "address_no": null, "border_type": "solid", "border_width": 1, "border_color": "#f4cccc", "border_opacity": 0.5, "border_wellknown": "shape://horizline", "fill_type": "color", "fill_color": "#d45656", "fill_opacity": 0.6, "fill_wellknown": null, "fill_shape_color": null, "fill_shape_width": null, "fill_shape_size": null, "fill_img_url": null, "marker_img_url": null}},{"type": "Feature", "id": "layer_data_map.fid--27e80436_1a098c1eed1_-7fab", "geometry": {"type": "MultiPolygon", "coordinates": [[[[106.94906676, 47.91746712], [106.94906646, 47.91746348], [106.94906559, 47.91746723], [106.94906676, 47.91746712]]], [[[106.94921365, 47.91752545], [106.949209, 47.91745563], [106.94914604, 47.91745908], [106.94914286, 47.91744149], [106.94909604, 47.91744466], [106.94909829, 47.9174643], [106.94906676, 47.91746712], [106.94907211, 47.91753328], [106.94921365, 47.91752545]]]]}, "geometry_name": "geom", "properties": {"guid": 3245344, "id": 3245344, "object_no": "1330800933", "object_name": "Консулын дэнжийн нууц бүлгэм байрлаж байсан байшин", "layer_type_id": 977, "valid_to": null, "address_no": null, "border_type": "solid", "border_width": 1, "border_color": "#f4cccc", "border_opacity": 0.5, "border_wellknown": "shape://horizline", "fill_type": "color", "fill_color": "#d45656", "fill_opacity": 0.6, "fill_wellknown": null, "fill_shape_color": null, "fill_shape_width": null, "fill_shape_size": null, "fill_img_url": null, "marker_img_url": null}},{"type": "Feature", "id": "layer_data_map.fid--27e80436_1a098c1eed1_-7faa", "geometry": {"type": "Polygon", "coordinates": [[[106.95671719, 47.91782903], [106.95699697, 47.91780662], [106.957025, 47.91796085], [106.9569162, 47.91796678], [106.95690246, 47.91792359], [106.95673546, 47.91793865], [106.95671719, 47.91782903]]]}, "geometry_name": "geom", "properties": {"guid": 3245345, "id": 3245345, "object_no": "1330700296", "object_name": "Н.К. Рерихийн амьдарч байсан байшин  (2021 оны НИХТХ 12/35, дүүргийн хамгаалалтад авсан)", "layer_type_id": 977, "valid_to": null, "address_no": null, "border_type": "solid", "border_width": 1, "border_color": "#f4cccc", "border_opacity": 0.5, "border_wellknown": "shape://horizline", "fill_type": "color", "fill_color": "#d45656", "fill_opacity": 0.6, "fill_wellknown": null, "fill_shape_color": null, "fill_shape_width": null, "fill_shape_size": null, "fill_img_url": null, "marker_img_url": null}},{"type": "Feature", "id": "layer_data_map.fid--27e80436_1a098c1eed1_-7fa9", "geometry": {"type": "Polygon", "coordinates": [[[106.96501117, 47.91687849], [106.96512793, 47.91686971], [106.96513499, 47.91694966], [106.96541704, 47.91693397], [106.96540573, 47.91684867], [106.96551448, 47.91684138], [106.96554185, 47.91703091], [106.96504448, 47.91706521], [106.96501117, 47.91687849]]]}, "geometry_name": "geom", "properties": {"guid": 3245346, "id": 3245346, "object_no": "1330900413", "object_name": "Монголорын хоёр давхар барилга ( 2021 оны НИХТХ 12/35, дүүргийн хамгаалалтад авсан)", "layer_type_id": 977, "valid_to": null, "address_no": null, "border_type": "solid", "border_width": 1, "border_color": "#f4cccc", "border_opacity": 0.5, "border_wellknown": "shape://horizline", "fill_type": "color", "fill_color": "#d45656", "fill_opacity": 0.6, "fill_wellknown": null, "fill_shape_color": null, "fill_shape_width": null, "fill_shape_size": null, "fill_img_url": null, "marker_img_url": null}},{"type": "Feature", "id": "layer_data_map.fid--27e80436_1a098c1eed1_-7fa8", "geometry": {"type": "Polygon", "coordinates": [[[106.96544769, 47.91726324], [106.9654168, 47.91708734], [106.96554959, 47.91707556], [106.96557857, 47.91725421], [106.96544769, 47.91726324]]]}, "geometry_name": "geom", "properties": {"guid": 3245347, "id": 3245347, "object_no": null, "object_name": "Цэргийн госпиталийн төв штаб байсан барилга (2021 оны НИХТХ 12/35, дүүргийн хамгаалалтад авсан)", "layer_type_id": 977, "valid_to": null, "address_no": null, "border_type": "solid", "border_width": 1, "border_color": "#f4cccc", "border_opacity": 0.5, "border_wellknown": "shape://horizline", "fill_type": "color", "fill_color": "#d45656", "fill_opacity": 0.6, "fill_wellknown": null, "fill_shape_color": null, "fill_shape_width": null, "fill_shape_size": null, "fill_img_url": null, "marker_img_url": null}},{"type": "Feature", "id": "layer_data_map.fid--27e80436_1a098c1eed1_-7fa7", "geometry": {"type": "Polygon", "coordinates": [[[106.90264397, 47.9192849], [106.90289292, 47.91930181], [106.90291873, 47.91928985], [106.90295614, 47.91931908], [106.90293036, 47.91933172], [106.90291208, 47.91946639], [106.90279465, 47.91945747], [106.90279227, 47.91947516], [106.90274166, 47.91947125], [106.90274146, 47.91946582], [106.90274744, 47.91946369], [106.90274711, 47.91945487], [106.90267939, 47.9194526], [106.90267065, 47.91948939], [106.90261088, 47.91948359], [106.90264397, 47.9192849]]]}, "geometry_name": "geom", "properties": {"guid": 3245348, "id": 3245348, "object_no": null, "object_name": "Шар дэлгүүрийн байшин (2021 НИТХТ 12/35 дүүргийн хамгаалалтад авсан)", "layer_type_id": 977, "valid_to": null, "address_no": null, "border_type": "solid", "border_width": 1, "border_color": "#f4cccc", "border_opacity": 0.5, "border_wellknown": "shape://horizline", "fill_type": "color", "fill_color": "#d45656", "fill_opacity": 0.6, "fill_wellknown": null, "fill_shape_color": null, "fill_shape_width": null, "fill_shape_size": null, "fill_img_url": null, "marker_img_url": null}},{"type": "Feature", "id": "layer_data_map.fid--27e80436_1a098c1eed1_-7fa6", "geometry": {"type": "Polygon", "coordinates": [[[106.89327895, 47.92066456], [106.8961503, 47.92056288], [106.89644874, 47.92342425], [106.89355832, 47.92345025], [106.89327895, 47.92066456]]]}, "geometry_name": "geom", "properties": {"guid": 3245349, "id": 3245349, "object_no": "1680902019", "object_name": "Гандантэгчэнлин хийдийн цогцолбор", "layer_type_id": 977, "valid_to": null, "address_no": null, "border_type": "solid", "border_width": 1, "border_color": "#f4cccc", "border_opacity": 0.5, "border_wellknown": "shape://horizline", "fill_type": "color", "fill_color": "#d45656", "fill_opacity": 0.6, "fill_wellknown": null, "fill_shape_color": null, "fill_shape_width": null, "fill_shape_size": null, "fill_img_url": null, "marker_img_url": null}},{"type": "Feature", "id": "layer_data_map.fid--27e80436_1a098c1eed1_-7fa5", "geometry": {"type": "Polygon", "coordinates": [[[106.88498654, 47.91532051], [106.88498068, 47.91524257], [106.88496552, 47.91524214], [106.88496236, 47.91504405], [106.88497245, 47.91504388], [106.88497393, 47.91497329], [106.88550455, 47.91496458], [106.8855047, 47.91505211], [106.88534644, 47.9150581], [106.88534955, 47.91522701], [106.88551507, 47.91522633], [106.8855152, 47.91531319], [106.88498654, 47.91532051]]]}, "geometry_name": "geom", "properties": {"guid": 3245350, "id": 3245350, "object_no": "1680200522", "object_name": "Төмөр замын соёлын ордны барилга (2021 оны НИТХТ 12/35, дүүргийн хамгаалалтад авсан)", "layer_type_id": 977, "valid_to": null, "address_no": null, "border_type": "solid", "border_width": 1, "border_color": "#f4cccc", "border_opacity": 0.5, "border_wellknown": "shape://horizline", "fill_type": "color", "fill_color": "#d45656", "fill_opacity": 0.6, "fill_wellknown": null, "fill_shape_color": null, "fill_shape_width": null, "fill_shape_size": null, "fill_img_url": null, "marker_img_url": null}},{"type": "Feature", "id": "layer_data_map.fid--27e80436_1a098c1eed1_-7fa4", "geometry": {"type": "Polygon", "coordinates": [[[106.91712033, 47.92224795], [106.91772395, 47.9223003], [106.9179109, 47.92233246], [106.91815269, 47.92253742], [106.91812955, 47.92267624], [106.9180717, 47.92285906], [106.91810026, 47.92286673], [106.91799722, 47.9234656], [106.91781864, 47.92344144], [106.91782646, 47.92321602], [106.91785471, 47.92321555], [106.91792672, 47.92286963], [106.91790624, 47.92286183], [106.91796472, 47.92258671], [106.91777306, 47.92242705], [106.91710447, 47.92236493], [106.91712033, 47.92224795]]]}, "geometry_name": "geom", "properties": {"guid": 3245351, "id": 3245351, "object_no": "1461100102", "object_name": "Орон сууцны 1,2,24 байр ( 2021 оны 12/35 дүүргийн хамгаалалтад авсан)", "layer_type_id": 977, "valid_to": null, "address_no": null, "border_type": "solid", "border_width": 1, "border_color": "#f4cccc", "border_opacity": 0.5, "border_wellknown": "shape://horizline", "fill_type": "color", "fill_color": "#d45656", "fill_opacity": 0.6, "fill_wellknown": null, "fill_shape_color": null, "fill_shape_width": null, "fill_shape_size": null, "fill_img_url": null, "marker_img_url": null}},{"type": "Feature", "id": "layer_data_map.fid--27e80436_1a098c1eed1_-7fa3", "geometry": {"type": "Polygon", "coordinates": [[[106.91555056, 47.92697803], [106.9156391, 47.92658706], [106.91597962, 47.92662209], [106.91600522, 47.92654973], [106.91632133, 47.92657974], [106.91631424, 47.92666129], [106.91665069, 47.92669503], [106.91655216, 47.92708889], [106.91650343, 47.92708156], [106.91649228, 47.92710753], [106.9162873, 47.92707974], [106.91635769, 47.92685328], [106.91619968, 47.92683963], [106.91618372, 47.92689961], [106.91597295, 47.9268787], [106.91599274, 47.92681323], [106.91584881, 47.92679799], [106.91579987, 47.92700373], [106.91574337, 47.92700467], [106.9157423, 47.92703048], [106.91559827, 47.92701252], [106.91560731, 47.92698387], [106.91555056, 47.92697803]]]}, "geometry_name": "geom", "properties": {"guid": 3245353, "id": 3245353, "object_no": "1461300402", "object_name": "Хүүхдийн урлан бүтээх төвийн барилга (2021 оны НИТХТ 12/35 дүүргийн хамгаалалтад авсан)", "layer_type_id": 977, "valid_to": null, "address_no": null, "border_type": "solid", "border_width": 1, "border_color": "#f4cccc", "border_opacity": 0.5, "border_wellknown": "shape://horizline", "fill_type": "color", "fill_color": "#d45656", "fill_opacity": 0.6, "fill_wellknown": null, "fill_shape_color": null, "fill_shape_width": null, "fill_shape_size": null, "fill_img_url": null, "marker_img_url": null}},{"type": "Feature", "id": "layer_data_map.fid--27e80436_1a098c1eed1_-7fa2", "geometry": {"type": "Polygon", "coordinates": [[[106.92032199, 47.92708561], [106.92124552, 47.92715973], [106.92132822, 47.92742977], [106.92122302, 47.92786039], [106.92086684, 47.92783921], [106.92028943, 47.92751501], [106.92032199, 47.92708561]]]}, "geometry_name": "geom", "properties": {"guid": 3245354, "id": 3245354, "object_no": "1461300468", "object_name": "Дашчойлин хийдийн Гэр хэлбэрт модон дуган (МУ-ын засгийн газрын 2020 оны 13 дугаар тогтоолоор улсын хамгаалалтад авсан)", "layer_type_id": 977, "valid_to": null, "address_no": null, "border_type": "solid", "border_width": 1, "border_color": "#f4cccc", "border_opacity": 0.5, "border_wellknown": "shape://horizline", "fill_type": "color", "fill_color": "#d45656", "fill_opacity": 0.6, "fill_wellknown": null, "fill_shape_color": null, "fill_shape_width": null, "fill_shape_size": null, "fill_img_url": null, "marker_img_url": null}},{"type": "Feature", "id": "layer_data_map.fid--27e80436_1a098c1eed1_-7fa1", "geometry": {"type": "Polygon", "coordinates": [[[106.99894018, 47.90597863], [106.99902076, 47.90597451], [106.99902465, 47.90599683], [106.99905084, 47.9059957], [106.9990569, 47.90602206], [106.99909624, 47.90602137], [106.99910454, 47.90607959], [106.99887593, 47.90609239], [106.99886958, 47.90603211], [106.99891191, 47.90603069], [106.99890887, 47.90600428], [106.99894003, 47.90600102], [106.99894018, 47.90597863]]]}, "geometry_name": "geom", "properties": {"guid": 3245355, "id": 3245355, "object_no": "1331401590", "object_name": "Дара эхийн сүмийн хоёр чулуун багана ( 2020 оны МУ-ийн засгийн газрын 13 дугаар тогтоолоор нийслэлийн хамгаалалтад авсан))", "layer_type_id": 977, "valid_to": null, "address_no": null, "border_type": "solid", "border_width": 1, "border_color": "#f4cccc", "border_opacity": 0.5, "border_wellknown": "shape://horizline", "fill_type": "color", "fill_color": "#d45656", "fill_opacity": 0.6, "fill_wellknown": null, "fill_shape_color": null, "fill_shape_width": null, "fill_shape_size": null, "fill_img_url": null, "marker_img_url": null}},{"type": "Feature", "id": "layer_data_map.fid--27e80436_1a098c1eed1_-7fa0", "geometry": {"type": "Polygon", "coordinates": [[[106.7573707, 47.85371453], [106.75760071, 47.85371848], [106.75759652, 47.85377351], [106.75756319, 47.85377198], [106.7575566, 47.85387523], [106.75744468, 47.8538749], [106.75744012, 47.85385937], [106.75738564, 47.85385816], [106.75738781, 47.85377331], [106.75736961, 47.85377155], [106.7573707, 47.85371453]]]}, "geometry_name": "geom", "properties": {"guid": 3245356, "id": 3245356, "object_no": null, "object_name": "МУ-ын ОУ-ын анхны нисэх буудал байрлаж байсан байшин (2021 оны НИХТХ 12/35, дүүргийн хамгаалалтад авсан)", "layer_type_id": 977, "valid_to": null, "address_no": null, "border_type": "solid", "border_width": 1, "border_color": "#f4cccc", "border_opacity": 0.5, "border_wellknown": "shape://horizline", "fill_type": "color", "fill_color": "#d45656", "fill_opacity": 0.6, "fill_wellknown": null, "fill_shape_color": null, "fill_shape_width": null, "fill_shape_size": null, "fill_img_url": null, "marker_img_url": null}},{"type": "Feature", "id": "layer_data_map.fid--27e80436_1a098c1eed1_-7f9f", "geometry": {"type": "Polygon", "coordinates": [[[106.7601198, 47.8538563], [106.76012506, 47.85371372], [106.7606818, 47.85372011], [106.76067654, 47.85386269], [106.7601198, 47.8538563]]]}, "geometry_name": "geom", "properties": {"guid": 3245357, "id": 3245357, "object_no": null, "object_name": "МУ-ын ОУ-ын анхны нисэх буудал байрлаж байсан байшин (2021 оны НИХТХ 12/35, дүүргийн хамгаалалтад авсан)", "layer_type_id": 977, "valid_to": null, "address_no": null, "border_type": "solid", "border_width": 1, "border_color": "#f4cccc", "border_opacity": 0.5, "border_wellknown": "shape://horizline", "fill_type": "color", "fill_color": "#d45656", "fill_opacity": 0.6, "fill_wellknown": null, "fill_shape_color": null, "fill_shape_width": null, "fill_shape_size": null, "fill_img_url": null, "marker_img_url": null}},{"type": "Feature", "id": "layer_data_map.fid--27e80436_1a098c1eed1_-7f9e", "geometry": {"type": "Polygon", "coordinates": [[[106.91460996, 47.89554546], [106.91494343, 47.8955589], [106.91492508, 47.89571799], [106.91540436, 47.89574528], [106.91541706, 47.89559714], [106.91583892, 47.8955996], [106.91583122, 47.89571916], [106.91562728, 47.89571578], [106.91559232, 47.89597151], [106.91468921, 47.89594314], [106.91471757, 47.8956726], [106.91460826, 47.89566356], [106.91460996, 47.89554546]]]}, "geometry_name": "geom", "properties": {"guid": 3245358, "id": 3245358, "object_no": "1780610357", "object_name": "Удирдлагын академийн хичээлийн төв байр (2021 оны НИТХТ 12/35, дүүргийн хамгаалалтад авав)", "layer_type_id": 977, "valid_to": null, "address_no": null, "border_type": "solid", "border_width": 1, "border_color": "#f4cccc", "border_opacity": 0.5, "border_wellknown": "shape://horizline", "fill_type": "color", "fill_color": "#d45656", "fill_opacity": 0.6, "fill_wellknown": null, "fill_shape_color": null, "fill_shape_width": null, "fill_shape_size": null, "fill_img_url": null, "marker_img_url": null}},{"type": "Feature", "id": "layer_data_map.fid--27e80436_1a098c1eed1_-7f9d", "geometry": {"type": "Polygon", "coordinates": [[[106.91373676, 47.8945218], [106.91374358, 47.89440565], [106.91399408, 47.89441301], [106.91397819, 47.89452931], [106.91373676, 47.8945218]]]}, "geometry_name": "geom", "properties": {"guid": 3245359, "id": 3245359, "object_no": null, "object_name": "Богдын хүрэн ордны цогцолбороос үлдсэн барилга (2021 оны НИТХТ 12/35)", "layer_type_id": 977, "valid_to": null, "address_no": null, "border_type": "solid", "border_width": 1, "border_color": "#f4cccc", "border_opacity": 0.5, "border_wellknown": "shape://horizline", "fill_type": "color", "fill_color": "#d45656", "fill_opacity": 0.6, "fill_wellknown": null, "fill_shape_color": null, "fill_shape_width": null, "fill_shape_size": null, "fill_img_url": null, "marker_img_url": null}},{"type": "Feature", "id": "layer_data_map.fid--27e80436_1a098c1eed1_-7f9c", "geometry": {"type": "Polygon", "coordinates": [[[106.90670926, 47.89655844], [106.90806547, 47.89678019], [106.90753935, 47.89849895], [106.9063801, 47.89836621], [106.90670926, 47.89655844]]]}, "geometry_name": "geom", "properties": {"guid": 3245360, "id": 3245360, "object_no": "1780700217", "object_name": "Богд хааны ордон музейн цогцолбор (МУ-ын засгийн газрын 2020 оны 13 дугаар тогтоол)", "layer_type_id": 977, "valid_to": null, "address_no": null, "border_type": "solid", "border_width": 1, "border_color": "#f4cccc", "border_opacity": 0.5, "border_wellknown": "shape://horizline", "fill_type": "color", "fill_color": "#d45656", "fill_opacity": 0.6, "fill_wellknown": null, "fill_shape_color": null, "fill_shape_width": null, "fill_shape_size": null, "fill_img_url": null, "marker_img_url": null}},{"type": "Feature", "id": "layer_data_map.fid--27e80436_1a098c1eed1_-7f9b", "geometry": {"type": "Polygon", "coordinates": [[[106.89998455, 47.92212467], [106.90008702, 47.92172533], [106.90014415, 47.92168639], [106.9004738, 47.92170129], [106.90055468, 47.92175966], [106.90055487, 47.92215052], [106.89998455, 47.92212467]]]}, "geometry_name": "geom", "properties": {"guid": 3245361, "id": 3245361, "object_no": "1500713246", "object_name": "Гэсэр сүмийн цогцолбор ( МУ-ын Засгийн газрын 2020 оны 13 дугаар тогтоолоор улсын хамгаалалтад авсан)", "layer_type_id": 977, "valid_to": null, "address_no": null, "border_type": "solid", "border_width": 1, "border_color": "#f4cccc", "border_opacity": 0.5, "border_wellknown": "shape://horizline", "fill_type": "color", "fill_color": "#d45656", "fill_opacity": 0.6, "fill_wellknown": null, "fill_shape_color": null, "fill_shape_width": null, "fill_shape_size": null, "fill_img_url": null, "marker_img_url": null}},{"type": "Feature", "id": "layer_data_map.fid--27e80436_1a098c1eed1_-7f9a", "geometry": {"type": "Polygon", "coordinates": [[[106.91769789, 47.91546511], [106.91820908, 47.91433013], [106.91897772, 47.91448014], [106.91842589, 47.91560766], [106.91769789, 47.91546511]]]}, "geometry_name": "geom", "properties": {"guid": 3245362, "id": 3245362, "object_no": "1460600106", "object_name": "Чойжин ламын сүм музейн цогцолбор (МУ-ын засгийн газрын 2020 оны 13 дугаар тогтоолоор улсын хамгаалалтад авав)", "layer_type_id": 977, "valid_to": null, "address_no": null, "border_type": "solid", "border_width": 1, "border_color": "#f4cccc", "border_opacity": 0.5, "border_wellknown": "shape://horizline", "fill_type": "color", "fill_color": "#d45656", "fill_opacity": 0.6, "fill_wellknown": null, "fill_shape_color": null, "fill_shape_width": null, "fill_shape_size": null, "fill_img_url": null, "marker_img_url": null}},{"type": "Feature", "id": "layer_data_map.fid--27e80436_1a098c1eed1_-7f99", "geometry": {"type": "Polygon", "coordinates": [[[106.98779767, 47.92185916], [106.98780851, 47.92172054], [106.98910586, 47.92174964], [106.9890673, 47.92190231], [106.98779767, 47.92185916]]]}, "geometry_name": "geom", "properties": {"guid": 3245363, "id": 3245363, "object_no": null, "object_name": "Улаанхуарангийн хоёр давхар барилга ( 2021 оны НИХТХ 12/35, дүүргийн хамгаалалтад авсан)", "layer_type_id": 977, "valid_to": null, "address_no": null, "border_type": "solid", "border_width": 1, "border_color": "#f4cccc", "border_opacity": 0.5, "border_wellknown": "shape://horizline", "fill_type": "color", "fill_color": "#d45656", "fill_opacity": 0.6, "fill_wellknown": null, "fill_shape_color": null, "fill_shape_width": null, "fill_shape_size": null, "fill_img_url": null, "marker_img_url": null}},{"type": "Feature", "id": "layer_data_map.fid--27e80436_1a098c1eed1_-7f98", "geometry": {"type": "Polygon", "coordinates": [[[107.05277093, 47.86520213], [107.05278547, 47.86495757], [107.05322166, 47.86497149], [107.05319884, 47.86521076], [107.05277093, 47.86520213]]]}, "geometry_name": "geom", "properties": {"guid": 3245364, "id": 3245364, "object_no": "1333108592", "object_name": "Хүрэл тогоот дахь Одон орон судлалын төвийн барилга (2021 оны НИХТХ 12/35, дүүргийн хамгаалалтад авсан)", "layer_type_id": 977, "valid_to": null, "address_no": null, "border_type": "solid", "border_width": 1, "border_color": "#f4cccc", "border_opacity": 0.5, "border_wellknown": "shape://horizline", "fill_type": "color", "fill_color": "#d45656", "fill_opacity": 0.6, "fill_wellknown": null, "fill_shape_color": null, "fill_shape_width": null, "fill_shape_size": null, "fill_img_url": null, "marker_img_url": null}}]}