{"type":"FeatureCollection","features":[{"type": "Feature", "id": "layer_data_map.fid--27e80436_1a098c1eed1_-5705", "geometry": {"type": "Polygon", "coordinates": [[[106.61280479, 47.96818602], [106.6279638, 47.97732235], [106.59851899, 47.99670342], [106.61109943, 48.00367464], [106.6046558, 48.008565], [106.59698873, 48.00566564], [106.5918619, 48.01037879], [106.5849975, 48.01318574], [106.57913426, 48.01763517], [106.5952211, 48.02868306], [106.5770144, 48.04045056], [106.590095, 48.04973056], [106.58656582, 48.06892805], [106.592, 48.07241667], [106.61128679, 48.08279124], [106.62277001, 48.08644149], [106.63632187, 48.09808984], [106.64260458, 48.10537872], [106.65475829, 48.1119901], [106.6764141, 48.12061999], [106.68139408, 48.12699421], [106.69694728, 48.13961942], [106.70015171, 48.14187644], [106.70280985, 48.14825508], [106.70276606, 48.15586549], [106.70408459, 48.15917145], [106.70816217, 48.16302432], [106.71494039, 48.168269], [106.71649384, 48.16963769], [106.72316061, 48.17960384], [106.73777704, 48.20653758], [106.75874629, 48.21412039], [106.76888456, 48.22479884], [106.74507707, 48.22785242], [106.67664663, 48.23175669], [106.65847195, 48.23753343], [106.61204132, 48.23213092], [106.57223679, 48.224804], [106.58139968, 48.19352929], [106.60226813, 48.18006148], [106.60841214, 48.1800874], [106.61811391, 48.19485745], [106.66754743, 48.19807048], [106.65825841, 48.16308518], [106.59686586, 48.1684248], [106.59011879, 48.16280705], [106.60013732, 48.14574679], [106.61998241, 48.13883105], [106.62207982, 48.13672064], [106.61682779, 48.13448502], [106.61317459, 48.13001399], [106.61434336, 48.12681542], [106.63691256, 48.1208375], [106.63145531, 48.1159594], [106.61820795, 48.11366461], [106.60344579, 48.10424225], [106.59675066, 48.10277957], [106.59453336, 48.10047686], [106.58947566, 48.10344159], [106.58741686, 48.10209404], [106.58384623, 48.1029417], [106.58294541, 48.10663274], [106.5728311, 48.1064449], [106.57199643, 48.10101234], [106.56230495, 48.09017359], [106.54963802, 48.09148781], [106.53317181, 48.08301743], [106.52787539, 48.07950653], [106.52453427, 48.08105185], [106.52329111, 48.08071328], [106.52130796, 48.0810702], [106.51381538, 48.0779178], [106.50375747, 48.06648432], [106.49803376, 48.0683435], [106.49427246, 48.06401674], [106.49305417, 48.06427303], [106.49021768, 48.06299698], [106.49948063, 48.05518586], [106.50052792, 48.05359681], [106.50164351, 48.05098136], [106.50545024, 48.04121201], [106.50223871, 48.04061901], [106.49415902, 48.03496339], [106.48944516, 48.03788864], [106.476365, 48.03440489], [106.47149971, 48.03107303], [106.46051415, 48.0329516], [106.45922222, 48.01341667], [106.48105556, 47.98077778], [106.49235512, 47.97451182], [106.49239472, 47.97468], [106.5225613, 47.95774873], [106.52736111, 47.95508333], [106.52827495, 47.95515843], [106.5303006, 47.95557679], [106.53681536, 47.95020174], [106.53981943, 47.94673221], [106.54599527, 47.94545643], [106.55099033, 47.94181067], [106.55540873, 47.94115451], [106.56110848, 47.93884066], [106.56487459, 47.93864029], [106.56920606, 47.94245778], [106.57323491, 47.94359544], [106.57663474, 47.94593441], [106.58020672, 47.94663081], [106.58443519, 47.94701984], [106.58605187, 47.94908491], [106.59109474, 47.94707685], [106.59957565, 47.94500449], [106.60426451, 47.94722719], [106.60432952, 47.94772521], [106.60748799, 47.95652398], [106.61280479, 47.96818602]]]}, "geometry_name": "geom", "properties": {"guid": 3251849, "id": 3251849, "object_no": null, "object_name": "Төлөвлөлтийн хил хязгаар", "layer_type_id": 963, "valid_to": null, "address_no": null, "border_type": "solid", "border_width": 1, "border_color": "#16537e", "border_opacity": 1, "border_wellknown": "shape://horizline", "fill_type": "color", "fill_color": "#9fc5e8", "fill_opacity": 0.35, "fill_wellknown": null, "fill_shape_color": null, "fill_shape_width": null, "fill_shape_size": null, "fill_img_url": null, "marker_img_url": null}}]}