{"type":"FeatureCollection","features":[{"type": "Feature", "id": "layer_data_map.fid--27e80436_1a098c1eed1_-5424", "geometry": {"type": "Polygon", "coordinates": [[[106.6813722, 47.8213065], [106.68841959, 47.82352731], [106.68952407, 47.82578083], [106.69062967, 47.82797519], [106.69046269, 47.82953181], [106.69029465, 47.83008273], [106.69000937, 47.83080582], [106.68915545, 47.83269606], [106.68701381, 47.83458474], [106.68215374, 47.83368522], [106.68202931, 47.83366077], [106.67597537, 47.83250876], [106.67709026, 47.82970849], [106.6813722, 47.8213065]]]}, "geometry_name": "geom", "properties": {"guid": 79500, "id": 79500, "object_no": null, "object_name": null, "layer_type_id": 173, "valid_to": null, "address_no": null, "border_type": "solid", "border_width": 0, "border_color": null, "border_opacity": null, "border_wellknown": null, "fill_type": "color", "fill_color": "#fbf6d9", "fill_opacity": 0.8, "fill_wellknown": null, "fill_shape_color": null, "fill_shape_width": null, "fill_shape_size": null, "fill_img_url": null, "marker_img_url": null}},{"type": "Feature", "id": "layer_data_map.fid--27e80436_1a098c1eed1_-5423", "geometry": {"type": "Polygon", "coordinates": [[[106.80487104, 47.94255111], [106.80192872, 47.94365019], [106.8018865, 47.94375586], [106.80200767, 47.94483844], [106.80056929, 47.94618788], [106.80045925, 47.94684494], [106.79896449, 47.94827328], [106.79805799, 47.94853062], [106.79979892, 47.95296001], [106.78106517, 47.95356399], [106.77848276, 47.94713058], [106.7816518, 47.94338563], [106.78355612, 47.93891391], [106.78551189, 47.93925733], [106.78561412, 47.93851384], [106.78921302, 47.93430499], [106.79500677, 47.93482802], [106.79638364, 47.93482725], [106.79647935, 47.93547247], [106.79846531, 47.93590132], [106.80266145, 47.93719265], [106.80487104, 47.94255111]]]}, "geometry_name": "geom", "properties": {"guid": 79501, "id": 79501, "object_no": null, "object_name": null, "layer_type_id": 173, "valid_to": null, "address_no": null, "border_type": "solid", "border_width": 0, "border_color": null, "border_opacity": null, "border_wellknown": null, "fill_type": "color", "fill_color": "#fbf6d9", "fill_opacity": 0.8, "fill_wellknown": null, "fill_shape_color": null, "fill_shape_width": null, "fill_shape_size": null, "fill_img_url": null, "marker_img_url": null}},{"type": "Feature", "id": "layer_data_map.fid--27e80436_1a098c1eed1_-5422", "geometry": {"type": "Polygon", "coordinates": [[[106.98710858, 47.95305174], [106.99793197, 47.95836932], [106.99161726, 47.9647647], [106.98680066, 47.9620816], [106.98586349, 47.96293271], [106.97959682, 47.95877719], [106.9805177, 47.95793733], [106.97693895, 47.95389086], [106.98710858, 47.95305174]]]}, "geometry_name": "geom", "properties": {"guid": 79502, "id": 79502, "object_no": null, "object_name": null, "layer_type_id": 173, "valid_to": null, "address_no": null, "border_type": "solid", "border_width": 0, "border_color": null, "border_opacity": null, "border_wellknown": null, "fill_type": "color", "fill_color": "#fbf6d9", "fill_opacity": 0.8, "fill_wellknown": null, "fill_shape_color": null, "fill_shape_width": null, "fill_shape_size": null, "fill_img_url": null, "marker_img_url": null}}]}