{"type":"FeatureCollection","features":[{"type": "Feature", "id": "layer_data_map.fid--27e80436_1a098b908f8_-3a03", "geometry": {"type": "Point", "coordinates": [106.81885577, 47.91398783]}, "geometry_name": "geom", "properties": {"guid": 5312, "id": 5312, "object_no": null, "object_name": null, "layer_type_id": 215, "valid_to": null, "address_no": null, "border_type": "solid", "border_width": null, "border_color": "#cc0000", "border_opacity": null, "border_wellknown": "horizline", "fill_type": "color", "fill_color": "#ea9999", "fill_opacity": 1, "fill_wellknown": "horizline", "fill_shape_color": null, "fill_shape_width": null, "fill_shape_size": null, "fill_img_url": null, "marker_img_url": null}},{"type": "Feature", "id": "layer_data_map.fid--27e80436_1a098b908f8_-3a02", "geometry": {"type": "Point", "coordinates": [106.92292223, 47.91521937]}, "geometry_name": "geom", "properties": {"guid": 5313, "id": 5313, "object_no": null, "object_name": null, "layer_type_id": 215, "valid_to": null, "address_no": null, "border_type": "solid", "border_width": null, "border_color": "#cc0000", "border_opacity": null, "border_wellknown": "horizline", "fill_type": "color", "fill_color": "#ea9999", "fill_opacity": 1, "fill_wellknown": "horizline", "fill_shape_color": null, "fill_shape_width": null, "fill_shape_size": null, "fill_img_url": null, "marker_img_url": null}},{"type": "Feature", "id": "layer_data_map.fid--27e80436_1a098b908f8_-3a01", "geometry": {"type": "Point", "coordinates": [106.85936787, 47.91633783]}, "geometry_name": "geom", "properties": {"guid": 5314, "id": 5314, "object_no": null, "object_name": null, "layer_type_id": 215, "valid_to": null, "address_no": null, "border_type": "solid", "border_width": null, "border_color": "#cc0000", "border_opacity": null, "border_wellknown": "horizline", "fill_type": "color", "fill_color": "#ea9999", "fill_opacity": 1, "fill_wellknown": "horizline", "fill_shape_color": null, "fill_shape_width": null, "fill_shape_size": null, "fill_img_url": null, "marker_img_url": null}},{"type": "Feature", "id": "layer_data_map.fid--27e80436_1a098b908f8_-3a00", "geometry": {"type": "Point", "coordinates": [106.87563356, 47.91263252]}, "geometry_name": "geom", "properties": {"guid": 5315, "id": 5315, "object_no": null, "object_name": null, "layer_type_id": 215, "valid_to": null, "address_no": null, "border_type": "solid", "border_width": null, "border_color": "#cc0000", "border_opacity": null, "border_wellknown": "horizline", "fill_type": "color", "fill_color": "#ea9999", "fill_opacity": 1, "fill_wellknown": "horizline", "fill_shape_color": null, "fill_shape_width": null, "fill_shape_size": null, "fill_img_url": null, "marker_img_url": null}},{"type": "Feature", "id": "layer_data_map.fid--27e80436_1a098b908f8_-39ff", "geometry": {"type": "Point", "coordinates": [106.88408254, 47.91565745]}, "geometry_name": "geom", "properties": {"guid": 5316, "id": 5316, "object_no": null, "object_name": null, "layer_type_id": 215, "valid_to": null, "address_no": null, "border_type": "solid", "border_width": null, "border_color": "#cc0000", "border_opacity": null, "border_wellknown": "horizline", "fill_type": "color", "fill_color": "#ea9999", "fill_opacity": 1, "fill_wellknown": "horizline", "fill_shape_color": null, "fill_shape_width": null, "fill_shape_size": null, "fill_img_url": null, "marker_img_url": null}},{"type": "Feature", "id": "layer_data_map.fid--27e80436_1a098b908f8_-39fe", "geometry": {"type": "Point", "coordinates": [106.89035078, 47.91691138]}, "geometry_name": "geom", "properties": {"guid": 5317, "id": 5317, "object_no": null, "object_name": null, "layer_type_id": 215, "valid_to": null, "address_no": null, "border_type": "solid", "border_width": null, "border_color": "#cc0000", "border_opacity": null, "border_wellknown": "horizline", "fill_type": "color", "fill_color": "#ea9999", "fill_opacity": 1, "fill_wellknown": "horizline", "fill_shape_color": null, "fill_shape_width": null, "fill_shape_size": null, "fill_img_url": null, "marker_img_url": null}},{"type": "Feature", "id": "layer_data_map.fid--27e80436_1a098b908f8_-39fd", "geometry": {"type": "Point", "coordinates": [106.88989778, 47.91655555]}, "geometry_name": "geom", "properties": {"guid": 5318, "id": 5318, "object_no": null, "object_name": null, "layer_type_id": 215, "valid_to": null, "address_no": null, "border_type": "solid", "border_width": null, "border_color": "#cc0000", "border_opacity": null, "border_wellknown": "horizline", "fill_type": "color", "fill_color": "#ea9999", "fill_opacity": 1, "fill_wellknown": "horizline", "fill_shape_color": null, "fill_shape_width": null, "fill_shape_size": null, "fill_img_url": null, "marker_img_url": null}},{"type": "Feature", "id": "layer_data_map.fid--27e80436_1a098b908f8_-39fc", "geometry": {"type": "Point", "coordinates": [106.88954499, 47.91700493]}, "geometry_name": "geom", "properties": {"guid": 5319, "id": 5319, "object_no": null, "object_name": null, "layer_type_id": 215, "valid_to": null, "address_no": null, "border_type": "solid", "border_width": null, "border_color": "#cc0000", "border_opacity": null, "border_wellknown": "horizline", "fill_type": "color", "fill_color": "#ea9999", "fill_opacity": 1, "fill_wellknown": "horizline", "fill_shape_color": null, "fill_shape_width": null, "fill_shape_size": null, "fill_img_url": null, "marker_img_url": null}},{"type": "Feature", "id": "layer_data_map.fid--27e80436_1a098b908f8_-39fb", "geometry": {"type": "Point", "coordinates": [106.89388492, 47.91559384]}, "geometry_name": "geom", "properties": {"guid": 5320, "id": 5320, "object_no": null, "object_name": null, "layer_type_id": 215, "valid_to": null, "address_no": null, "border_type": "solid", "border_width": null, "border_color": "#cc0000", "border_opacity": null, "border_wellknown": "horizline", "fill_type": "color", "fill_color": "#ea9999", "fill_opacity": 1, "fill_wellknown": "horizline", "fill_shape_color": null, "fill_shape_width": null, "fill_shape_size": null, "fill_img_url": null, "marker_img_url": null}},{"type": "Feature", "id": "layer_data_map.fid--27e80436_1a098b908f8_-39fa", "geometry": {"type": "Point", "coordinates": [106.91384949, 47.89567329]}, "geometry_name": "geom", "properties": {"guid": 5321, "id": 5321, "object_no": null, "object_name": null, "layer_type_id": 215, "valid_to": null, "address_no": null, "border_type": "solid", "border_width": null, "border_color": "#cc0000", "border_opacity": null, "border_wellknown": "horizline", "fill_type": "color", "fill_color": "#ea9999", "fill_opacity": 1, "fill_wellknown": "horizline", "fill_shape_color": null, "fill_shape_width": null, "fill_shape_size": null, "fill_img_url": null, "marker_img_url": null}},{"type": "Feature", "id": "layer_data_map.fid--27e80436_1a098b908f8_-39f9", "geometry": {"type": "Point", "coordinates": [106.92043038, 47.92362032]}, "geometry_name": "geom", "properties": {"guid": 5322, "id": 5322, "object_no": null, "object_name": null, "layer_type_id": 215, "valid_to": null, "address_no": null, "border_type": "solid", "border_width": null, "border_color": "#cc0000", "border_opacity": null, "border_wellknown": "horizline", "fill_type": "color", "fill_color": "#ea9999", "fill_opacity": 1, "fill_wellknown": "horizline", "fill_shape_color": null, "fill_shape_width": null, "fill_shape_size": null, "fill_img_url": null, "marker_img_url": null}},{"type": "Feature", "id": "layer_data_map.fid--27e80436_1a098b908f8_-39f8", "geometry": {"type": "Point", "coordinates": [106.92295834, 47.9197657]}, "geometry_name": "geom", "properties": {"guid": 5323, "id": 5323, "object_no": null, "object_name": null, "layer_type_id": 215, "valid_to": null, "address_no": null, "border_type": "solid", "border_width": null, "border_color": "#cc0000", "border_opacity": null, "border_wellknown": "horizline", "fill_type": "color", "fill_color": "#ea9999", "fill_opacity": 1, "fill_wellknown": "horizline", "fill_shape_color": null, "fill_shape_width": null, "fill_shape_size": null, "fill_img_url": null, "marker_img_url": null}},{"type": "Feature", "id": "layer_data_map.fid--27e80436_1a098b908f8_-39f7", "geometry": {"type": "Point", "coordinates": [106.90650415, 47.92136021]}, "geometry_name": "geom", "properties": {"guid": 5324, "id": 5324, "object_no": null, "object_name": null, "layer_type_id": 215, "valid_to": null, "address_no": null, "border_type": "solid", "border_width": null, "border_color": "#cc0000", "border_opacity": null, "border_wellknown": "horizline", "fill_type": "color", "fill_color": "#ea9999", "fill_opacity": 1, "fill_wellknown": "horizline", "fill_shape_color": null, "fill_shape_width": null, "fill_shape_size": null, "fill_img_url": null, "marker_img_url": null}},{"type": "Feature", "id": "layer_data_map.fid--27e80436_1a098b908f8_-39f6", "geometry": {"type": "Point", "coordinates": [106.9189308, 47.92266419]}, "geometry_name": "geom", "properties": {"guid": 5325, "id": 5325, "object_no": null, "object_name": null, "layer_type_id": 215, "valid_to": null, "address_no": null, "border_type": "solid", "border_width": null, "border_color": "#cc0000", "border_opacity": null, "border_wellknown": "horizline", "fill_type": "color", "fill_color": "#ea9999", "fill_opacity": 1, "fill_wellknown": "horizline", "fill_shape_color": null, "fill_shape_width": null, "fill_shape_size": null, "fill_img_url": null, "marker_img_url": null}},{"type": "Feature", "id": "layer_data_map.fid--27e80436_1a098b908f8_-39f5", "geometry": {"type": "Point", "coordinates": [106.91953886, 47.92195581]}, "geometry_name": "geom", "properties": {"guid": 5326, "id": 5326, "object_no": null, "object_name": null, "layer_type_id": 215, "valid_to": null, "address_no": null, "border_type": "solid", "border_width": null, "border_color": "#cc0000", "border_opacity": null, "border_wellknown": "horizline", "fill_type": "color", "fill_color": "#ea9999", "fill_opacity": 1, "fill_wellknown": "horizline", "fill_shape_color": null, "fill_shape_width": null, "fill_shape_size": null, "fill_img_url": null, "marker_img_url": null}},{"type": "Feature", "id": "layer_data_map.fid--27e80436_1a098b908f8_-39f4", "geometry": {"type": "Point", "coordinates": [106.9235291, 47.92209896]}, "geometry_name": "geom", "properties": {"guid": 5327, "id": 5327, "object_no": null, "object_name": null, "layer_type_id": 215, "valid_to": null, "address_no": null, "border_type": "solid", "border_width": null, "border_color": "#cc0000", "border_opacity": null, "border_wellknown": "horizline", "fill_type": "color", "fill_color": "#ea9999", "fill_opacity": 1, "fill_wellknown": "horizline", "fill_shape_color": null, "fill_shape_width": null, "fill_shape_size": null, "fill_img_url": null, "marker_img_url": null}},{"type": "Feature", "id": "layer_data_map.fid--27e80436_1a098b908f8_-39f3", "geometry": {"type": "Point", "coordinates": [106.9251736, 47.92036744]}, "geometry_name": "geom", "properties": {"guid": 5328, "id": 5328, "object_no": null, "object_name": null, "layer_type_id": 215, "valid_to": null, "address_no": null, "border_type": "solid", "border_width": null, "border_color": "#cc0000", "border_opacity": null, "border_wellknown": "horizline", "fill_type": "color", "fill_color": "#ea9999", "fill_opacity": 1, "fill_wellknown": "horizline", "fill_shape_color": null, "fill_shape_width": null, "fill_shape_size": null, "fill_img_url": null, "marker_img_url": null}},{"type": "Feature", "id": "layer_data_map.fid--27e80436_1a098b908f8_-39f2", "geometry": {"type": "Point", "coordinates": [106.92846698, 47.91858471]}, "geometry_name": "geom", "properties": {"guid": 5329, "id": 5329, "object_no": null, "object_name": null, "layer_type_id": 215, "valid_to": null, "address_no": null, "border_type": "solid", "border_width": null, "border_color": "#cc0000", "border_opacity": null, "border_wellknown": "horizline", "fill_type": "color", "fill_color": "#ea9999", "fill_opacity": 1, "fill_wellknown": "horizline", "fill_shape_color": null, "fill_shape_width": null, "fill_shape_size": null, "fill_img_url": null, "marker_img_url": null}},{"type": "Feature", "id": "layer_data_map.fid--27e80436_1a098b908f8_-39f1", "geometry": {"type": "Point", "coordinates": [106.92853032, 47.91859928]}, "geometry_name": "geom", "properties": {"guid": 5330, "id": 5330, "object_no": null, "object_name": null, "layer_type_id": 215, "valid_to": null, "address_no": null, "border_type": "solid", "border_width": null, "border_color": "#cc0000", "border_opacity": null, "border_wellknown": "horizline", "fill_type": "color", "fill_color": "#ea9999", "fill_opacity": 1, "fill_wellknown": "horizline", "fill_shape_color": null, "fill_shape_width": null, "fill_shape_size": null, "fill_img_url": null, "marker_img_url": null}},{"type": "Feature", "id": "layer_data_map.fid--27e80436_1a098b908f8_-39f0", "geometry": {"type": "Point", "coordinates": [106.99015679, 47.92311721]}, "geometry_name": "geom", "properties": {"guid": 5331, "id": 5331, "object_no": null, "object_name": null, "layer_type_id": 215, "valid_to": null, "address_no": null, "border_type": "solid", "border_width": null, "border_color": "#cc0000", "border_opacity": null, "border_wellknown": "horizline", "fill_type": "color", "fill_color": "#ea9999", "fill_opacity": 1, "fill_wellknown": "horizline", "fill_shape_color": null, "fill_shape_width": null, "fill_shape_size": null, "fill_img_url": null, "marker_img_url": null}},{"type": "Feature", "id": "layer_data_map.fid--27e80436_1a098b908f8_-39ef", "geometry": {"type": "Point", "coordinates": [106.92120796, 47.92332259]}, "geometry_name": "geom", "properties": {"guid": 5332, "id": 5332, "object_no": null, "object_name": null, "layer_type_id": 215, "valid_to": null, "address_no": null, "border_type": "solid", "border_width": null, "border_color": "#cc0000", "border_opacity": null, "border_wellknown": "horizline", "fill_type": "color", "fill_color": "#ea9999", "fill_opacity": 1, "fill_wellknown": "horizline", "fill_shape_color": null, "fill_shape_width": null, "fill_shape_size": null, "fill_img_url": null, "marker_img_url": null}},{"type": "Feature", "id": "layer_data_map.fid--27e80436_1a098b908f8_-39ee", "geometry": {"type": "Point", "coordinates": [106.92186237, 47.92553042]}, "geometry_name": "geom", "properties": {"guid": 5333, "id": 5333, "object_no": null, "object_name": null, "layer_type_id": 215, "valid_to": null, "address_no": null, "border_type": "solid", "border_width": null, "border_color": "#cc0000", "border_opacity": null, "border_wellknown": "horizline", "fill_type": "color", "fill_color": "#ea9999", "fill_opacity": 1, "fill_wellknown": "horizline", "fill_shape_color": null, "fill_shape_width": null, "fill_shape_size": null, "fill_img_url": null, "marker_img_url": null}},{"type": "Feature", "id": "layer_data_map.fid--27e80436_1a098b908f8_-39ed", "geometry": {"type": "Point", "coordinates": [106.91354641, 47.92616154]}, "geometry_name": "geom", "properties": {"guid": 5334, "id": 5334, "object_no": null, "object_name": null, "layer_type_id": 215, "valid_to": null, "address_no": null, "border_type": "solid", "border_width": null, "border_color": "#cc0000", "border_opacity": null, "border_wellknown": "horizline", "fill_type": "color", "fill_color": "#ea9999", "fill_opacity": 1, "fill_wellknown": "horizline", "fill_shape_color": null, "fill_shape_width": null, "fill_shape_size": null, "fill_img_url": null, "marker_img_url": null}},{"type": "Feature", "id": "layer_data_map.fid--27e80436_1a098b908f8_-39ec", "geometry": {"type": "Point", "coordinates": [106.92504069, 47.92173177]}, "geometry_name": "geom", "properties": {"guid": 5335, "id": 5335, "object_no": null, "object_name": null, "layer_type_id": 215, "valid_to": null, "address_no": null, "border_type": "solid", "border_width": null, "border_color": "#cc0000", "border_opacity": null, "border_wellknown": "horizline", "fill_type": "color", "fill_color": "#ea9999", "fill_opacity": 1, "fill_wellknown": "horizline", "fill_shape_color": null, "fill_shape_width": null, "fill_shape_size": null, "fill_img_url": null, "marker_img_url": null}},{"type": "Feature", "id": "layer_data_map.fid--27e80436_1a098b908f8_-39eb", "geometry": {"type": "Point", "coordinates": [106.9251453, 47.92159194]}, "geometry_name": "geom", "properties": {"guid": 5336, "id": 5336, "object_no": null, "object_name": null, "layer_type_id": 215, "valid_to": null, "address_no": null, "border_type": "solid", "border_width": null, "border_color": "#cc0000", "border_opacity": null, "border_wellknown": "horizline", "fill_type": "color", "fill_color": "#ea9999", "fill_opacity": 1, "fill_wellknown": "horizline", "fill_shape_color": null, "fill_shape_width": null, "fill_shape_size": null, "fill_img_url": null, "marker_img_url": null}},{"type": "Feature", "id": "layer_data_map.fid--27e80436_1a098b908f8_-39ea", "geometry": {"type": "Point", "coordinates": [106.92854423, 47.91977325]}, "geometry_name": "geom", "properties": {"guid": 5337, "id": 5337, "object_no": null, "object_name": null, "layer_type_id": 215, "valid_to": null, "address_no": null, "border_type": "solid", "border_width": null, "border_color": "#cc0000", "border_opacity": null, "border_wellknown": "horizline", "fill_type": "color", "fill_color": "#ea9999", "fill_opacity": 1, "fill_wellknown": "horizline", "fill_shape_color": null, "fill_shape_width": null, "fill_shape_size": null, "fill_img_url": null, "marker_img_url": null}},{"type": "Feature", "id": "layer_data_map.fid--27e80436_1a098b908f8_-39e9", "geometry": {"type": "Point", "coordinates": [106.92440144, 47.91834329]}, "geometry_name": "geom", "properties": {"guid": 5338, "id": 5338, "object_no": null, "object_name": null, "layer_type_id": 215, "valid_to": null, "address_no": null, "border_type": "solid", "border_width": null, "border_color": "#cc0000", "border_opacity": null, "border_wellknown": "horizline", "fill_type": "color", "fill_color": "#ea9999", "fill_opacity": 1, "fill_wellknown": "horizline", "fill_shape_color": null, "fill_shape_width": null, "fill_shape_size": null, "fill_img_url": null, "marker_img_url": null}},{"type": "Feature", "id": "layer_data_map.fid--27e80436_1a098b908f8_-39e8", "geometry": {"type": "Point", "coordinates": [106.93076283, 47.91876531]}, "geometry_name": "geom", "properties": {"guid": 5339, "id": 5339, "object_no": null, "object_name": null, "layer_type_id": 215, "valid_to": null, "address_no": null, "border_type": "solid", "border_width": null, "border_color": "#cc0000", "border_opacity": null, "border_wellknown": "horizline", "fill_type": "color", "fill_color": "#ea9999", "fill_opacity": 1, "fill_wellknown": "horizline", "fill_shape_color": null, "fill_shape_width": null, "fill_shape_size": null, "fill_img_url": null, "marker_img_url": null}},{"type": "Feature", "id": "layer_data_map.fid--27e80436_1a098b908f8_-39e7", "geometry": {"type": "Point", "coordinates": [106.93993073, 47.92364927]}, "geometry_name": "geom", "properties": {"guid": 5340, "id": 5340, "object_no": null, "object_name": null, "layer_type_id": 215, "valid_to": null, "address_no": null, "border_type": "solid", "border_width": null, "border_color": "#cc0000", "border_opacity": null, "border_wellknown": "horizline", "fill_type": "color", "fill_color": "#ea9999", "fill_opacity": 1, "fill_wellknown": "horizline", "fill_shape_color": null, "fill_shape_width": null, "fill_shape_size": null, "fill_img_url": null, "marker_img_url": null}},{"type": "Feature", "id": "layer_data_map.fid--27e80436_1a098b908f8_-39e6", "geometry": {"type": "Point", "coordinates": [106.94145263, 47.91942957]}, "geometry_name": "geom", "properties": {"guid": 5341, "id": 5341, "object_no": null, "object_name": null, "layer_type_id": 215, "valid_to": null, "address_no": null, "border_type": "solid", "border_width": null, "border_color": "#cc0000", "border_opacity": null, "border_wellknown": "horizline", "fill_type": "color", "fill_color": "#ea9999", "fill_opacity": 1, "fill_wellknown": "horizline", "fill_shape_color": null, "fill_shape_width": null, "fill_shape_size": null, "fill_img_url": null, "marker_img_url": null}},{"type": "Feature", "id": "layer_data_map.fid--27e80436_1a098b908f8_-39e5", "geometry": {"type": "Point", "coordinates": [106.96634945, 47.91605871]}, "geometry_name": "geom", "properties": {"guid": 5342, "id": 5342, "object_no": null, "object_name": null, "layer_type_id": 215, "valid_to": null, "address_no": null, "border_type": "solid", "border_width": null, "border_color": "#cc0000", "border_opacity": null, "border_wellknown": "horizline", "fill_type": "color", "fill_color": "#ea9999", "fill_opacity": 1, "fill_wellknown": "horizline", "fill_shape_color": null, "fill_shape_width": null, "fill_shape_size": null, "fill_img_url": null, "marker_img_url": null}},{"type": "Feature", "id": "layer_data_map.fid--27e80436_1a098b908f8_-39e4", "geometry": {"type": "Point", "coordinates": [106.9667831, 47.91605066]}, "geometry_name": "geom", "properties": {"guid": 5343, "id": 5343, "object_no": null, "object_name": null, "layer_type_id": 215, "valid_to": null, "address_no": null, "border_type": "solid", "border_width": null, "border_color": "#cc0000", "border_opacity": null, "border_wellknown": "horizline", "fill_type": "color", "fill_color": "#ea9999", "fill_opacity": 1, "fill_wellknown": "horizline", "fill_shape_color": null, "fill_shape_width": null, "fill_shape_size": null, "fill_img_url": null, "marker_img_url": null}},{"type": "Feature", "id": "layer_data_map.fid--27e80436_1a098b908f8_-39e3", "geometry": {"type": "Point", "coordinates": [106.88836026, 47.91183473]}, "geometry_name": "geom", "properties": {"guid": 5344, "id": 5344, "object_no": null, "object_name": null, "layer_type_id": 215, "valid_to": null, "address_no": null, "border_type": "solid", "border_width": null, "border_color": "#cc0000", "border_opacity": null, "border_wellknown": "horizline", "fill_type": "color", "fill_color": "#ea9999", "fill_opacity": 1, "fill_wellknown": "horizline", "fill_shape_color": null, "fill_shape_width": null, "fill_shape_size": null, "fill_img_url": null, "marker_img_url": null}},{"type": "Feature", "id": "layer_data_map.fid--27e80436_1a098b908f8_-39e2", "geometry": {"type": "Point", "coordinates": [106.94124631, 47.92068986]}, "geometry_name": "geom", "properties": {"guid": 5345, "id": 5345, "object_no": null, "object_name": null, "layer_type_id": 215, "valid_to": null, "address_no": null, "border_type": "solid", "border_width": null, "border_color": "#cc0000", "border_opacity": null, "border_wellknown": "horizline", "fill_type": "color", "fill_color": "#ea9999", "fill_opacity": 1, "fill_wellknown": "horizline", "fill_shape_color": null, "fill_shape_width": null, "fill_shape_size": null, "fill_img_url": null, "marker_img_url": null}},{"type": "Feature", "id": "layer_data_map.fid--27e80436_1a098b908f8_-39e1", "geometry": {"type": "Point", "coordinates": [106.97231944, 47.91457395]}, "geometry_name": "geom", "properties": {"guid": 5346, "id": 5346, "object_no": null, "object_name": null, "layer_type_id": 215, "valid_to": null, "address_no": null, "border_type": "solid", "border_width": null, "border_color": "#cc0000", "border_opacity": null, "border_wellknown": "horizline", "fill_type": "color", "fill_color": "#ea9999", "fill_opacity": 1, "fill_wellknown": "horizline", "fill_shape_color": null, "fill_shape_width": null, "fill_shape_size": null, "fill_img_url": null, "marker_img_url": null}},{"type": "Feature", "id": "layer_data_map.fid--27e80436_1a098b908f8_-39e0", "geometry": {"type": "Point", "coordinates": [106.97272064, 47.91416444]}, "geometry_name": "geom", "properties": {"guid": 5347, "id": 5347, "object_no": null, "object_name": null, "layer_type_id": 215, "valid_to": null, "address_no": null, "border_type": "solid", "border_width": null, "border_color": "#cc0000", "border_opacity": null, "border_wellknown": "horizline", "fill_type": "color", "fill_color": "#ea9999", "fill_opacity": 1, "fill_wellknown": "horizline", "fill_shape_color": null, "fill_shape_width": null, "fill_shape_size": null, "fill_img_url": null, "marker_img_url": null}},{"type": "Feature", "id": "layer_data_map.fid--27e80436_1a098b908f8_-39df", "geometry": {"type": "Point", "coordinates": [106.98982966, 47.92296438]}, "geometry_name": "geom", "properties": {"guid": 5348, "id": 5348, "object_no": null, "object_name": null, "layer_type_id": 215, "valid_to": null, "address_no": null, "border_type": "solid", "border_width": null, "border_color": "#cc0000", "border_opacity": null, "border_wellknown": "horizline", "fill_type": "color", "fill_color": "#ea9999", "fill_opacity": 1, "fill_wellknown": "horizline", "fill_shape_color": null, "fill_shape_width": null, "fill_shape_size": null, "fill_img_url": null, "marker_img_url": null}},{"type": "Feature", "id": "layer_data_map.fid--27e80436_1a098b908f8_-39de", "geometry": {"type": "Point", "coordinates": [106.96150303, 47.91748981]}, "geometry_name": "geom", "properties": {"guid": 5349, "id": 5349, "object_no": null, "object_name": null, "layer_type_id": 215, "valid_to": null, "address_no": null, "border_type": "solid", "border_width": null, "border_color": "#cc0000", "border_opacity": null, "border_wellknown": "horizline", "fill_type": "color", "fill_color": "#ea9999", "fill_opacity": 1, "fill_wellknown": "horizline", "fill_shape_color": null, "fill_shape_width": null, "fill_shape_size": null, "fill_img_url": null, "marker_img_url": null}},{"type": "Feature", "id": "layer_data_map.fid--27e80436_1a098b908f8_-39dd", "geometry": {"type": "Point", "coordinates": [106.96171065, 47.91739405]}, "geometry_name": "geom", "properties": {"guid": 5350, "id": 5350, "object_no": null, "object_name": null, "layer_type_id": 215, "valid_to": null, "address_no": null, "border_type": "solid", "border_width": null, "border_color": "#cc0000", "border_opacity": null, "border_wellknown": "horizline", "fill_type": "color", "fill_color": "#ea9999", "fill_opacity": 1, "fill_wellknown": "horizline", "fill_shape_color": null, "fill_shape_width": null, "fill_shape_size": null, "fill_img_url": null, "marker_img_url": null}},{"type": "Feature", "id": "layer_data_map.fid--27e80436_1a098b908f8_-39dc", "geometry": {"type": "Point", "coordinates": [106.95581118, 47.91772601]}, "geometry_name": "geom", "properties": {"guid": 5351, "id": 5351, "object_no": null, "object_name": null, "layer_type_id": 215, "valid_to": null, "address_no": null, "border_type": "solid", "border_width": null, "border_color": "#cc0000", "border_opacity": null, "border_wellknown": "horizline", "fill_type": "color", "fill_color": "#ea9999", "fill_opacity": 1, "fill_wellknown": "horizline", "fill_shape_color": null, "fill_shape_width": null, "fill_shape_size": null, "fill_img_url": null, "marker_img_url": null}},{"type": "Feature", "id": "layer_data_map.fid--27e80436_1a098b908f8_-39db", "geometry": {"type": "Point", "coordinates": [106.95818135, 47.92058528]}, "geometry_name": "geom", "properties": {"guid": 5352, "id": 5352, "object_no": null, "object_name": null, "layer_type_id": 215, "valid_to": null, "address_no": null, "border_type": "solid", "border_width": null, "border_color": "#cc0000", "border_opacity": null, "border_wellknown": "horizline", "fill_type": "color", "fill_color": "#ea9999", "fill_opacity": 1, "fill_wellknown": "horizline", "fill_shape_color": null, "fill_shape_width": null, "fill_shape_size": null, "fill_img_url": null, "marker_img_url": null}},{"type": "Feature", "id": "layer_data_map.fid--27e80436_1a098b908f8_-39da", "geometry": {"type": "Point", "coordinates": [106.95413668, 47.92094327]}, "geometry_name": "geom", "properties": {"guid": 5353, "id": 5353, "object_no": null, "object_name": null, "layer_type_id": 215, "valid_to": null, "address_no": null, "border_type": "solid", "border_width": null, "border_color": "#cc0000", "border_opacity": null, "border_wellknown": "horizline", "fill_type": "color", "fill_color": "#ea9999", "fill_opacity": 1, "fill_wellknown": "horizline", "fill_shape_color": null, "fill_shape_width": null, "fill_shape_size": null, "fill_img_url": null, "marker_img_url": null}},{"type": "Feature", "id": "layer_data_map.fid--27e80436_1a098b908f8_-39d9", "geometry": {"type": "Point", "coordinates": [106.91159228, 47.88540983]}, "geometry_name": "geom", "properties": {"guid": 5354, "id": 5354, "object_no": null, "object_name": null, "layer_type_id": 215, "valid_to": null, "address_no": null, "border_type": "solid", "border_width": null, "border_color": "#cc0000", "border_opacity": null, "border_wellknown": "horizline", "fill_type": "color", "fill_color": "#ea9999", "fill_opacity": 1, "fill_wellknown": "horizline", "fill_shape_color": null, "fill_shape_width": null, "fill_shape_size": null, "fill_img_url": null, "marker_img_url": null}},{"type": "Feature", "id": "layer_data_map.fid--27e80436_1a098b908f8_-39d8", "geometry": {"type": "Point", "coordinates": [106.95318428, 47.92473706]}, "geometry_name": "geom", "properties": {"guid": 5355, "id": 5355, "object_no": null, "object_name": null, "layer_type_id": 215, "valid_to": null, "address_no": null, "border_type": "solid", "border_width": null, "border_color": "#cc0000", "border_opacity": null, "border_wellknown": "horizline", "fill_type": "color", "fill_color": "#ea9999", "fill_opacity": 1, "fill_wellknown": "horizline", "fill_shape_color": null, "fill_shape_width": null, "fill_shape_size": null, "fill_img_url": null, "marker_img_url": null}},{"type": "Feature", "id": "layer_data_map.fid--27e80436_1a098b908f8_-39d7", "geometry": {"type": "Point", "coordinates": [106.91732118, 47.92380771]}, "geometry_name": "geom", "properties": {"guid": 5356, "id": 5356, "object_no": null, "object_name": null, "layer_type_id": 215, "valid_to": null, "address_no": null, "border_type": "solid", "border_width": null, "border_color": "#cc0000", "border_opacity": null, "border_wellknown": "horizline", "fill_type": "color", "fill_color": "#ea9999", "fill_opacity": 1, "fill_wellknown": "horizline", "fill_shape_color": null, "fill_shape_width": null, "fill_shape_size": null, "fill_img_url": null, "marker_img_url": null}},{"type": "Feature", "id": "layer_data_map.fid--27e80436_1a098b908f8_-39d6", "geometry": {"type": "Point", "coordinates": [106.91400244, 47.92627902]}, "geometry_name": "geom", "properties": {"guid": 5357, "id": 5357, "object_no": null, "object_name": null, "layer_type_id": 215, "valid_to": null, "address_no": null, "border_type": "solid", "border_width": null, "border_color": "#cc0000", "border_opacity": null, "border_wellknown": "horizline", "fill_type": "color", "fill_color": "#ea9999", "fill_opacity": 1, "fill_wellknown": "horizline", "fill_shape_color": null, "fill_shape_width": null, "fill_shape_size": null, "fill_img_url": null, "marker_img_url": null}},{"type": "Feature", "id": "layer_data_map.fid--27e80436_1a098b908f8_-39d5", "geometry": {"type": "Point", "coordinates": [106.89139461, 47.92547613]}, "geometry_name": "geom", "properties": {"guid": 5358, "id": 5358, "object_no": null, "object_name": null, "layer_type_id": 215, "valid_to": null, "address_no": null, "border_type": "solid", "border_width": null, "border_color": "#cc0000", "border_opacity": null, "border_wellknown": "horizline", "fill_type": "color", "fill_color": "#ea9999", "fill_opacity": 1, "fill_wellknown": "horizline", "fill_shape_color": null, "fill_shape_width": null, "fill_shape_size": null, "fill_img_url": null, "marker_img_url": null}},{"type": "Feature", "id": "layer_data_map.fid--27e80436_1a098b908f8_-39d4", "geometry": {"type": "Point", "coordinates": [106.88959852, 47.928929]}, "geometry_name": "geom", "properties": {"guid": 5359, "id": 5359, "object_no": null, "object_name": null, "layer_type_id": 215, "valid_to": null, "address_no": null, "border_type": "solid", "border_width": null, "border_color": "#cc0000", "border_opacity": null, "border_wellknown": "horizline", "fill_type": "color", "fill_color": "#ea9999", "fill_opacity": 1, "fill_wellknown": "horizline", "fill_shape_color": null, "fill_shape_width": null, "fill_shape_size": null, "fill_img_url": null, "marker_img_url": null}},{"type": "Feature", "id": "layer_data_map.fid--27e80436_1a098b908f8_-39d3", "geometry": {"type": "Point", "coordinates": [106.88981031, 47.92113997]}, "geometry_name": "geom", "properties": {"guid": 5360, "id": 5360, "object_no": null, "object_name": null, "layer_type_id": 215, "valid_to": null, "address_no": null, "border_type": "solid", "border_width": null, "border_color": "#cc0000", "border_opacity": null, "border_wellknown": "horizline", "fill_type": "color", "fill_color": "#ea9999", "fill_opacity": 1, "fill_wellknown": "horizline", "fill_shape_color": null, "fill_shape_width": null, "fill_shape_size": null, "fill_img_url": null, "marker_img_url": null}},{"type": "Feature", "id": "layer_data_map.fid--27e80436_1a098b908f8_-39d2", "geometry": {"type": "Point", "coordinates": [106.92203566, 47.91505152]}, "geometry_name": "geom", "properties": {"guid": 5361, "id": 5361, "object_no": null, "object_name": null, "layer_type_id": 215, "valid_to": null, "address_no": null, "border_type": "solid", "border_width": null, "border_color": "#cc0000", "border_opacity": null, "border_wellknown": "horizline", "fill_type": "color", "fill_color": "#ea9999", "fill_opacity": 1, "fill_wellknown": "horizline", "fill_shape_color": null, "fill_shape_width": null, "fill_shape_size": null, "fill_img_url": null, "marker_img_url": null}},{"type": "Feature", "id": "layer_data_map.fid--27e80436_1a098b908f8_-39d1", "geometry": {"type": "Point", "coordinates": [106.89529455, 47.89752326]}, "geometry_name": "geom", "properties": {"guid": 5362, "id": 5362, "object_no": null, "object_name": null, "layer_type_id": 215, "valid_to": null, "address_no": null, "border_type": "solid", "border_width": null, "border_color": "#cc0000", "border_opacity": null, "border_wellknown": "horizline", "fill_type": "color", "fill_color": "#ea9999", "fill_opacity": 1, "fill_wellknown": "horizline", "fill_shape_color": null, "fill_shape_width": null, "fill_shape_size": null, "fill_img_url": null, "marker_img_url": null}},{"type": "Feature", "id": "layer_data_map.fid--27e80436_1a098b908f8_-39d0", "geometry": {"type": "Point", "coordinates": [106.89108748, 47.89711528]}, "geometry_name": "geom", "properties": {"guid": 5363, "id": 5363, "object_no": null, "object_name": null, "layer_type_id": 215, "valid_to": null, "address_no": null, "border_type": "solid", "border_width": null, "border_color": "#cc0000", "border_opacity": null, "border_wellknown": "horizline", "fill_type": "color", "fill_color": "#ea9999", "fill_opacity": 1, "fill_wellknown": "horizline", "fill_shape_color": null, "fill_shape_width": null, "fill_shape_size": null, "fill_img_url": null, "marker_img_url": null}},{"type": "Feature", "id": "layer_data_map.fid--27e80436_1a098b908f8_-39cf", "geometry": {"type": "Point", "coordinates": [106.9095462, 47.88639896]}, "geometry_name": "geom", "properties": {"guid": 5364, "id": 5364, "object_no": null, "object_name": null, "layer_type_id": 215, "valid_to": null, "address_no": null, "border_type": "solid", "border_width": null, "border_color": "#cc0000", "border_opacity": null, "border_wellknown": "horizline", "fill_type": "color", "fill_color": "#ea9999", "fill_opacity": 1, "fill_wellknown": "horizline", "fill_shape_color": null, "fill_shape_width": null, "fill_shape_size": null, "fill_img_url": null, "marker_img_url": null}},{"type": "Feature", "id": "layer_data_map.fid--27e80436_1a098b908f8_-39ce", "geometry": {"type": "Point", "coordinates": [106.90293222, 47.92386388]}, "geometry_name": "geom", "properties": {"guid": 5365, "id": 5365, "object_no": null, "object_name": null, "layer_type_id": 215, "valid_to": null, "address_no": null, "border_type": "solid", "border_width": null, "border_color": "#cc0000", "border_opacity": null, "border_wellknown": "horizline", "fill_type": "color", "fill_color": "#ea9999", "fill_opacity": 1, "fill_wellknown": "horizline", "fill_shape_color": null, "fill_shape_width": null, "fill_shape_size": null, "fill_img_url": null, "marker_img_url": null}},{"type": "Feature", "id": "layer_data_map.fid--27e80436_1a098b908f8_-39cd", "geometry": {"type": "Point", "coordinates": [106.97282103, 47.91416953]}, "geometry_name": "geom", "properties": {"guid": 5366, "id": 5366, "object_no": null, "object_name": null, "layer_type_id": 215, "valid_to": null, "address_no": null, "border_type": "solid", "border_width": null, "border_color": "#cc0000", "border_opacity": null, "border_wellknown": "horizline", "fill_type": "color", "fill_color": "#ea9999", "fill_opacity": 1, "fill_wellknown": "horizline", "fill_shape_color": null, "fill_shape_width": null, "fill_shape_size": null, "fill_img_url": null, "marker_img_url": null}},{"type": "Feature", "id": "layer_data_map.fid--27e80436_1a098b908f8_-39cc", "geometry": {"type": "Point", "coordinates": [106.97293543, 47.91417276]}, "geometry_name": "geom", "properties": {"guid": 5367, "id": 5367, "object_no": null, "object_name": null, "layer_type_id": 215, "valid_to": null, "address_no": null, "border_type": "solid", "border_width": null, "border_color": "#cc0000", "border_opacity": null, "border_wellknown": "horizline", "fill_type": "color", "fill_color": "#ea9999", "fill_opacity": 1, "fill_wellknown": "horizline", "fill_shape_color": null, "fill_shape_width": null, "fill_shape_size": null, "fill_img_url": null, "marker_img_url": null}},{"type": "Feature", "id": "layer_data_map.fid--27e80436_1a098b908f8_-39cb", "geometry": {"type": "Point", "coordinates": [106.97258891, 47.91416063]}, "geometry_name": "geom", "properties": {"guid": 5368, "id": 5368, "object_no": null, "object_name": null, "layer_type_id": 215, "valid_to": null, "address_no": null, "border_type": "solid", "border_width": null, "border_color": "#cc0000", "border_opacity": null, "border_wellknown": "horizline", "fill_type": "color", "fill_color": "#ea9999", "fill_opacity": 1, "fill_wellknown": "horizline", "fill_shape_color": null, "fill_shape_width": null, "fill_shape_size": null, "fill_img_url": null, "marker_img_url": null}},{"type": "Feature", "id": "layer_data_map.fid--27e80436_1a098b908f8_-39ca", "geometry": {"type": "Point", "coordinates": [106.97273466, 47.9138846]}, "geometry_name": "geom", "properties": {"guid": 5369, "id": 5369, "object_no": null, "object_name": null, "layer_type_id": 215, "valid_to": null, "address_no": null, "border_type": "solid", "border_width": null, "border_color": "#cc0000", "border_opacity": null, "border_wellknown": "horizline", "fill_type": "color", "fill_color": "#ea9999", "fill_opacity": 1, "fill_wellknown": "horizline", "fill_shape_color": null, "fill_shape_width": null, "fill_shape_size": null, "fill_img_url": null, "marker_img_url": null}},{"type": "Feature", "id": "layer_data_map.fid--27e80436_1a098b908f8_-39c9", "geometry": {"type": "Point", "coordinates": [106.92911469, 47.92857293]}, "geometry_name": "geom", "properties": {"guid": 5370, "id": 5370, "object_no": null, "object_name": null, "layer_type_id": 215, "valid_to": null, "address_no": null, "border_type": "solid", "border_width": null, "border_color": "#cc0000", "border_opacity": null, "border_wellknown": "horizline", "fill_type": "color", "fill_color": "#ea9999", "fill_opacity": 1, "fill_wellknown": "horizline", "fill_shape_color": null, "fill_shape_width": null, "fill_shape_size": null, "fill_img_url": null, "marker_img_url": null}},{"type": "Feature", "id": "layer_data_map.fid--27e80436_1a098b908f8_-39c8", "geometry": {"type": "Point", "coordinates": [106.95966794, 47.91751508]}, "geometry_name": "geom", "properties": {"guid": 5371, "id": 5371, "object_no": null, "object_name": null, "layer_type_id": 215, "valid_to": null, "address_no": null, "border_type": "solid", "border_width": null, "border_color": "#cc0000", "border_opacity": null, "border_wellknown": "horizline", "fill_type": "color", "fill_color": "#ea9999", "fill_opacity": 1, "fill_wellknown": "horizline", "fill_shape_color": null, "fill_shape_width": null, "fill_shape_size": null, "fill_img_url": null, "marker_img_url": null}},{"type": "Feature", "id": "layer_data_map.fid--27e80436_1a098b908f8_-39c7", "geometry": {"type": "Point", "coordinates": [106.90254057, 47.91786447]}, "geometry_name": "geom", "properties": {"guid": 5372, "id": 5372, "object_no": null, "object_name": null, "layer_type_id": 215, "valid_to": null, "address_no": null, "border_type": "solid", "border_width": null, "border_color": "#cc0000", "border_opacity": null, "border_wellknown": "horizline", "fill_type": "color", "fill_color": "#ea9999", "fill_opacity": 1, "fill_wellknown": "horizline", "fill_shape_color": null, "fill_shape_width": null, "fill_shape_size": null, "fill_img_url": null, "marker_img_url": null}},{"type": "Feature", "id": "layer_data_map.fid--27e80436_1a098b908f8_-39c6", "geometry": {"type": "Point", "coordinates": [106.92760557, 47.91894093]}, "geometry_name": "geom", "properties": {"guid": 5373, "id": 5373, "object_no": null, "object_name": null, "layer_type_id": 215, "valid_to": null, "address_no": null, "border_type": "solid", "border_width": null, "border_color": "#cc0000", "border_opacity": null, "border_wellknown": "horizline", "fill_type": "color", "fill_color": "#ea9999", "fill_opacity": 1, "fill_wellknown": "horizline", "fill_shape_color": null, "fill_shape_width": null, "fill_shape_size": null, "fill_img_url": null, "marker_img_url": null}},{"type": "Feature", "id": "layer_data_map.fid--27e80436_1a098b908f8_-39c5", "geometry": {"type": "Point", "coordinates": [106.92744636, 47.92054082]}, "geometry_name": "geom", "properties": {"guid": 5374, "id": 5374, "object_no": null, "object_name": null, "layer_type_id": 215, "valid_to": null, "address_no": null, "border_type": "solid", "border_width": null, "border_color": "#cc0000", "border_opacity": null, "border_wellknown": "horizline", "fill_type": "color", "fill_color": "#ea9999", "fill_opacity": 1, "fill_wellknown": "horizline", "fill_shape_color": null, "fill_shape_width": null, "fill_shape_size": null, "fill_img_url": null, "marker_img_url": null}},{"type": "Feature", "id": "layer_data_map.fid--27e80436_1a098b908f8_-39c4", "geometry": {"type": "Point", "coordinates": [106.9205783, 47.92391782]}, "geometry_name": "geom", "properties": {"guid": 5375, "id": 5375, "object_no": null, "object_name": null, "layer_type_id": 215, "valid_to": null, "address_no": null, "border_type": "solid", "border_width": null, "border_color": "#cc0000", "border_opacity": null, "border_wellknown": "horizline", "fill_type": "color", "fill_color": "#ea9999", "fill_opacity": 1, "fill_wellknown": "horizline", "fill_shape_color": null, "fill_shape_width": null, "fill_shape_size": null, "fill_img_url": null, "marker_img_url": null}},{"type": "Feature", "id": "layer_data_map.fid--27e80436_1a098b908f8_-39c3", "geometry": {"type": "Point", "coordinates": [106.92764098, 47.91621882]}, "geometry_name": "geom", "properties": {"guid": 5376, "id": 5376, "object_no": null, "object_name": null, "layer_type_id": 215, "valid_to": null, "address_no": null, "border_type": "solid", "border_width": null, "border_color": "#cc0000", "border_opacity": null, "border_wellknown": "horizline", "fill_type": "color", "fill_color": "#ea9999", "fill_opacity": 1, "fill_wellknown": "horizline", "fill_shape_color": null, "fill_shape_width": null, "fill_shape_size": null, "fill_img_url": null, "marker_img_url": null}},{"type": "Feature", "id": "layer_data_map.fid--27e80436_1a098b908f8_-39c2", "geometry": {"type": "Point", "coordinates": [106.92699706, 47.91453606]}, "geometry_name": "geom", "properties": {"guid": 5377, "id": 5377, "object_no": null, "object_name": null, "layer_type_id": 215, "valid_to": null, "address_no": null, "border_type": "solid", "border_width": null, "border_color": "#cc0000", "border_opacity": null, "border_wellknown": "horizline", "fill_type": "color", "fill_color": "#ea9999", "fill_opacity": 1, "fill_wellknown": "horizline", "fill_shape_color": null, "fill_shape_width": null, "fill_shape_size": null, "fill_img_url": null, "marker_img_url": null}},{"type": "Feature", "id": "layer_data_map.fid--27e80436_1a098b908f8_-39c1", "geometry": {"type": "Point", "coordinates": [106.91800979, 47.91560364]}, "geometry_name": "geom", "properties": {"guid": 5378, "id": 5378, "object_no": null, "object_name": null, "layer_type_id": 215, "valid_to": null, "address_no": null, "border_type": "solid", "border_width": null, "border_color": "#cc0000", "border_opacity": null, "border_wellknown": "horizline", "fill_type": "color", "fill_color": "#ea9999", "fill_opacity": 1, "fill_wellknown": "horizline", "fill_shape_color": null, "fill_shape_width": null, "fill_shape_size": null, "fill_img_url": null, "marker_img_url": null}},{"type": "Feature", "id": "layer_data_map.fid--27e80436_1a098b908f8_-39c0", "geometry": {"type": "Point", "coordinates": [106.94166401, 47.91121613]}, "geometry_name": "geom", "properties": {"guid": 5379, "id": 5379, "object_no": null, "object_name": null, "layer_type_id": 215, "valid_to": null, "address_no": null, "border_type": "solid", "border_width": null, "border_color": "#cc0000", "border_opacity": null, "border_wellknown": "horizline", "fill_type": "color", "fill_color": "#ea9999", "fill_opacity": 1, "fill_wellknown": "horizline", "fill_shape_color": null, "fill_shape_width": null, "fill_shape_size": null, "fill_img_url": null, "marker_img_url": null}},{"type": "Feature", "id": "layer_data_map.fid--27e80436_1a098b908f8_-39bf", "geometry": {"type": "Point", "coordinates": [106.98463158, 47.92616785]}, "geometry_name": "geom", "properties": {"guid": 5380, "id": 5380, "object_no": null, "object_name": null, "layer_type_id": 215, "valid_to": null, "address_no": null, "border_type": "solid", "border_width": null, "border_color": "#cc0000", "border_opacity": null, "border_wellknown": "horizline", "fill_type": "color", "fill_color": "#ea9999", "fill_opacity": 1, "fill_wellknown": "horizline", "fill_shape_color": null, "fill_shape_width": null, "fill_shape_size": null, "fill_img_url": null, "marker_img_url": null}},{"type": "Feature", "id": "layer_data_map.fid--27e80436_1a098b908f8_-39be", "geometry": {"type": "Point", "coordinates": [106.92010707, 47.93042681]}, "geometry_name": "geom", "properties": {"guid": 5381, "id": 5381, "object_no": null, "object_name": null, "layer_type_id": 215, "valid_to": null, "address_no": null, "border_type": "solid", "border_width": null, "border_color": "#cc0000", "border_opacity": null, "border_wellknown": "horizline", "fill_type": "color", "fill_color": "#ea9999", "fill_opacity": 1, "fill_wellknown": "horizline", "fill_shape_color": null, "fill_shape_width": null, "fill_shape_size": null, "fill_img_url": null, "marker_img_url": null}},{"type": "Feature", "id": "layer_data_map.fid--27e80436_1a098b908f8_-39bd", "geometry": {"type": "Point", "coordinates": [106.93069858, 47.92560788]}, "geometry_name": "geom", "properties": {"guid": 5382, "id": 5382, "object_no": null, "object_name": null, "layer_type_id": 215, "valid_to": null, "address_no": null, "border_type": "solid", "border_width": null, "border_color": "#cc0000", "border_opacity": null, "border_wellknown": "horizline", "fill_type": "color", "fill_color": "#ea9999", "fill_opacity": 1, "fill_wellknown": "horizline", "fill_shape_color": null, "fill_shape_width": null, "fill_shape_size": null, "fill_img_url": null, "marker_img_url": null}},{"type": "Feature", "id": "layer_data_map.fid--27e80436_1a098b908f8_-39bc", "geometry": {"type": "Point", "coordinates": [106.94709983, 47.92608489]}, "geometry_name": "geom", "properties": {"guid": 5383, "id": 5383, "object_no": null, "object_name": null, "layer_type_id": 215, "valid_to": null, "address_no": null, "border_type": "solid", "border_width": null, "border_color": "#cc0000", "border_opacity": null, "border_wellknown": "horizline", "fill_type": "color", "fill_color": "#ea9999", "fill_opacity": 1, "fill_wellknown": "horizline", "fill_shape_color": null, "fill_shape_width": null, "fill_shape_size": null, "fill_img_url": null, "marker_img_url": null}},{"type": "Feature", "id": "layer_data_map.fid--27e80436_1a098b908f8_-39bb", "geometry": {"type": "Point", "coordinates": [106.91966741, 47.92883962]}, "geometry_name": "geom", "properties": {"guid": 5384, "id": 5384, "object_no": null, "object_name": null, "layer_type_id": 215, "valid_to": null, "address_no": null, "border_type": "solid", "border_width": null, "border_color": "#cc0000", "border_opacity": null, "border_wellknown": "horizline", "fill_type": "color", "fill_color": "#ea9999", "fill_opacity": 1, "fill_wellknown": "horizline", "fill_shape_color": null, "fill_shape_width": null, "fill_shape_size": null, "fill_img_url": null, "marker_img_url": null}},{"type": "Feature", "id": "layer_data_map.fid--27e80436_1a098b908f8_-39ba", "geometry": {"type": "Point", "coordinates": [106.89050367, 47.91639256]}, "geometry_name": "geom", "properties": {"guid": 5385, "id": 5385, "object_no": null, "object_name": null, "layer_type_id": 215, "valid_to": null, "address_no": null, "border_type": "solid", "border_width": null, "border_color": "#cc0000", "border_opacity": null, "border_wellknown": "horizline", "fill_type": "color", "fill_color": "#ea9999", "fill_opacity": 1, "fill_wellknown": "horizline", "fill_shape_color": null, "fill_shape_width": null, "fill_shape_size": null, "fill_img_url": null, "marker_img_url": null}},{"type": "Feature", "id": "layer_data_map.fid--27e80436_1a098b908f8_-39b9", "geometry": {"type": "Point", "coordinates": [106.87824218, 47.9207656]}, "geometry_name": "geom", "properties": {"guid": 5386, "id": 5386, "object_no": null, "object_name": null, "layer_type_id": 215, "valid_to": null, "address_no": null, "border_type": "solid", "border_width": null, "border_color": "#cc0000", "border_opacity": null, "border_wellknown": "horizline", "fill_type": "color", "fill_color": "#ea9999", "fill_opacity": 1, "fill_wellknown": "horizline", "fill_shape_color": null, "fill_shape_width": null, "fill_shape_size": null, "fill_img_url": null, "marker_img_url": null}},{"type": "Feature", "id": "layer_data_map.fid--27e80436_1a098b908f8_-39b8", "geometry": {"type": "Point", "coordinates": [106.90194481, 47.92114243]}, "geometry_name": "geom", "properties": {"guid": 5387, "id": 5387, "object_no": null, "object_name": null, "layer_type_id": 215, "valid_to": null, "address_no": null, "border_type": "solid", "border_width": null, "border_color": "#cc0000", "border_opacity": null, "border_wellknown": "horizline", "fill_type": "color", "fill_color": "#ea9999", "fill_opacity": 1, "fill_wellknown": "horizline", "fill_shape_color": null, "fill_shape_width": null, "fill_shape_size": null, "fill_img_url": null, "marker_img_url": null}},{"type": "Feature", "id": "layer_data_map.fid--27e80436_1a098b908f8_-39b7", "geometry": {"type": "Point", "coordinates": [106.88359732, 47.9259696]}, "geometry_name": "geom", "properties": {"guid": 5388, "id": 5388, "object_no": null, "object_name": null, "layer_type_id": 215, "valid_to": null, "address_no": null, "border_type": "solid", "border_width": null, "border_color": "#cc0000", "border_opacity": null, "border_wellknown": "horizline", "fill_type": "color", "fill_color": "#ea9999", "fill_opacity": 1, "fill_wellknown": "horizline", "fill_shape_color": null, "fill_shape_width": null, "fill_shape_size": null, "fill_img_url": null, "marker_img_url": null}},{"type": "Feature", "id": "layer_data_map.fid--27e80436_1a098b908f8_-39b6", "geometry": {"type": "Point", "coordinates": [106.92627414, 47.92881423]}, "geometry_name": "geom", "properties": {"guid": 5389, "id": 5389, "object_no": null, "object_name": null, "layer_type_id": 215, "valid_to": null, "address_no": null, "border_type": "solid", "border_width": null, "border_color": "#cc0000", "border_opacity": null, "border_wellknown": "horizline", "fill_type": "color", "fill_color": "#ea9999", "fill_opacity": 1, "fill_wellknown": "horizline", "fill_shape_color": null, "fill_shape_width": null, "fill_shape_size": null, "fill_img_url": null, "marker_img_url": null}},{"type": "Feature", "id": "layer_data_map.fid--27e80436_1a098b908f8_-39b5", "geometry": {"type": "Point", "coordinates": [106.94097204, 47.92897219]}, "geometry_name": "geom", "properties": {"guid": 5390, "id": 5390, "object_no": null, "object_name": null, "layer_type_id": 215, "valid_to": null, "address_no": null, "border_type": "solid", "border_width": null, "border_color": "#cc0000", "border_opacity": null, "border_wellknown": "horizline", "fill_type": "color", "fill_color": "#ea9999", "fill_opacity": 1, "fill_wellknown": "horizline", "fill_shape_color": null, "fill_shape_width": null, "fill_shape_size": null, "fill_img_url": null, "marker_img_url": null}},{"type": "Feature", "id": "layer_data_map.fid--27e80436_1a098b908f8_-39b4", "geometry": {"type": "Point", "coordinates": [106.91698412, 47.9239236]}, "geometry_name": "geom", "properties": {"guid": 5391, "id": 5391, "object_no": null, "object_name": null, "layer_type_id": 215, "valid_to": null, "address_no": null, "border_type": "solid", "border_width": null, "border_color": "#cc0000", "border_opacity": null, "border_wellknown": "horizline", "fill_type": "color", "fill_color": "#ea9999", "fill_opacity": 1, "fill_wellknown": "horizline", "fill_shape_color": null, "fill_shape_width": null, "fill_shape_size": null, "fill_img_url": null, "marker_img_url": null}},{"type": "Feature", "id": "layer_data_map.fid--27e80436_1a098b908f8_-39b3", "geometry": {"type": "Point", "coordinates": [106.9171784, 47.92548482]}, "geometry_name": "geom", "properties": {"guid": 5392, "id": 5392, "object_no": null, "object_name": null, "layer_type_id": 215, "valid_to": null, "address_no": null, "border_type": "solid", "border_width": null, "border_color": "#cc0000", "border_opacity": null, "border_wellknown": "horizline", "fill_type": "color", "fill_color": "#ea9999", "fill_opacity": 1, "fill_wellknown": "horizline", "fill_shape_color": null, "fill_shape_width": null, "fill_shape_size": null, "fill_img_url": null, "marker_img_url": null}},{"type": "Feature", "id": "layer_data_map.fid--27e80436_1a098b908f8_-39b2", "geometry": {"type": "Point", "coordinates": [106.91718566, 47.92539095]}, "geometry_name": "geom", "properties": {"guid": 5393, "id": 5393, "object_no": null, "object_name": null, "layer_type_id": 215, "valid_to": null, "address_no": null, "border_type": "solid", "border_width": null, "border_color": "#cc0000", "border_opacity": null, "border_wellknown": "horizline", "fill_type": "color", "fill_color": "#ea9999", "fill_opacity": 1, "fill_wellknown": "horizline", "fill_shape_color": null, "fill_shape_width": null, "fill_shape_size": null, "fill_img_url": null, "marker_img_url": null}},{"type": "Feature", "id": "layer_data_map.fid--27e80436_1a098b908f8_-39b1", "geometry": {"type": "Point", "coordinates": [106.90892425, 47.885296]}, "geometry_name": "geom", "properties": {"guid": 5394, "id": 5394, "object_no": null, "object_name": null, "layer_type_id": 215, "valid_to": null, "address_no": null, "border_type": "solid", "border_width": null, "border_color": "#cc0000", "border_opacity": null, "border_wellknown": "horizline", "fill_type": "color", "fill_color": "#ea9999", "fill_opacity": 1, "fill_wellknown": "horizline", "fill_shape_color": null, "fill_shape_width": null, "fill_shape_size": null, "fill_img_url": null, "marker_img_url": null}},{"type": "Feature", "id": "layer_data_map.fid--27e80436_1a098b908f8_-39b0", "geometry": {"type": "Point", "coordinates": [106.91847971, 47.93257632]}, "geometry_name": "geom", "properties": {"guid": 5395, "id": 5395, "object_no": null, "object_name": null, "layer_type_id": 215, "valid_to": null, "address_no": null, "border_type": "solid", "border_width": null, "border_color": "#cc0000", "border_opacity": null, "border_wellknown": "horizline", "fill_type": "color", "fill_color": "#ea9999", "fill_opacity": 1, "fill_wellknown": "horizline", "fill_shape_color": null, "fill_shape_width": null, "fill_shape_size": null, "fill_img_url": null, "marker_img_url": null}},{"type": "Feature", "id": "layer_data_map.fid--27e80436_1a098b908f8_-39af", "geometry": {"type": "Point", "coordinates": [106.91920297, 47.92364795]}, "geometry_name": "geom", "properties": {"guid": 5396, "id": 5396, "object_no": null, "object_name": null, "layer_type_id": 215, "valid_to": null, "address_no": null, "border_type": "solid", "border_width": null, "border_color": "#cc0000", "border_opacity": null, "border_wellknown": "horizline", "fill_type": "color", "fill_color": "#ea9999", "fill_opacity": 1, "fill_wellknown": "horizline", "fill_shape_color": null, "fill_shape_width": null, "fill_shape_size": null, "fill_img_url": null, "marker_img_url": null}},{"type": "Feature", "id": "layer_data_map.fid--27e80436_1a098b908f8_-39ae", "geometry": {"type": "Point", "coordinates": [106.91255162, 47.92072786]}, "geometry_name": "geom", "properties": {"guid": 5397, "id": 5397, "object_no": null, "object_name": null, "layer_type_id": 215, "valid_to": null, "address_no": null, "border_type": "solid", "border_width": null, "border_color": "#cc0000", "border_opacity": null, "border_wellknown": "horizline", "fill_type": "color", "fill_color": "#ea9999", "fill_opacity": 1, "fill_wellknown": "horizline", "fill_shape_color": null, "fill_shape_width": null, "fill_shape_size": null, "fill_img_url": null, "marker_img_url": null}},{"type": "Feature", "id": "layer_data_map.fid--27e80436_1a098b908f8_-39ad", "geometry": {"type": "Point", "coordinates": [106.78277044, 47.89618033]}, "geometry_name": "geom", "properties": {"guid": 5398, "id": 5398, "object_no": null, "object_name": null, "layer_type_id": 215, "valid_to": null, "address_no": null, "border_type": "solid", "border_width": null, "border_color": "#cc0000", "border_opacity": null, "border_wellknown": "horizline", "fill_type": "color", "fill_color": "#ea9999", "fill_opacity": 1, "fill_wellknown": "horizline", "fill_shape_color": null, "fill_shape_width": null, "fill_shape_size": null, "fill_img_url": null, "marker_img_url": null}},{"type": "Feature", "id": "layer_data_map.fid--27e80436_1a098b908f8_-39ac", "geometry": {"type": "Point", "coordinates": [106.99562646, 47.9149692]}, "geometry_name": "geom", "properties": {"guid": 5399, "id": 5399, "object_no": null, "object_name": null, "layer_type_id": 215, "valid_to": null, "address_no": null, "border_type": "solid", "border_width": null, "border_color": "#cc0000", "border_opacity": null, "border_wellknown": "horizline", "fill_type": "color", "fill_color": "#ea9999", "fill_opacity": 1, "fill_wellknown": "horizline", "fill_shape_color": null, "fill_shape_width": null, "fill_shape_size": null, "fill_img_url": null, "marker_img_url": null}},{"type": "Feature", "id": "layer_data_map.fid--27e80436_1a098b908f8_-39ab", "geometry": {"type": "Point", "coordinates": [107.26082114, 47.7742464]}, "geometry_name": "geom", "properties": {"guid": 5400, "id": 5400, "object_no": null, "object_name": null, "layer_type_id": 215, "valid_to": null, "address_no": null, "border_type": "solid", "border_width": null, "border_color": "#cc0000", "border_opacity": null, "border_wellknown": "horizline", "fill_type": "color", "fill_color": "#ea9999", "fill_opacity": 1, "fill_wellknown": "horizline", "fill_shape_color": null, "fill_shape_width": null, "fill_shape_size": null, "fill_img_url": null, "marker_img_url": null}},{"type": "Feature", "id": "layer_data_map.fid--27e80436_1a098b908f8_-39aa", "geometry": {"type": "Point", "coordinates": [106.92630569, 47.92381355]}, "geometry_name": "geom", "properties": {"guid": 5401, "id": 5401, "object_no": null, "object_name": null, "layer_type_id": 215, "valid_to": null, "address_no": null, "border_type": "solid", "border_width": null, "border_color": "#cc0000", "border_opacity": null, "border_wellknown": "horizline", "fill_type": "color", "fill_color": "#ea9999", "fill_opacity": 1, "fill_wellknown": "horizline", "fill_shape_color": null, "fill_shape_width": null, "fill_shape_size": null, "fill_img_url": null, "marker_img_url": null}},{"type": "Feature", "id": "layer_data_map.fid--27e80436_1a098b908f8_-39a9", "geometry": {"type": "Point", "coordinates": [106.89181472, 47.89593986]}, "geometry_name": "geom", "properties": {"guid": 5402, "id": 5402, "object_no": null, "object_name": null, "layer_type_id": 215, "valid_to": null, "address_no": null, "border_type": "solid", "border_width": null, "border_color": "#cc0000", "border_opacity": null, "border_wellknown": "horizline", "fill_type": "color", "fill_color": "#ea9999", "fill_opacity": 1, "fill_wellknown": "horizline", "fill_shape_color": null, "fill_shape_width": null, "fill_shape_size": null, "fill_img_url": null, "marker_img_url": null}},{"type": "Feature", "id": "layer_data_map.fid--27e80436_1a098b908f8_-39a8", "geometry": {"type": "Point", "coordinates": [106.80906677, 47.91022705]}, "geometry_name": "geom", "properties": {"guid": 5403, "id": 5403, "object_no": null, "object_name": null, "layer_type_id": 215, "valid_to": null, "address_no": null, "border_type": "solid", "border_width": null, "border_color": "#cc0000", "border_opacity": null, "border_wellknown": "horizline", "fill_type": "color", "fill_color": "#ea9999", "fill_opacity": 1, "fill_wellknown": "horizline", "fill_shape_color": null, "fill_shape_width": null, "fill_shape_size": null, "fill_img_url": null, "marker_img_url": null}},{"type": "Feature", "id": "layer_data_map.fid--27e80436_1a098b908f8_-39a7", "geometry": {"type": "Point", "coordinates": [106.92768072, 47.91991387]}, "geometry_name": "geom", "properties": {"guid": 5404, "id": 5404, "object_no": null, "object_name": null, "layer_type_id": 215, "valid_to": null, "address_no": null, "border_type": "solid", "border_width": null, "border_color": "#cc0000", "border_opacity": null, "border_wellknown": "horizline", "fill_type": "color", "fill_color": "#ea9999", "fill_opacity": 1, "fill_wellknown": "horizline", "fill_shape_color": null, "fill_shape_width": null, "fill_shape_size": null, "fill_img_url": null, "marker_img_url": null}},{"type": "Feature", "id": "layer_data_map.fid--27e80436_1a098b908f8_-39a6", "geometry": {"type": "Point", "coordinates": [106.89454054, 47.92277651]}, "geometry_name": "geom", "properties": {"guid": 5405, "id": 5405, "object_no": null, "object_name": null, "layer_type_id": 215, "valid_to": null, "address_no": null, "border_type": "solid", "border_width": null, "border_color": "#cc0000", "border_opacity": null, "border_wellknown": "horizline", "fill_type": "color", "fill_color": "#ea9999", "fill_opacity": 1, "fill_wellknown": "horizline", "fill_shape_color": null, "fill_shape_width": null, "fill_shape_size": null, "fill_img_url": null, "marker_img_url": null}},{"type": "Feature", "id": "layer_data_map.fid--27e80436_1a098b908f8_-39a5", "geometry": {"type": "Point", "coordinates": [106.88954523, 47.91645771]}, "geometry_name": "geom", "properties": {"guid": 5406, "id": 5406, "object_no": null, "object_name": null, "layer_type_id": 215, "valid_to": null, "address_no": null, "border_type": "solid", "border_width": null, "border_color": "#cc0000", "border_opacity": null, "border_wellknown": "horizline", "fill_type": "color", "fill_color": "#ea9999", "fill_opacity": 1, "fill_wellknown": "horizline", "fill_shape_color": null, "fill_shape_width": null, "fill_shape_size": null, "fill_img_url": null, "marker_img_url": null}},{"type": "Feature", "id": "layer_data_map.fid--27e80436_1a098b908f8_-39a4", "geometry": {"type": "Point", "coordinates": [106.89328318, 47.8985193]}, "geometry_name": "geom", "properties": {"guid": 5407, "id": 5407, "object_no": null, "object_name": null, "layer_type_id": 215, "valid_to": null, "address_no": null, "border_type": "solid", "border_width": null, "border_color": "#cc0000", "border_opacity": null, "border_wellknown": "horizline", "fill_type": "color", "fill_color": "#ea9999", "fill_opacity": 1, "fill_wellknown": "horizline", "fill_shape_color": null, "fill_shape_width": null, "fill_shape_size": null, "fill_img_url": null, "marker_img_url": null}},{"type": "Feature", "id": "layer_data_map.fid--27e80436_1a098b908f8_-39a3", "geometry": {"type": "Point", "coordinates": [106.89161126, 47.92510059]}, "geometry_name": "geom", "properties": {"guid": 5408, "id": 5408, "object_no": null, "object_name": null, "layer_type_id": 215, "valid_to": null, "address_no": null, "border_type": "solid", "border_width": null, "border_color": "#cc0000", "border_opacity": null, "border_wellknown": "horizline", "fill_type": "color", "fill_color": "#ea9999", "fill_opacity": 1, "fill_wellknown": "horizline", "fill_shape_color": null, "fill_shape_width": null, "fill_shape_size": null, "fill_img_url": null, "marker_img_url": null}},{"type": "Feature", "id": "layer_data_map.fid--27e80436_1a098b908f8_-39a2", "geometry": {"type": "Point", "coordinates": [106.94402248, 47.9115097]}, "geometry_name": "geom", "properties": {"guid": 5409, "id": 5409, "object_no": null, "object_name": null, "layer_type_id": 215, "valid_to": null, "address_no": null, "border_type": "solid", "border_width": null, "border_color": "#cc0000", "border_opacity": null, "border_wellknown": "horizline", "fill_type": "color", "fill_color": "#ea9999", "fill_opacity": 1, "fill_wellknown": "horizline", "fill_shape_color": null, "fill_shape_width": null, "fill_shape_size": null, "fill_img_url": null, "marker_img_url": null}},{"type": "Feature", "id": "layer_data_map.fid--27e80436_1a098b908f8_-39a1", "geometry": {"type": "Point", "coordinates": [106.78414962, 47.9066166]}, "geometry_name": "geom", "properties": {"guid": 5410, "id": 5410, "object_no": null, "object_name": null, "layer_type_id": 215, "valid_to": null, "address_no": null, "border_type": "solid", "border_width": null, "border_color": "#cc0000", "border_opacity": null, "border_wellknown": "horizline", "fill_type": "color", "fill_color": "#ea9999", "fill_opacity": 1, "fill_wellknown": "horizline", "fill_shape_color": null, "fill_shape_width": null, "fill_shape_size": null, "fill_img_url": null, "marker_img_url": null}},{"type": "Feature", "id": "layer_data_map.fid--27e80436_1a098b908f8_-39a0", "geometry": {"type": "Point", "coordinates": [106.93060093, 47.92548819]}, "geometry_name": "geom", "properties": {"guid": 5411, "id": 5411, "object_no": null, "object_name": null, "layer_type_id": 215, "valid_to": null, "address_no": null, "border_type": "solid", "border_width": null, "border_color": "#cc0000", "border_opacity": null, "border_wellknown": "horizline", "fill_type": "color", "fill_color": "#ea9999", "fill_opacity": 1, "fill_wellknown": "horizline", "fill_shape_color": null, "fill_shape_width": null, "fill_shape_size": null, "fill_img_url": null, "marker_img_url": null}},{"type": "Feature", "id": "layer_data_map.fid--27e80436_1a098b908f8_-399f", "geometry": {"type": "Point", "coordinates": [106.92222128, 47.92618754]}, "geometry_name": "geom", "properties": {"guid": 5412, "id": 5412, "object_no": null, "object_name": null, "layer_type_id": 215, "valid_to": null, "address_no": null, "border_type": "solid", "border_width": null, "border_color": "#cc0000", "border_opacity": null, "border_wellknown": "horizline", "fill_type": "color", "fill_color": "#ea9999", "fill_opacity": 1, "fill_wellknown": "horizline", "fill_shape_color": null, "fill_shape_width": null, "fill_shape_size": null, "fill_img_url": null, "marker_img_url": null}},{"type": "Feature", "id": "layer_data_map.fid--27e80436_1a098b908f8_-399e", "geometry": {"type": "Point", "coordinates": [106.92242901, 47.926746]}, "geometry_name": "geom", "properties": {"guid": 5413, "id": 5413, "object_no": null, "object_name": null, "layer_type_id": 215, "valid_to": null, "address_no": null, "border_type": "solid", "border_width": null, "border_color": "#cc0000", "border_opacity": null, "border_wellknown": "horizline", "fill_type": "color", "fill_color": "#ea9999", "fill_opacity": 1, "fill_wellknown": "horizline", "fill_shape_color": null, "fill_shape_width": null, "fill_shape_size": null, "fill_img_url": null, "marker_img_url": null}},{"type": "Feature", "id": "layer_data_map.fid--27e80436_1a098b908f8_-399d", "geometry": {"type": "Point", "coordinates": [106.89038401, 47.90153601]}, "geometry_name": "geom", "properties": {"guid": 5414, "id": 5414, "object_no": null, "object_name": null, "layer_type_id": 215, "valid_to": null, "address_no": null, "border_type": "solid", "border_width": null, "border_color": "#cc0000", "border_opacity": null, "border_wellknown": "horizline", "fill_type": "color", "fill_color": "#ea9999", "fill_opacity": 1, "fill_wellknown": "horizline", "fill_shape_color": null, "fill_shape_width": null, "fill_shape_size": null, "fill_img_url": null, "marker_img_url": null}},{"type": "Feature", "id": "layer_data_map.fid--27e80436_1a098b908f8_-399c", "geometry": {"type": "Point", "coordinates": [106.81369091, 47.91192306]}, "geometry_name": "geom", "properties": {"guid": 5415, "id": 5415, "object_no": null, "object_name": null, "layer_type_id": 215, "valid_to": null, "address_no": null, "border_type": "solid", "border_width": null, "border_color": "#cc0000", "border_opacity": null, "border_wellknown": "horizline", "fill_type": "color", "fill_color": "#ea9999", "fill_opacity": 1, "fill_wellknown": "horizline", "fill_shape_color": null, "fill_shape_width": null, "fill_shape_size": null, "fill_img_url": null, "marker_img_url": null}},{"type": "Feature", "id": "layer_data_map.fid--27e80436_1a098b908f8_-399b", "geometry": {"type": "Point", "coordinates": [106.89777054, 47.89826584]}, "geometry_name": "geom", "properties": {"guid": 5416, "id": 5416, "object_no": null, "object_name": null, "layer_type_id": 215, "valid_to": null, "address_no": null, "border_type": "solid", "border_width": null, "border_color": "#cc0000", "border_opacity": null, "border_wellknown": "horizline", "fill_type": "color", "fill_color": "#ea9999", "fill_opacity": 1, "fill_wellknown": "horizline", "fill_shape_color": null, "fill_shape_width": null, "fill_shape_size": null, "fill_img_url": null, "marker_img_url": null}},{"type": "Feature", "id": "layer_data_map.fid--27e80436_1a098b908f8_-399a", "geometry": {"type": "Point", "coordinates": [106.97393623, 47.91438603]}, "geometry_name": "geom", "properties": {"guid": 5417, "id": 5417, "object_no": null, "object_name": null, "layer_type_id": 215, "valid_to": null, "address_no": null, "border_type": "solid", "border_width": null, "border_color": "#cc0000", "border_opacity": null, "border_wellknown": "horizline", "fill_type": "color", "fill_color": "#ea9999", "fill_opacity": 1, "fill_wellknown": "horizline", "fill_shape_color": null, "fill_shape_width": null, "fill_shape_size": null, "fill_img_url": null, "marker_img_url": null}},{"type": "Feature", "id": "layer_data_map.fid--27e80436_1a098b908f8_-3999", "geometry": {"type": "Point", "coordinates": [106.95689415, 47.9175153]}, "geometry_name": "geom", "properties": {"guid": 5418, "id": 5418, "object_no": null, "object_name": null, "layer_type_id": 215, "valid_to": null, "address_no": null, "border_type": "solid", "border_width": null, "border_color": "#cc0000", "border_opacity": null, "border_wellknown": "horizline", "fill_type": "color", "fill_color": "#ea9999", "fill_opacity": 1, "fill_wellknown": "horizline", "fill_shape_color": null, "fill_shape_width": null, "fill_shape_size": null, "fill_img_url": null, "marker_img_url": null}},{"type": "Feature", "id": "layer_data_map.fid--27e80436_1a098b908f8_-3998", "geometry": {"type": "Point", "coordinates": [106.91064051, 47.88387094]}, "geometry_name": "geom", "properties": {"guid": 5419, "id": 5419, "object_no": null, "object_name": null, "layer_type_id": 215, "valid_to": null, "address_no": null, "border_type": "solid", "border_width": null, "border_color": "#cc0000", "border_opacity": null, "border_wellknown": "horizline", "fill_type": "color", "fill_color": "#ea9999", "fill_opacity": 1, "fill_wellknown": "horizline", "fill_shape_color": null, "fill_shape_width": null, "fill_shape_size": null, "fill_img_url": null, "marker_img_url": null}},{"type": "Feature", "id": "layer_data_map.fid--27e80436_1a098b908f8_-3997", "geometry": {"type": "Point", "coordinates": [106.90912153, 47.88481516]}, "geometry_name": "geom", "properties": {"guid": 5420, "id": 5420, "object_no": null, "object_name": null, "layer_type_id": 215, "valid_to": null, "address_no": null, "border_type": "solid", "border_width": null, "border_color": "#cc0000", "border_opacity": null, "border_wellknown": "horizline", "fill_type": "color", "fill_color": "#ea9999", "fill_opacity": 1, "fill_wellknown": "horizline", "fill_shape_color": null, "fill_shape_width": null, "fill_shape_size": null, "fill_img_url": null, "marker_img_url": null}},{"type": "Feature", "id": "layer_data_map.fid--27e80436_1a098b908f8_-3996", "geometry": {"type": "Point", "coordinates": [106.86433883, 47.90207037]}, "geometry_name": "geom", "properties": {"guid": 5421, "id": 5421, "object_no": null, "object_name": null, "layer_type_id": 215, "valid_to": null, "address_no": null, "border_type": "solid", "border_width": null, "border_color": "#cc0000", "border_opacity": null, "border_wellknown": "horizline", "fill_type": "color", "fill_color": "#ea9999", "fill_opacity": 1, "fill_wellknown": "horizline", "fill_shape_color": null, "fill_shape_width": null, "fill_shape_size": null, "fill_img_url": null, "marker_img_url": null}},{"type": "Feature", "id": "layer_data_map.fid--27e80436_1a098b908f8_-3995", "geometry": {"type": "Point", "coordinates": [106.91848218, 47.92370932]}, "geometry_name": "geom", "properties": {"guid": 5422, "id": 5422, "object_no": null, "object_name": null, "layer_type_id": 215, "valid_to": null, "address_no": null, "border_type": "solid", "border_width": null, "border_color": "#cc0000", "border_opacity": null, "border_wellknown": "horizline", "fill_type": "color", "fill_color": "#ea9999", "fill_opacity": 1, "fill_wellknown": "horizline", "fill_shape_color": null, "fill_shape_width": null, "fill_shape_size": null, "fill_img_url": null, "marker_img_url": null}},{"type": "Feature", "id": "layer_data_map.fid--27e80436_1a098b908f8_-3994", "geometry": {"type": "Point", "coordinates": [106.92227901, 47.92333451]}, "geometry_name": "geom", "properties": {"guid": 5423, "id": 5423, "object_no": null, "object_name": null, "layer_type_id": 215, "valid_to": null, "address_no": null, "border_type": "solid", "border_width": null, "border_color": "#cc0000", "border_opacity": null, "border_wellknown": "horizline", "fill_type": "color", "fill_color": "#ea9999", "fill_opacity": 1, "fill_wellknown": "horizline", "fill_shape_color": null, "fill_shape_width": null, "fill_shape_size": null, "fill_img_url": null, "marker_img_url": null}}]}