{"type":"FeatureCollection","features":[{"type": "Feature", "id": "layer_data_map.fid--27e80436_1a098c1eed1_-53f9", "geometry": {"type": "Polygon", "coordinates": [[[107.34040539, 47.7747334], [107.34047422, 47.77473212], [107.34059529, 47.77473174], [107.34066902, 47.77473263], [107.34071503, 47.77473345], [107.34077335, 47.77473527], [107.34085279, 47.77473833], [107.34093985, 47.77474264], [107.34102764, 47.77474797], [107.34105648, 47.77474983], [107.3410992, 47.77475297], [107.34121845, 47.7747624], [107.3413488, 47.77477491], [107.34135953, 47.77477613], [107.34144887, 47.77478648], [107.34160933, 47.7748085], [107.34165685, 47.77481637], [107.34173494, 47.7748298], [107.34185597, 47.77485268], [107.34199766, 47.77488486], [107.34206576, 47.77490177], [107.34208929, 47.7749077], [107.34225046, 47.77495301], [107.34232697, 47.77497753], [107.342385, 47.77499689], [107.3424649, 47.77502469], [107.34258129, 47.77506945], [107.34264144, 47.77509395], [107.34267607, 47.7751083], [107.34279892, 47.77516331], [107.34286169, 47.77519315], [107.3428838, 47.77520377], [107.34298493, 47.77525537], [107.34305203, 47.77529133], [107.34308918, 47.77531161], [107.34314505, 47.77534355], [107.34320016, 47.77537594], [107.3432753, 47.77542183], [107.34328895, 47.77543055], [107.3433399, 47.77546334], [107.34343169, 47.77552535], [107.34347825, 47.77555838], [107.34349599, 47.77557108], [107.34357298, 47.77562924], [107.34361502, 47.77566241], [107.34365285, 47.77569295], [107.34371184, 47.77574346], [107.34374921, 47.77577666], [107.34379619, 47.77581971], [107.34384698, 47.77586948], [107.34387966, 47.77590268], [107.34392553, 47.77595094], [107.34397638, 47.77600875], [107.34400431, 47.77604189], [107.3440404, 47.77608617], [107.34409712, 47.77616243], [107.34412026, 47.77619546], [107.34414039, 47.7762249], [107.34420683, 47.77633376], [107.34420825, 47.77633633], [107.34422879, 47.77637355], [107.3442831, 47.77648254], [107.34429388, 47.77650736], [107.3443117, 47.77654949], [107.3443457, 47.77663844], [107.34435225, 47.77665808], [107.34436779, 47.77670595], [107.34439074, 47.77678506], [107.34440604, 47.77684489], [107.3444102, 47.77686165], [107.34441525, 47.77688344], [107.34442827, 47.77694191], [107.34444244, 47.77701606], [107.34444913, 47.77705784], [107.34445227, 47.77707863], [107.34446213, 47.77717487], [107.34446448, 47.77721245], [107.34446562, 47.77723369], [107.3444652, 47.7773514], [107.34446436, 47.77736588], [107.34446218, 47.77739973], [107.34445119, 47.77750269], [107.34443803, 47.7775756], [107.34443147, 47.77760668], [107.34442141, 47.77765044], [107.34439008, 47.77775671], [107.34437838, 47.77779096], [107.34437523, 47.77780009], [107.34432962, 47.77791372], [107.34432031, 47.7779338], [107.34427306, 47.77803369], [107.34424587, 47.77808816], [107.34421313, 47.77815043], [107.3441931, 47.77818724], [107.34416926, 47.77822812], [107.34413027, 47.77829264], [107.34408689, 47.77836041], [107.34408676, 47.7783606], [107.34404117, 47.77842797], [107.34399993, 47.77848612], [107.34394685, 47.77855766], [107.34391059, 47.77860476], [107.34387837, 47.77864398], [107.34382523, 47.7787068], [107.34376977, 47.77876938], [107.34375388, 47.77878629], [107.34375374, 47.77878644], [107.34375274, 47.77880361], [107.34376169, 47.77896562], [107.34376232, 47.77897806], [107.34376342, 47.77904999], [107.34376109, 47.77921177], [107.3437649, 47.77927887], [107.34377154, 47.779339], [107.34378243, 47.7793828], [107.34378455, 47.77939147], [107.34380693, 47.77950821], [107.3438139, 47.7795674], [107.34381707, 47.77960142], [107.3438211, 47.7796597], [107.34382067, 47.77977741], [107.34381824, 47.77981362], [107.34381577, 47.77984373], [107.34380636, 47.77992496], [107.34378314, 47.78004162], [107.3437784, 47.78006011], [107.34376574, 47.78010796], [107.343736, 47.78020486], [107.34370318, 47.78028944], [107.34368342, 47.78033574], [107.34367063, 47.78036479], [107.34361409, 47.78047616], [107.34358739, 47.78052174], [107.34356152, 47.78056422], [107.34352099, 47.78062728], [107.34344337, 47.78073273], [107.3434183, 47.78076343], [107.34338716, 47.78080071], [107.34332454, 47.78087181], [107.34322716, 47.78096952], [107.34319655, 47.78099759], [107.34317059, 47.78102091], [107.34309454, 47.78108606], [107.34299006, 47.78116646], [107.34295688, 47.78119051], [107.3429459, 47.78119842], [107.34282211, 47.78128145], [107.34281208, 47.78128772], [107.34277257, 47.78131228], [107.34268591, 47.78136387], [107.34261929, 47.78140183], [107.34259917, 47.78141318], [107.34251464, 47.78146039], [107.34249986, 47.78146858], [107.3423983, 47.78152178], [107.34233573, 47.78155296], [107.34229847, 47.78157119], [107.34215302, 47.78163635], [107.34214115, 47.78164127], [107.34208223, 47.78166554], [107.34194264, 47.78171923], [107.3418071, 47.7817645], [107.34175105, 47.78178191], [107.34172977, 47.78178844], [107.34156825, 47.78183322], [107.34144841, 47.78186123], [107.34138771, 47.78187433], [107.34134203, 47.78188389], [107.34117323, 47.78191408], [107.341134, 47.78191996], [107.34106818, 47.78192949], [107.34093604, 47.78194628], [107.34083133, 47.78195633], [107.34076206, 47.78196203], [107.34069356, 47.78196706], [107.34053287, 47.78197417], [107.34046253, 47.78197585], [107.34044893, 47.78197615], [107.34027428, 47.78197586], [107.34023513, 47.78197474], [107.34017512, 47.78197272], [107.34004003, 47.78196585], [107.33996432, 47.78195996], [107.33990265, 47.78195456], [107.33980526, 47.7819448], [107.33970464, 47.78193209], [107.33964264, 47.78192342], [107.33957205, 47.78191288], [107.33945044, 47.78189151], [107.33938972, 47.7818798], [107.33934275, 47.78187043], [107.33917751, 47.78183231], [107.33916884, 47.78183009], [107.33909887, 47.78181202], [107.33894635, 47.78176893], [107.33887109, 47.78174483], [107.3388013, 47.78172157], [107.33872012, 47.78169335], [107.33859613, 47.78164548], [107.33852815, 47.78161759], [107.33850111, 47.78160634], [107.33835614, 47.7815407], [107.33833793, 47.78153178], [107.33827367, 47.78150002], [107.33815359, 47.78143705], [107.33811382, 47.7814145], [107.33807836, 47.78139398], [107.33798711, 47.78133871], [107.33796078, 47.78132177], [107.33792453, 47.78129813], [107.33782767, 47.78123163], [107.33779208, 47.78120536], [107.33771327, 47.78114606], [107.33763404, 47.78108362], [107.33760092, 47.78105572], [107.33756137, 47.78102172], [107.33748852, 47.78095605], [107.33747275, 47.78094098], [107.33743308, 47.78090264], [107.33736477, 47.78083326], [107.33732406, 47.78078976], [107.33731148, 47.78077618], [107.33727524, 47.78073548], [107.33722956, 47.78068262], [107.33717886, 47.78062122], [107.33716986, 47.78060971], [107.33714307, 47.78057513], [107.33708718, 47.78049859], [107.337052, 47.78046128], [107.33700274, 47.78040535], [107.33697219, 47.78036918], [107.3369345, 47.78032302], [107.33685765, 47.78021732], [107.33685252, 47.78020957], [107.3367845, 47.78018577], [107.33663347, 47.78012665], [107.33648851, 47.78006101], [107.33643094, 47.78003226], [107.33641845, 47.78002584], [107.33633773, 47.7799827], [107.33620672, 47.77990486], [107.33608354, 47.77982142], [107.33596873, 47.77973272], [107.33586277, 47.77963915], [107.33576611, 47.77954111], [107.33574205, 47.77951438], [107.33573343, 47.7795046], [107.33567055, 47.77942925], [107.33559371, 47.77932355], [107.33552728, 47.77921468], [107.33547156, 47.77910312], [107.33542716, 47.77899041], [107.33542246, 47.77897671], [107.3354221, 47.77897565], [107.33541776, 47.77896274], [107.33535038, 47.77887225], [107.33530187, 47.77880353], [107.33528229, 47.77877348], [107.33525007, 47.77872277], [107.33520323, 47.77864396], [107.33516689, 47.77857401], [107.33515457, 47.77854863], [107.33513519, 47.77850701], [107.33509434, 47.77840454], [107.33508603, 47.77838092], [107.3350821, 47.77836961], [107.33504847, 47.7782541], [107.3350378, 47.77820571], [107.33503335, 47.77818347], [107.33502166, 47.7781151], [107.33500998, 47.77797843], [107.33500937, 47.77795737], [107.33501052, 47.77785885], [107.33502238, 47.77774141], [107.33502355, 47.77773375], [107.33502702, 47.77771159], [107.33504908, 47.77760258], [107.33507555, 47.77751087], [107.3350832, 47.77748758], [107.33509124, 47.77746391], [107.33513686, 47.77735028], [107.33515184, 47.77731837], [107.33516373, 47.77729383], [107.33520531, 47.77721438], [107.33524029, 47.77715537], [107.33525654, 47.7771293], [107.33528879, 47.77707968], [107.33536349, 47.77697793], [107.33540735, 47.77692265], [107.33541028, 47.77691895], [107.33549798, 47.77681716], [107.33550785, 47.7768066], [107.33558451, 47.77672524], [107.33567202, 47.77663809], [107.33568683, 47.77662437], [107.33573704, 47.77657832], [107.33582889, 47.77649883], [107.33591877, 47.77642911], [107.33598311, 47.77638172], [107.3360087, 47.77636313], [107.33611876, 47.77628879], [107.33618514, 47.7762465], [107.33619888, 47.77623781], [107.33624984, 47.77620662], [107.33629704, 47.77617847], [107.33633756, 47.77614452], [107.33635849, 47.77612764], [107.33640375, 47.77609156], [107.3364983, 47.77602014], [107.33655678, 47.77597956], [107.33660848, 47.7759448], [107.33667379, 47.77590235], [107.33680537, 47.77582496], [107.33686277, 47.77579425], [107.33691399, 47.7757676], [107.3369954, 47.77572689], [107.33714084, 47.77566174], [107.33718398, 47.77564413], [107.33722475, 47.77562785], [107.33733306, 47.77558686], [107.33741957, 47.77555722], [107.33746771, 47.77554147], [107.337538, 47.77551931], [107.33764387, 47.77548902], [107.33781886, 47.77544193], [107.33784081, 47.7754361], [107.33793624, 47.77541108], [107.33796992, 47.77540242], [107.33801716, 47.77539087], [107.33804602, 47.77538401], [107.33810192, 47.77535557], [107.33816059, 47.77532656], [107.33817737, 47.77531857], [107.33826869, 47.77527539], [107.33827107, 47.77527427], [107.33830508, 47.77525823], [107.33842208, 47.77519963], [107.3384647, 47.77517872], [107.33851233, 47.77515636], [107.33858166, 47.77512455], [107.33867947, 47.77508176], [107.33876548, 47.77504739], [107.33884775, 47.7750159], [107.33891319, 47.77499167], [107.33906607, 47.77494107], [107.33910493, 47.77492922], [107.33910886, 47.77492803], [107.33927036, 47.77488325], [107.33928026, 47.77488077], [107.33931829, 47.77487131], [107.33947388, 47.77483623], [107.339514, 47.77482833], [107.3395674, 47.77481812], [107.33969607, 47.77479584], [107.33975592, 47.77478702], [107.33981301, 47.77477908], [107.33992451, 47.77476521], [107.33998558, 47.77475901], [107.34004649, 47.77475331], [107.34015861, 47.77474443], [107.34020218, 47.77474186], [107.34026714, 47.77473838], [107.34039784, 47.77473354], [107.34040539, 47.7747334]]]}, "geometry_name": "geom", "properties": {"guid": 87390, "id": 87390, "object_no": null, "object_name": null, "layer_type_id": 166, "valid_to": null, "address_no": null, "border_type": "solid", "border_width": 1, "border_color": "#76ddef", "border_opacity": null, "border_wellknown": null, "fill_type": "color", "fill_color": "#9afeff", "fill_opacity": 0.39, "fill_wellknown": null, "fill_shape_color": null, "fill_shape_width": null, "fill_shape_size": null, "fill_img_url": null, "marker_img_url": null}},{"type": "Feature", "id": "layer_data_map.fid--27e80436_1a098c1eed1_-53f8", "geometry": {"type": "Polygon", "coordinates": [[[107.20171742, 47.7547749], [107.20181055, 47.75477357], [107.20196544, 47.75477441], [107.20205002, 47.75477742], [107.20211526, 47.75478045], [107.20220482, 47.75478564], [107.20237779, 47.7548015], [107.20246909, 47.75481304], [107.20254284, 47.75482326], [107.2026226, 47.75483518], [107.20279102, 47.75486613], [107.20280977, 47.75487007], [107.20290261, 47.75488986], [107.20295675, 47.75490183], [107.2030615, 47.75492583], [107.20315367, 47.75494823], [107.20331466, 47.75499374], [107.20334736, 47.75500403], [107.20339984, 47.75502083], [107.20352337, 47.75506305], [107.20367418, 47.75512234], [107.20372758, 47.75514555], [107.20374846, 47.75515486], [107.20383979, 47.75519747], [107.20397782, 47.75526953], [107.20399561, 47.75527954], [107.20401351, 47.75528971], [107.20412648, 47.75535769], [107.20421183, 47.75541456], [107.20423622, 47.75543156], [107.20427378, 47.75545827], [107.20438832, 47.75554711], [107.20439657, 47.75555398], [107.20441632, 47.75557051], [107.20451375, 47.75565734], [107.20459189, 47.75573582], [107.20460697, 47.75575186], [107.2046252, 47.75577154], [107.20471185, 47.75587373], [107.20478584, 47.7559757], [107.20479621, 47.7559912], [107.20479876, 47.75599503], [107.20486488, 47.75610398], [107.20492029, 47.75621561], [107.20496476, 47.75632944], [107.20497602, 47.75636422], [107.20498493, 47.75639311], [107.205007, 47.75647388], [107.20502905, 47.75659066], [107.20503973, 47.75670815], [107.20504042, 47.75672811], [107.20504144, 47.75676782], [107.20504002, 47.75686558], [107.20502875, 47.7569771], [107.20502436, 47.75700692], [107.20502347, 47.75701283], [107.20499995, 47.75712948], [107.20497339, 47.75722079], [107.20496317, 47.75725166], [107.20495496, 47.7572757], [107.20490906, 47.75738928], [107.20488369, 47.75744193], [107.20486792, 47.75747302], [107.20483647, 47.75753169], [107.20476899, 47.75764025], [107.2047639, 47.75764769], [107.20474316, 47.75767786], [107.20467037, 47.75777577], [107.20458245, 47.75787747], [107.20455114, 47.75791029], [107.20454859, 47.75791291], [107.20452537, 47.75794016], [107.20447156, 47.75800057], [107.20445039, 47.75802294], [107.20439875, 47.75807664], [107.20432232, 47.75815186], [107.20424422, 47.75822111], [107.20420456, 47.75825457], [107.2041758, 47.7582784], [107.20406014, 47.75836658], [107.20396289, 47.7584325], [107.20392708, 47.75845555], [107.20390037, 47.75847251], [107.20376863, 47.75854975], [107.20371382, 47.75857902], [107.20367034, 47.75860162], [107.2035862, 47.75864362], [107.20349374, 47.75868596], [107.20344202, 47.75870859], [107.20338892, 47.75873123], [107.20332083, 47.75875858], [107.20324836, 47.75878671], [107.20316489, 47.75881779], [107.20315079, 47.75882278], [107.20304303, 47.75886067], [107.20290023, 47.75890729], [107.20281951, 47.75893061], [107.20277645, 47.75894248], [107.20269559, 47.75896376], [107.20256114, 47.75899472], [107.20252095, 47.75900317], [107.20248985, 47.75900958], [107.20232103, 47.75903956], [107.20218391, 47.75905817], [107.20214022, 47.7590633], [107.20210596, 47.75906716], [107.20203498, 47.7590742], [107.20200518, 47.75907893], [107.20198861, 47.75908152], [107.20181724, 47.75910399], [107.20176783, 47.75910903], [107.20172451, 47.75911316], [107.20160075, 47.75912299], [107.20154282, 47.75912624], [107.20149436, 47.7591286], [107.20137803, 47.75913255], [107.20131133, 47.75913327], [107.20117123, 47.75913359], [107.2011472, 47.75913358], [107.20105071, 47.75913322], [107.20096686, 47.75913201], [107.2008108, 47.75912502], [107.20075234, 47.75912124], [107.20073424, 47.75912003], [107.20058989, 47.75910733], [107.20053, 47.75910093], [107.20050136, 47.75909777], [107.2003463, 47.75907684], [107.20031296, 47.75907164], [107.20029694, 47.75906911], [107.20012851, 47.75903815], [107.19996343, 47.75899984], [107.19995708, 47.7589982], [107.19992919, 47.75899097], [107.19977455, 47.7589471], [107.19961831, 47.75889458], [107.1994675, 47.75883528], [107.19941041, 47.75881043], [107.19938964, 47.75880113], [107.19930199, 47.75876016], [107.19916395, 47.7586881], [107.19903319, 47.75861011], [107.19891028, 47.75852651], [107.19880633, 47.75844639], [107.1987873, 47.75843081], [107.19877671, 47.7584221], [107.19867103, 47.7583284], [107.19857467, 47.75823024], [107.19848804, 47.75812804], [107.19844028, 47.75806411], [107.19842466, 47.75804213], [107.19839588, 47.75800025], [107.19832977, 47.7578913], [107.19827437, 47.75777967], [107.19827032, 47.75777044], [107.19825802, 47.75774211], [107.19821761, 47.7576375], [107.19819423, 47.75756093], [107.19818407, 47.75752355], [107.19817413, 47.75748456], [107.19815209, 47.75736779], [107.1981515, 47.75736352], [107.19814891, 47.75734449], [107.19813883, 47.75723126], [107.19813816, 47.757149], [107.19813868, 47.75712878], [107.19814011, 47.75709332], [107.19815228, 47.75697589], [107.19815543, 47.75695626], [107.19815906, 47.75693478], [107.19817944, 47.75683776], [107.19819336, 47.75678686], [107.19820012, 47.75676398], [107.198221, 47.75669954], [107.19826592, 47.75658813], [107.19828858, 47.75653831], [107.19828956, 47.75653615], [107.19834639, 47.75642484], [107.19837276, 47.75638002], [107.19841092, 47.75631761], [107.19845205, 47.75625388], [107.19848315, 47.75620971], [107.19849981, 47.75618686], [107.19854659, 47.75612568], [107.19859343, 47.75606962], [107.19861349, 47.75604657], [107.19865459, 47.75600094], [107.1987522, 47.75590334], [107.19875437, 47.75590132], [107.19880564, 47.75585366], [107.19891033, 47.7557626], [107.19896204, 47.75572173], [107.19902451, 47.75567384], [107.19908846, 47.75562653], [107.19911417, 47.75560844], [107.19933249, 47.75545689], [107.19943074, 47.7553921], [107.19946065, 47.75537366], [107.19949704, 47.75535156], [107.19959887, 47.75529277], [107.19963521, 47.75527319], [107.19966977, 47.75525489], [107.19977237, 47.75520322], [107.19982205, 47.75517999], [107.19987897, 47.75515403], [107.19997485, 47.75511227], [107.20003745, 47.75508706], [107.20009291, 47.75506541], [107.20018186, 47.75503221], [107.20028386, 47.75499768], [107.2003377, 47.75498042], [107.20039259, 47.75496333], [107.20055415, 47.75491875], [107.20056744, 47.75491545], [107.20061955, 47.75490261], [107.2007718, 47.75486855], [107.20088618, 47.75484736], [107.20093142, 47.75483971], [107.20098584, 47.75483091], [107.2011572, 47.75480844], [107.20117006, 47.75480707], [107.20122138, 47.75480168], [107.20138168, 47.75478819], [107.20140402, 47.75478684], [107.20146178, 47.7547835], [107.20157548, 47.75477857], [107.20165956, 47.75477615], [107.20169776, 47.75477523], [107.20171742, 47.7547749]]]}, "geometry_name": "geom", "properties": {"guid": 87391, "id": 87391, "object_no": null, "object_name": null, "layer_type_id": 166, "valid_to": null, "address_no": null, "border_type": "solid", "border_width": 1, "border_color": "#76ddef", "border_opacity": null, "border_wellknown": null, "fill_type": "color", "fill_color": "#9afeff", "fill_opacity": 0.39, "fill_wellknown": null, "fill_shape_color": null, "fill_shape_width": null, "fill_shape_size": null, "fill_img_url": null, "marker_img_url": null}}]}