{"type":"FeatureCollection","features":[{"type": "Feature", "id": "layer_data_map.fid--27e80436_1a098c1eed1_-542f", "geometry": {"type": "Polygon", "coordinates": [[[107.08749944, 48.06050194], [107.02707222, 48.06399833], [107.03352028, 48.05564583], [107.03495195, 48.04117611], [107.10137, 48.04443667], [107.08749944, 48.06050194]]]}, "geometry_name": "geom", "properties": {"guid": 87378, "id": 87378, "object_no": null, "object_name": null, "layer_type_id": 174, "valid_to": null, "address_no": null, "border_type": "solid", "border_width": 0, "border_color": null, "border_opacity": null, "border_wellknown": null, "fill_type": "color", "fill_color": "#b6d7a8", "fill_opacity": 0.5, "fill_wellknown": null, "fill_shape_color": null, "fill_shape_width": null, "fill_shape_size": null, "fill_img_url": null, "marker_img_url": null}},{"type": "Feature", "id": "layer_data_map.fid--27e80436_1a098c1eed1_-542e", "geometry": {"type": "Polygon", "coordinates": [[[106.82686, 48.09113278], [106.80437778, 48.10169972], [106.78790861, 48.09889694], [106.78115805, 48.09084083], [106.75257056, 48.07852889], [106.7603575, 48.05817472], [106.78277694, 48.06952945], [106.80409806, 48.07161833], [106.82446417, 48.06613889], [106.84640083, 48.06224778], [106.839125, 48.08229083], [106.82686, 48.09113278]]]}, "geometry_name": "geom", "properties": {"guid": 87379, "id": 87379, "object_no": null, "object_name": null, "layer_type_id": 174, "valid_to": null, "address_no": null, "border_type": "solid", "border_width": 0, "border_color": null, "border_opacity": null, "border_wellknown": null, "fill_type": "color", "fill_color": "#b6d7a8", "fill_opacity": 0.5, "fill_wellknown": null, "fill_shape_color": null, "fill_shape_width": null, "fill_shape_size": null, "fill_img_url": null, "marker_img_url": null}},{"type": "Feature", "id": "layer_data_map.fid--27e80436_1a098c1eed1_-542d", "geometry": {"type": "Polygon", "coordinates": [[[107.25266889, 48.10896306], [107.22315972, 48.13513944], [107.19117722, 48.11618639], [107.07810028, 48.08389222], [107.0243225, 48.09893028], [107.02784444, 48.09015278], [107.02780611, 48.08483972], [107.03216722, 48.08082028], [107.03150306, 48.07694694], [107.02707222, 48.06399833], [107.08749944, 48.06050194], [107.10137, 48.04443667], [107.14809278, 48.04311528], [107.25266889, 48.10896306]]]}, "geometry_name": "geom", "properties": {"guid": 87380, "id": 87380, "object_no": null, "object_name": null, "layer_type_id": 174, "valid_to": null, "address_no": null, "border_type": "solid", "border_width": 0, "border_color": null, "border_opacity": null, "border_wellknown": null, "fill_type": "color", "fill_color": "#b6d7a8", "fill_opacity": 0.5, "fill_wellknown": null, "fill_shape_color": null, "fill_shape_width": null, "fill_shape_size": null, "fill_img_url": null, "marker_img_url": null}},{"type": "Feature", "id": "layer_data_map.fid--27e80436_1a098c1eed1_-542c", "geometry": {"type": "Polygon", "coordinates": [[[106.84995972, 48.15172556], [106.84249944, 48.16689194], [106.76340056, 48.16150222], [106.78379111, 48.12293361], [106.82683722, 48.11231111], [106.83917444, 48.13787194], [106.84995972, 48.15172556]]]}, "geometry_name": "geom", "properties": {"guid": 87381, "id": 87381, "object_no": null, "object_name": null, "layer_type_id": 174, "valid_to": null, "address_no": null, "border_type": "solid", "border_width": 0, "border_color": null, "border_opacity": null, "border_wellknown": null, "fill_type": "color", "fill_color": "#b6d7a8", "fill_opacity": 0.5, "fill_wellknown": null, "fill_shape_color": null, "fill_shape_width": null, "fill_shape_size": null, "fill_img_url": null, "marker_img_url": null}},{"type": "Feature", "id": "layer_data_map.fid--27e80436_1a098c1eed1_-542b", "geometry": {"type": "Polygon", "coordinates": [[[106.96245556, 48.17194444], [106.96101111, 48.191475], [106.92340833, 48.18924722], [106.87472222, 48.18636389], [106.86871667, 48.17309444], [106.86701944, 48.15364444], [106.8755, 48.15431389], [106.88060278, 48.15714167], [106.90013333, 48.16082778], [106.95713056, 48.16592778], [106.96245556, 48.17194444]]]}, "geometry_name": "geom", "properties": {"guid": 87382, "id": 87382, "object_no": null, "object_name": null, "layer_type_id": 174, "valid_to": null, "address_no": null, "border_type": "solid", "border_width": 0, "border_color": null, "border_opacity": null, "border_wellknown": null, "fill_type": "color", "fill_color": "#b6d7a8", "fill_opacity": 0.5, "fill_wellknown": null, "fill_shape_color": null, "fill_shape_width": null, "fill_shape_size": null, "fill_img_url": null, "marker_img_url": null}},{"type": "Feature", "id": "layer_data_map.fid--27e80436_1a098c1eed1_-542a", "geometry": {"type": "Polygon", "coordinates": [[[107.03091444, 48.1863175], [106.99552167, 48.21071611], [106.96798028, 48.19931472], [107.00092361, 48.13002417], [107.0243225, 48.09893028], [107.07810028, 48.08389222], [107.19117722, 48.11618639], [107.22315972, 48.13513944], [107.1978225, 48.14097583], [107.1732575, 48.15560778], [107.1609725, 48.16264333], [107.1127625, 48.17440028], [107.09014222, 48.19894972], [107.08177195, 48.20802694], [107.05239861, 48.18953333], [107.03091444, 48.1863175]]]}, "geometry_name": "geom", "properties": {"guid": 87383, "id": 87383, "object_no": null, "object_name": null, "layer_type_id": 174, "valid_to": null, "address_no": null, "border_type": "solid", "border_width": 0, "border_color": null, "border_opacity": null, "border_wellknown": null, "fill_type": "color", "fill_color": "#b6d7a8", "fill_opacity": 0.5, "fill_wellknown": null, "fill_shape_color": null, "fill_shape_width": null, "fill_shape_size": null, "fill_img_url": null, "marker_img_url": null}},{"type": "Feature", "id": "layer_data_map.fid--27e80436_1a098c1eed1_-5429", "geometry": {"type": "Polygon", "coordinates": [[[107.373381, 47.990407], [107.37342835, 47.99002075], [107.36698151, 47.96273041], [107.41168976, 47.94267273], [107.38548279, 47.91317749], [107.37272644, 47.90113068], [107.36415863, 47.87850952], [107.35060883, 47.85730743], [107.35282135, 47.81708527], [107.3778534, 47.79726791], [107.43065643, 47.79852295], [107.58678497, 47.86832158], [107.592698, 47.872119], [107.59293757, 47.87260728], [107.592986, 47.872706], [107.59326267, 47.87272383], [107.594274, 47.872789], [107.595714, 47.872352], [107.59579961, 47.87233926], [107.60711427, 47.87738011], [107.607013, 47.877503], [107.606884, 47.878161], [107.606959, 47.878842], [107.60747, 47.879322], [107.607858, 47.879778], [107.608041, 47.880183], [107.60803513, 47.88023446], [107.608003, 47.880516], [107.607984, 47.880676], [107.607945, 47.881202], [107.608364, 47.88176], [107.609072, 47.882126], [107.609527, 47.882241], [107.610116, 47.882389], [107.610929, 47.882712], [107.610893, 47.882928], [107.610825, 47.883335], [107.611087, 47.884389], [107.611472, 47.886715], [107.612472, 47.888523], [107.612817, 47.888818], [107.61446812, 47.89023288], [107.616724, 47.892166], [107.61731692, 47.89286756], [107.618094, 47.893787], [107.618181, 47.89389], [107.617997, 47.894868], [107.617592, 47.895647], [107.616467, 47.897552], [107.616464, 47.897594], [107.616415, 47.898296], [107.616321, 47.899616], [107.617537, 47.901985], [107.620477, 47.905107], [107.62131, 47.906235], [107.621178, 47.906804], [107.62074742, 47.90716673], [107.620645, 47.907253], [107.620536, 47.907346], [107.620202, 47.907429], [107.61989837, 47.9075051], [107.618582, 47.907835], [107.616622, 47.908664], [107.61529, 47.90965], [107.61469, 47.910195], [107.61456442, 47.91030883], [107.613931, 47.910883], [107.613497, 47.911958], [107.61323345, 47.91291853], [107.61312, 47.913332], [107.6131, 47.913359], [107.612704, 47.913902], [107.612279, 47.914389], [107.61176583, 47.91470173], [107.611726, 47.914726], [107.611031, 47.914744], [107.610754, 47.914752], [107.610625, 47.914704], [107.610161, 47.914532], [107.609813, 47.914403], [107.60852828, 47.91400631], [107.60832, 47.913942], [107.60758589, 47.914076], [107.606923, 47.914197], [107.606872, 47.914221], [107.605191, 47.914999], [107.603219, 47.917031], [107.601398, 47.919657], [107.60086789, 47.92036874], [107.600645, 47.920668], [107.599968, 47.921577], [107.599296, 47.922783], [107.599093, 47.924444], [107.599079, 47.924552], [107.598953, 47.924783], [107.597858, 47.926791], [107.597715, 47.927784], [107.597653, 47.928497], [107.59759707, 47.92913549], [107.597521, 47.930004], [107.59726617, 47.93038366], [107.597078, 47.930664], [107.596861, 47.930989], [107.596841, 47.931798], [107.597218, 47.93325], [107.597344, 47.93416], [107.59656, 47.935604], [107.595803, 47.937288], [107.59566576, 47.9375931], [107.595534, 47.937886], [107.594611, 47.939109], [107.593988, 47.939932], [107.59358678, 47.93962992], [107.593559, 47.939609], [107.593036, 47.939215], [107.591821, 47.940955], [107.590483, 47.943099], [107.589935, 47.944473], [107.589563, 47.947738], [107.589408, 47.949455], [107.589974, 47.950886], [107.58999, 47.950926], [107.590504, 47.951476], [107.59176114, 47.95281859], [107.592034, 47.95311], [107.5936883, 47.9545235], [107.596733, 47.957125], [107.59684, 47.957216], [107.59875, 47.958939], [107.598966, 47.959654], [107.598865, 47.960462], [107.598553, 47.961536], [107.597987, 47.962451], [107.596513, 47.963511], [107.595873, 47.964141], [107.595272, 47.964999], [107.59531, 47.965763], [107.595399, 47.966717], [107.596076, 47.967248], [107.596121, 47.968148], [107.595853, 47.968482], [107.595067, 47.968199], [107.594678, 47.967744], [107.594032, 47.967021], [107.593122, 47.966714], [107.592194, 47.966871], [107.59126, 47.967081], [107.58888, 47.967274], [107.586997, 47.968654], [107.586068, 47.968944], [107.58504, 47.969693], [107.583989, 47.970766], [107.583655, 47.971255], [107.583059, 47.971678], [107.582298, 47.971566], [107.581597, 47.971862], [107.580846, 47.97236], [107.580089, 47.972877], [107.579643, 47.972773], [107.57923148, 47.9726856], [107.579191, 47.972677], [107.57915775, 47.97260988], [107.578661, 47.971607], [107.577652, 47.97171], [107.576962, 47.972246], [107.576404, 47.97302], [107.575657, 47.973598], [107.574698, 47.973499], [107.573895, 47.972956], [107.572816, 47.97286], [107.571581, 47.973209], [107.570302, 47.973531], [107.568758, 47.973238], [107.567871, 47.973011], [107.566735, 47.972956], [107.56652, 47.973442], [107.567319, 47.973905], [107.568164, 47.974553], [107.568046, 47.975331], [107.566628, 47.975603], [107.565072, 47.975518], [107.563734, 47.975071], [107.562887, 47.974765], [107.56273, 47.975209], [107.562449, 47.975576], [107.558704, 47.97586], [107.557773, 47.976155], [107.556617, 47.976129], [107.55543, 47.976013], [107.554075, 47.976364], [107.552793, 47.976993], [107.551577, 47.977742], [107.550705, 47.978202], [107.549743, 47.978408], [107.549089, 47.978117], [107.548168, 47.977577], [107.547063, 47.97696], [107.545613, 47.976592], [107.543994, 47.976428], [107.542981, 47.97645], [107.542229, 47.976947], [107.541426, 47.977606], [107.540636, 47.977784], [107.539755, 47.977603], [107.53932, 47.976925], [107.538507, 47.976161], [107.537325, 47.975797], [107.536252, 47.97569], [107.534405, 47.975601], [107.533011, 47.975425], [107.532648, 47.975379], [107.530765, 47.974573], [107.529732, 47.973293], [107.528238, 47.97248], [107.526193, 47.972329], [107.52266, 47.972537], [107.521177, 47.972895], [107.520192, 47.972591], [107.519078, 47.971639], [107.517874, 47.970818], [107.515933, 47.970796], [107.514464, 47.970502], [107.512788, 47.969953], [107.511535, 47.97011], [107.510588, 47.970587], [107.509208, 47.971115], [107.507517, 47.971521], [107.505685, 47.971561], [107.504579, 47.971421], [107.50371, 47.971153], [107.502772, 47.971924], [107.50243, 47.972394], [107.500554, 47.972863], [107.498445, 47.972812], [107.4971, 47.972183], [107.496199, 47.971382], [107.494656, 47.970692], [107.492852, 47.970538], [107.491416, 47.970569], [107.489419, 47.970902], [107.486449, 47.971538], [107.484653, 47.971922], [107.482306, 47.972944], [107.479819, 47.97304], [107.478271, 47.974128], [107.476801, 47.974553], [107.47625, 47.975048], [107.47597064, 47.97559238], [107.4757052, 47.97555626], [107.4718386, 47.97632706], [107.47057623, 47.97679948], [107.46837269, 47.97736841], [107.46717154, 47.9789632], [107.46778643, 47.9808249], [107.47062886, 47.98146289], [107.47368865, 47.98118034], [107.47517277, 47.98052096], [107.474845, 47.981738], [107.473969, 47.982964], [107.47316, 47.984091], [107.47236, 47.985412], [107.471139, 47.986934], [107.468726, 47.988406], [107.46671, 47.98845], [107.46615248, 47.98913122], [107.466088, 47.98921], [107.465786, 47.989577], [107.4654, 47.990447], [107.465145, 47.990737], [107.464588, 47.991368], [107.462809, 47.991832], [107.46279154, 47.99183654], [107.462094, 47.992018], [107.459949, 47.992622], [107.4596283, 47.99287951], [107.459543, 47.992948], [107.458645, 47.99367], [107.458385, 47.994619], [107.458349, 47.995153], [107.45881, 47.995841], [107.459097, 47.996738], [107.45953, 47.998124], [107.459515, 47.999109], [107.458841, 48.000354], [107.45762912, 47.99995004], [107.457566, 47.999929], [107.445967, 47.996063], [107.44594797, 47.99606152], [107.373381, 47.990407]], [[107.42734303, 47.9830536], [107.42562775, 47.98566219], [107.43879464, 47.98799369], [107.45043123, 47.99049896], [107.45279477, 47.9937432], [107.45413945, 47.99442787], [107.4556714, 47.99454515], [107.45732053, 47.99248832], [107.45894588, 47.9923142], [107.46022693, 47.99139972], [107.46306942, 47.99028623], [107.46341923, 47.9895262], [107.46316482, 47.98892714], [107.46389474, 47.98831136], [107.46485095, 47.98835163], [107.46463333, 47.98596665], [107.4631045, 47.98376982], [107.44909304, 47.98233045], [107.42830683, 47.98167965], [107.42734303, 47.9830536]]]}, "geometry_name": "geom", "properties": {"guid": 87384, "id": 87384, "object_no": null, "object_name": null, "layer_type_id": 174, "valid_to": null, "address_no": null, "border_type": "solid", "border_width": 0, "border_color": null, "border_opacity": null, "border_wellknown": null, "fill_type": "color", "fill_color": "#b6d7a8", "fill_opacity": 0.5, "fill_wellknown": null, "fill_shape_color": null, "fill_shape_width": null, "fill_shape_size": null, "fill_img_url": null, "marker_img_url": null}},{"type": "Feature", "id": "layer_data_map.fid--27e80436_1a098c1eed1_-5428", "geometry": {"type": "Polygon", "coordinates": [[[106.49379352, 47.97454984], [106.49239482, 47.97467994], [106.47812831, 47.94227924], [106.35859434, 47.93004698], [106.3072497, 47.93829497], [106.28780524, 47.93600776], [106.13561413, 47.94733999], [106.12646678, 47.91782577], [106.26238369, 47.90711278], [106.35150211, 47.90218635], [106.36640009, 47.90371183], [106.40035595, 47.90165334], [106.42017784, 47.89476979], [106.520428, 47.89554509], [106.52556969, 47.90177778], [106.533139, 47.91095], [106.506039, 47.946549], [106.52172254, 47.95478509], [106.52300421, 47.95960422], [106.49379352, 47.97454984]]]}, "geometry_name": "geom", "properties": {"guid": 87386, "id": 87386, "object_no": null, "object_name": null, "layer_type_id": 174, "valid_to": null, "address_no": null, "border_type": "solid", "border_width": 0, "border_color": null, "border_opacity": null, "border_wellknown": null, "fill_type": "color", "fill_color": "#b6d7a8", "fill_opacity": 0.5, "fill_wellknown": null, "fill_shape_color": null, "fill_shape_width": null, "fill_shape_size": null, "fill_img_url": null, "marker_img_url": null}},{"type": "Feature", "id": "layer_data_map.fid--27e80436_1a098c1eed1_-5427", "geometry": {"type": "MultiPolygon", "coordinates": [[[[106.54312247, 47.91740175], [106.51967904, 47.93995216], [106.52025089, 47.94894144], [106.52166191, 47.95455711], [106.52172254, 47.95478509], [106.506039, 47.946549], [106.533139, 47.91095], [106.52556969, 47.90177778], [106.54312247, 47.91740175]]], [[[106.52617773, 47.97153266], [106.49379352, 47.97454984], [106.52300421, 47.95960422], [106.52617773, 47.97153266]]]]}, "geometry_name": "geom", "properties": {"guid": 87387, "id": 87387, "object_no": null, "object_name": null, "layer_type_id": 174, "valid_to": null, "address_no": null, "border_type": "solid", "border_width": 0, "border_color": null, "border_opacity": null, "border_wellknown": null, "fill_type": "color", "fill_color": "#b6d7a8", "fill_opacity": 0.5, "fill_wellknown": null, "fill_shape_color": null, "fill_shape_width": null, "fill_shape_size": null, "fill_img_url": null, "marker_img_url": null}},{"type": "Feature", "id": "layer_data_map.fid--27e80436_1a098c1eed1_-5426", "geometry": {"type": "Polygon", "coordinates": [[[106.51967904, 47.93995216], [106.52025089, 47.94894144], [106.52166191, 47.95455711], [106.52172254, 47.95478509], [106.52300421, 47.95960422], [106.52617773, 47.97153266], [106.49379352, 47.97454984], [106.49239482, 47.97467994], [106.47812831, 47.94227924], [106.35859434, 47.93004698], [106.3072497, 47.93829497], [106.28780524, 47.93600776], [106.13561413, 47.94733999], [106.12646678, 47.91782577], [106.26238369, 47.90711278], [106.35150211, 47.90218635], [106.36640009, 47.90371183], [106.40035595, 47.90165334], [106.42017784, 47.89476979], [106.520428, 47.89554509], [106.52556969, 47.90177778], [106.54312247, 47.91740175], [106.51967904, 47.93995216]]]}, "geometry_name": "geom", "properties": {"guid": 87388, "id": 87388, "object_no": null, "object_name": null, "layer_type_id": 174, "valid_to": null, "address_no": null, "border_type": "solid", "border_width": 0, "border_color": null, "border_opacity": null, "border_wellknown": null, "fill_type": "color", "fill_color": "#b6d7a8", "fill_opacity": 0.5, "fill_wellknown": null, "fill_shape_color": null, "fill_shape_width": null, "fill_shape_size": null, "fill_img_url": null, "marker_img_url": null}}]}