{"type":"FeatureCollection","features":[{"type": "Feature", "id": "layer_data_map.fid--27e80436_1a098c1eed1_-4f25", "geometry": {"type": "Polygon", "coordinates": [[[106.7086925, 47.62670278], [106.8871525, 47.58799444], [106.92859111, 47.6661725], [106.75605917, 47.69636917], [106.7086925, 47.62670278]]]}, "geometry_name": "geom", "properties": {"guid": 30787, "id": 30787, "object_no": null, "object_name": "Аэросити дагуул хотын суурьшлын бүсийн хил", "layer_type_id": 159, "valid_to": null, "address_no": null, "border_type": "dashed", "border_width": 1, "border_color": "#16537e", "border_opacity": null, "border_wellknown": "shape://horizline", "fill_type": "color", "fill_color": "#cfe2f3", "fill_opacity": 0.7, "fill_wellknown": null, "fill_shape_color": null, "fill_shape_width": null, "fill_shape_size": null, "fill_img_url": null, "marker_img_url": null}},{"type": "Feature", "id": "layer_data_map.fid--27e80436_1a098c1eed1_-4f24", "geometry": {"type": "Polygon", "coordinates": [[[106.55953561, 48.01971483], [106.54943243, 48.02837672], [106.51779665, 48.02595741], [106.51244115, 48.02002888], [106.50978194, 48.01062719], [106.49789474, 48.00569517], [106.4999555, 47.99556437], [106.524555, 47.98355778], [106.52616925, 47.98584234], [106.53487482, 47.9890297], [106.54053743, 47.9943528], [106.54710842, 47.99426447], [106.55426228, 47.98926523], [106.56249535, 47.97736436], [106.5812384, 47.96384632], [106.603222, 47.97418888], [106.5739446, 47.99467139], [106.57077928, 48.00219549], [106.56790291, 48.00737566], [106.56263402, 48.01160142], [106.55953561, 48.01971483]]]}, "geometry_name": "geom", "properties": {"guid": 30788, "id": 30788, "object_no": null, "object_name": "361-ын гарам хаяа тосгоны суурьшлын бүсийн хил хязгаар", "layer_type_id": 159, "valid_to": null, "address_no": null, "border_type": "dashed", "border_width": 1, "border_color": "#16537e", "border_opacity": null, "border_wellknown": "shape://horizline", "fill_type": "color", "fill_color": "#cfe2f3", "fill_opacity": 0.7, "fill_wellknown": null, "fill_shape_color": null, "fill_shape_width": null, "fill_shape_size": null, "fill_img_url": null, "marker_img_url": null}},{"type": "Feature", "id": "layer_data_map.fid--27e80436_1a098c1eed1_-4f23", "geometry": {"type": "Polygon", "coordinates": [[[106.56046121, 47.91382448], [106.55970113, 47.91451315], [106.5453781, 47.90576922], [106.54431451, 47.90521706], [106.54411442, 47.90510786], [106.5439083, 47.90500384], [106.54369647, 47.90490515], [106.54347923, 47.90481194], [106.54325688, 47.90472433], [106.54302975, 47.90464246], [106.54279816, 47.90456644], [106.54256245, 47.90449638], [106.54232296, 47.90443238], [106.54208003, 47.90437454], [106.54183402, 47.90432294], [106.52290605, 47.90018337], [106.52271422, 47.90014019], [106.5225257, 47.90009085], [106.52234094, 47.90003545], [106.52216036, 47.89997413], [106.52198439, 47.89990703], [106.52181343, 47.8998343], [106.52164788, 47.89975612], [106.52148812, 47.89967267], [106.52133454, 47.89958413], [106.52118747, 47.89949072], [106.52104728, 47.89939266], [106.52091427, 47.89929016], [106.51906639, 47.89776861], [106.51844076, 47.89748252], [106.51890619, 47.89723798], [106.51932471, 47.89695773], [106.5196484, 47.89668568], [106.51992779, 47.89639227], [106.52033871, 47.89578111], [106.52043518, 47.89561635], [106.51585424, 47.8900624], [106.51727404, 47.88149369], [106.51711577, 47.88141094], [106.51617839, 47.88068552], [106.51579729, 47.88024373], [106.51544451, 47.87965223], [106.51526001, 47.87921285], [106.51521259, 47.8788438], [106.51526201, 47.8784782], [106.51538553, 47.87816217], [106.51599852, 47.8769794], [106.51632393, 47.87647116], [106.51694474, 47.87581898], [106.51844855, 47.87440326], [106.51865302, 47.87316875], [106.51897575, 47.87122001], [106.54033938, 47.8472847], [106.55014317, 47.84269823], [106.55937353, 47.83266921], [106.5595455, 47.83147952], [106.55894864, 47.83049319], [106.55731335, 47.82920697], [106.55574197, 47.82877456], [106.55428043, 47.82875382], [106.55052171, 47.82957899], [106.5462282, 47.83045727], [106.53883761, 47.83231352], [106.53640353, 47.83242548], [106.53453211, 47.83183062], [106.53272286, 47.83027727], [106.53263005, 47.82852191], [106.53360205, 47.82724537], [106.53605793, 47.82566865], [106.54074179, 47.82306672], [106.54340517, 47.82194211], [106.54916239, 47.82027248], [106.56342607, 47.81326184], [106.57143102, 47.80842053], [106.5812354, 47.79992846], [106.58134317, 47.79919037], [106.5809902, 47.79797876], [106.58037147, 47.79738511], [106.57923447, 47.79696408], [106.57841153, 47.79681491], [106.58551564, 47.79074447], [106.592346, 47.78679918], [106.60023823, 47.79376648], [106.60355149, 47.79708298], [106.60607628, 47.79907095], [106.6118389, 47.80190619], [106.60667155, 47.8064765], [106.60326689, 47.81028766], [106.59691464, 47.80875356], [106.59603178, 47.80855909], [106.59465416, 47.80826742], [106.59429995, 47.80821016], [106.59394351, 47.80815956], [106.59358513, 47.80811565], [106.59322507, 47.80807846], [106.59286361, 47.80804803], [106.59250105, 47.80802437], [106.59213764, 47.80800751], [106.59177368, 47.80799746], [106.59140945, 47.80799423], [106.59104522, 47.80799782], [106.59068128, 47.80800822], [106.59031792, 47.80802544], [106.5899554, 47.80804944], [106.58959401, 47.80808023], [106.58923403, 47.80811777], [106.58887574, 47.80816203], [106.58851941, 47.80821298], [106.58816532, 47.80827059], [106.58781375, 47.80833479], [106.58746495, 47.80840556], [106.58711921, 47.80848283], [106.5867768, 47.80856654], [106.58643796, 47.80865662], [106.58610297, 47.80875302], [106.58577209, 47.80885565], [106.58544557, 47.80896443], [106.58512366, 47.80907929], [106.58480661, 47.80920012], [106.58449467, 47.80932685], [106.58418807, 47.80945936], [106.58388706, 47.80959756], [106.58359187, 47.80974135], [106.58484665, 47.81144025], [106.58541131, 47.81320256], [106.5849459, 47.8152308], [106.58672274, 47.81808609], [106.58852528, 47.82463793], [106.59476822, 47.83325478], [106.60086425, 47.84781729], [106.600195, 47.85904965], [106.60670714, 47.86147038], [106.61371125, 47.86649647], [106.6163065, 47.86888118], [106.62020733, 47.8767411], [106.61425408, 47.88814993], [106.60677473, 47.8914465], [106.60348903, 47.89538227], [106.60335758, 47.89560611], [106.60321646, 47.89582728], [106.60306579, 47.89604558], [106.60290569, 47.89626082], [106.6027363, 47.89647282], [106.60255776, 47.8966814], [106.60237023, 47.89688638], [106.60217386, 47.89708759], [106.60196884, 47.89728484], [106.60175532, 47.89747798], [106.60153349, 47.89766685], [106.60130355, 47.89785126], [106.60106569, 47.89803108], [106.60082011, 47.89820615], [106.60056702, 47.89837631], [106.60030664, 47.89854142], [106.59743527, 47.90011901], [106.58843519, 47.9108136], [106.5747564, 47.9069846], [106.56574087, 47.91052371], [106.56046121, 47.91382448]]]}, "geometry_name": "geom", "properties": {"guid": 30789, "id": 30789, "object_no": null, "object_name": "Аргалант-Эмээлт хаяа тосгоны суурьшлын бүсийн хил хязгаар", "layer_type_id": 159, "valid_to": null, "address_no": null, "border_type": "dashed", "border_width": 1, "border_color": "#16537e", "border_opacity": null, "border_wellknown": "shape://horizline", "fill_type": "color", "fill_color": "#cfe2f3", "fill_opacity": 0.7, "fill_wellknown": null, "fill_shape_color": null, "fill_shape_width": null, "fill_shape_size": null, "fill_img_url": null, "marker_img_url": null}},{"type": "Feature", "id": "layer_data_map.fid--27e80436_1a098c1eed1_-4f22", "geometry": {"type": "Polygon", "coordinates": [[[107.44302756, 47.40178226], [107.42210259, 47.39527265], [107.41916793, 47.38855906], [107.41965394, 47.37934426], [107.4254731, 47.36879035], [107.41212746, 47.36693244], [107.39057302, 47.35481372], [107.40418099, 47.34133983], [107.4118432, 47.34387467], [107.41523541, 47.33969974], [107.42281899, 47.33916382], [107.43233365, 47.33976412], [107.43909066, 47.34018994], [107.44783667, 47.3425051], [107.4554665, 47.34231577], [107.45800689, 47.33950315], [107.46110221, 47.33607565], [107.46951613, 47.32662478], [107.46956795, 47.32657634], [107.46962217, 47.32652914], [107.46967873, 47.32648322], [107.46973755, 47.32643863], [107.46979858, 47.32639544], [107.46986174, 47.32635369], [107.46992695, 47.32631342], [107.46999415, 47.32627469], [107.47006325, 47.32623754], [107.47013417, 47.32620202], [107.47020684, 47.32616816], [107.47028116, 47.326136], [107.47035705, 47.32610559], [107.47043442, 47.32607695], [107.47051318, 47.32605013], [107.47059324, 47.32602514], [107.4706745, 47.32600203], [107.47075688, 47.32598081], [107.47084028, 47.32596152], [107.47092459, 47.32594417], [107.47100973, 47.32592878], [107.47109558, 47.32591538], [107.47118206, 47.32590398], [107.47126906, 47.32589459], [107.47135648, 47.32588722], [107.47144422, 47.32588188], [107.47153218, 47.32587858], [107.47162025, 47.32587732], [107.47170833, 47.3258781], [107.47179633, 47.32588093], [107.47188413, 47.32588579], [107.47197163, 47.32589269], [107.47205874, 47.32590161], [107.47825781, 47.32759207], [107.49567357, 47.33231889], [107.4930334, 47.34009731], [107.50781886, 47.34245526], [107.51301177, 47.3429404], [107.52034329, 47.33911039], [107.53055371, 47.34681992], [107.52900349, 47.35282747], [107.51981308, 47.35829006], [107.5119366, 47.37210349], [107.49421269, 47.3693704], [107.48629089, 47.37224197], [107.48719994, 47.37383952], [107.47042896, 47.38883045], [107.46363452, 47.38526692], [107.44302756, 47.40178226]]]}, "geometry_name": "geom", "properties": {"guid": 30790, "id": 30790, "object_no": null, "object_name": "Багахангай дагуул хотын суурьшлын бүсийн хил хязгаар", "layer_type_id": 159, "valid_to": null, "address_no": null, "border_type": "dashed", "border_width": 1, "border_color": "#16537e", "border_opacity": null, "border_wellknown": "shape://horizline", "fill_type": "color", "fill_color": "#cfe2f3", "fill_opacity": 0.7, "fill_wellknown": null, "fill_shape_color": null, "fill_shape_width": null, "fill_shape_size": null, "fill_img_url": null, "marker_img_url": null}},{"type": "Feature", "id": "layer_data_map.fid--27e80436_1a098c1eed1_-4f21", "geometry": {"type": "Polygon", "coordinates": [[[108.41638848, 47.76735829], [108.4040795, 47.78488106], [108.36661354, 47.78511002], [108.36523089, 47.76892256], [108.34382885, 47.7483038], [108.34589638, 47.73995762], [108.35288078, 47.73614674], [108.34571318, 47.72582825], [108.37935121, 47.71402108], [108.39816845, 47.71892375], [108.41138134, 47.73754015], [108.40259665, 47.74472239], [108.41638848, 47.76735829]]]}, "geometry_name": "geom", "properties": {"guid": 30791, "id": 30791, "object_no": null, "object_name": "Багануур дагуул хотын суурьшлын бүсийн хил хязгаар", "layer_type_id": 159, "valid_to": null, "address_no": null, "border_type": "dashed", "border_width": 1, "border_color": "#16537e", "border_opacity": null, "border_wellknown": "shape://horizline", "fill_type": "color", "fill_color": "#cfe2f3", "fill_opacity": 0.7, "fill_wellknown": null, "fill_shape_color": null, "fill_shape_width": null, "fill_shape_size": null, "fill_img_url": null, "marker_img_url": null}},{"type": "Feature", "id": "layer_data_map.fid--27e80436_1a098c1eed1_-4f20", "geometry": {"type": "Polygon", "coordinates": [[[106.68498532, 47.84897402], [106.68794331, 47.85185354], [106.67604966, 47.86412338], [106.67226063, 47.86750623], [106.66395013, 47.87038268], [106.66020549, 47.86864571], [106.6611053, 47.86548741], [106.66549731, 47.86097015], [106.66297844, 47.85498895], [106.65372941, 47.85177094], [106.64745495, 47.84772763], [106.64873554, 47.84288677], [106.65743009, 47.83931693], [106.64819534, 47.82830499], [106.64861681, 47.82811037], [106.64502856, 47.82524493], [106.65138963, 47.82247211], [106.63637262, 47.80931764], [106.63108563, 47.81199139], [106.62957313, 47.80810063], [106.628563, 47.80610075], [106.62546567, 47.79683269], [106.62465347, 47.79569778], [106.62111475, 47.7919026], [106.62286616, 47.78881974], [106.61723245, 47.78332134], [106.60356065, 47.7902543], [106.59296365, 47.78168367], [106.57006264, 47.76152244], [106.5387093, 47.75685928], [106.52434119, 47.74874086], [106.52483378, 47.73167549], [106.5451073, 47.7283027], [106.5533329, 47.73482616], [106.56344515, 47.74113103], [106.62329855, 47.74432522], [106.66019531, 47.74283929], [106.66322861, 47.76813328], [106.64291662, 47.77097389], [106.6234348, 47.77392608], [106.62251754, 47.77626153], [106.62773006, 47.77697385], [106.64136199, 47.77869763], [106.64087616, 47.77947306], [106.65569146, 47.78005661], [106.65498091, 47.78581377], [106.65003764, 47.78627987], [106.64400512, 47.78799743], [106.6364192, 47.79033152], [106.63482017, 47.79276932], [106.63495131, 47.79262407], [106.6318039, 47.7966172], [106.63360616, 47.79968422], [106.63446973, 47.80081648], [106.6380628, 47.80701434], [106.65600254, 47.82478153], [106.66528207, 47.82225569], [106.67163881, 47.82891476], [106.67430339, 47.83535183], [106.67722271, 47.83696263], [106.68411201, 47.83465718], [106.68931929, 47.83733636], [106.69346435, 47.8397995], [106.69636708, 47.84618844], [106.69083859, 47.84627002], [106.68498532, 47.84897402]]]}, "geometry_name": "geom", "properties": {"guid": 30792, "id": 30792, "object_no": null, "object_name": "Био Сонгино, Туул хаяа тосгоны суурьшлын бүсийн хил хязгаар", "layer_type_id": 159, "valid_to": null, "address_no": null, "border_type": "dashed", "border_width": 1, "border_color": "#16537e", "border_opacity": null, "border_wellknown": "shape://horizline", "fill_type": "color", "fill_color": "#cfe2f3", "fill_opacity": 0.7, "fill_wellknown": null, "fill_shape_color": null, "fill_shape_width": null, "fill_shape_size": null, "fill_img_url": null, "marker_img_url": null}},{"type": "Feature", "id": "layer_data_map.fid--27e80436_1a098c1eed1_-4f1f", "geometry": {"type": "Polygon", "coordinates": [[[107.16878248, 47.96341047], [107.16024943, 47.96381714], [107.15781087, 47.95034137], [107.15997832, 47.9458801], [107.15971617, 47.94144039], [107.1581671, 47.93701381], [107.15631097, 47.93396643], [107.15359608, 47.93153122], [107.14615597, 47.9322472], [107.14122436, 47.93649554], [107.13312932, 47.93209725], [107.13309222, 47.92927007], [107.13549967, 47.9256168], [107.12770831, 47.92347586], [107.12266788, 47.92114049], [107.11174441, 47.91951083], [107.1027358, 47.91852196], [107.10374284, 47.91098085], [107.11881261, 47.90971973], [107.13882776, 47.91482059], [107.15749365, 47.91520283], [107.16172729, 47.91673759], [107.16549379, 47.91180051], [107.17488713, 47.91115777], [107.17894845, 47.92314766], [107.17745769, 47.92634077], [107.17863643, 47.92742444], [107.16888309, 47.92869006], [107.16156445, 47.93129056], [107.17005353, 47.93234085], [107.17172226, 47.93921594], [107.16986397, 47.94133834], [107.16694096, 47.94281634], [107.16628739, 47.9462479], [107.16883027, 47.94860097], [107.17241081, 47.94886859], [107.1796308, 47.95076795], [107.18296742, 47.95470062], [107.18337922, 47.95656685], [107.18028272, 47.95697443], [107.17585628, 47.95360116], [107.16901012, 47.95186974], [107.16802796, 47.95461345], [107.16835154, 47.9555783], [107.16631814, 47.95769072], [107.16791587, 47.96107346], [107.16878248, 47.96341047]]]}, "geometry_name": "geom", "properties": {"guid": 30793, "id": 30793, "object_no": null, "object_name": "Гачуурт хаяа тосгоны суурьшлын бүсийн хил хязгаар", "layer_type_id": 159, "valid_to": null, "address_no": null, "border_type": "dashed", "border_width": 1, "border_color": "#16537e", "border_opacity": null, "border_wellknown": "shape://horizline", "fill_type": "color", "fill_color": "#cfe2f3", "fill_opacity": 0.7, "fill_wellknown": null, "fill_shape_color": null, "fill_shape_width": null, "fill_shape_size": null, "fill_img_url": null, "marker_img_url": null}},{"type": "Feature", "id": "layer_data_map.fid--27e80436_1a098c1eed1_-4f1e", "geometry": {"type": "Polygon", "coordinates": [[[107.1882391, 47.81988321], [107.1747719, 47.82947138], [107.14797138, 47.81994416], [107.15454576, 47.80265228], [107.17662175, 47.80749891], [107.1839967, 47.80233891], [107.19081503, 47.79770752], [107.19072111, 47.78771838], [107.22676469, 47.7612236], [107.2327128, 47.78976344], [107.22967541, 47.7958978], [107.22474604, 47.79884805], [107.21308361, 47.80456312], [107.20897193, 47.81144935], [107.19508241, 47.81580006], [107.1882391, 47.81988321]]]}, "geometry_name": "geom", "properties": {"guid": 30794, "id": 30794, "object_no": null, "object_name": "Хонхор хаяа хотын суурьшлын бүсийн хил хязгаар", "layer_type_id": 159, "valid_to": null, "address_no": null, "border_type": "dashed", "border_width": 1, "border_color": "#16537e", "border_opacity": null, "border_wellknown": "shape://horizline", "fill_type": "color", "fill_color": "#cfe2f3", "fill_opacity": 0.7, "fill_wellknown": null, "fill_shape_color": null, "fill_shape_width": null, "fill_shape_size": null, "fill_img_url": null, "marker_img_url": null}},{"type": "Feature", "id": "layer_data_map.fid--27e80436_1a098c1eed1_-4f1d", "geometry": {"type": "Polygon", "coordinates": [[[106.65901236, 48.126084], [106.65928312, 48.1344874], [106.61553441, 48.13378968], [106.61411481, 48.1314676], [106.65197249, 48.11651701], [106.65901236, 48.126084]]]}, "geometry_name": "geom", "properties": {"guid": 30795, "id": 30795, "object_no": null, "object_name": "Жаргалант хаяа тосгоны суурьшлын бүсийн хил хязгаар", "layer_type_id": 159, "valid_to": null, "address_no": null, "border_type": "dashed", "border_width": 1, "border_color": "#16537e", "border_opacity": null, "border_wellknown": "shape://horizline", "fill_type": "color", "fill_color": "#cfe2f3", "fill_opacity": 0.7, "fill_wellknown": null, "fill_shape_color": null, "fill_shape_width": null, "fill_shape_size": null, "fill_img_url": null, "marker_img_url": null}},{"type": "Feature", "id": "layer_data_map.fid--27e80436_1a098c1eed1_-4f1c", "geometry": {"type": "MultiPolygon", "coordinates": [[[[107.25228502, 47.79850802], [107.24862312, 47.79816403], [107.24835485, 47.79821838], [107.24746979, 47.79805566], [107.24302271, 47.7976377], [107.24289848, 47.79506329], [107.24230668, 47.79382503], [107.23830219, 47.79245304], [107.23762948, 47.79212106], [107.23592551, 47.79188556], [107.23599631, 47.79131505], [107.23170656, 47.78919774], [107.22795192, 47.78806222], [107.22606044, 47.78576252], [107.2267796, 47.78300931], [107.23162708, 47.77896737], [107.23475156, 47.77657013], [107.23572565, 47.77580274], [107.23284775, 47.76448379], [107.24016821, 47.76086695], [107.23954646, 47.7602022], [107.23778182, 47.75806134], [107.23771621, 47.75653185], [107.24314175, 47.75489512], [107.24560196, 47.75653889], [107.24757037, 47.75720878], [107.25060284, 47.75570984], [107.25892198, 47.75561645], [107.26318562, 47.75425973], [107.27023805, 47.75548844], [107.27576614, 47.7554255], [107.32502525, 47.75210467], [107.37524772, 47.74626999], [107.41053566, 47.75033956], [107.40636758, 47.76230425], [107.34920448, 47.77383566], [107.29917192, 47.79025185], [107.27731169, 47.78824507], [107.27712885, 47.78903029], [107.27624008, 47.79057869], [107.27727662, 47.79241114], [107.27530564, 47.79381988], [107.27416599, 47.79410121], [107.27158122, 47.79663637], [107.26975317, 47.79688732], [107.26947295, 47.79715806], [107.26604693, 47.798112], [107.26206947, 47.79738483], [107.25760029, 47.79634493], [107.25449878, 47.7969735], [107.25228502, 47.79850802]]], [[[107.4054172, 47.78340592], [107.40591157, 47.78902605], [107.40665066, 47.79330715], [107.40686854, 47.7956262], [107.4040986, 47.79589697], [107.39941055, 47.79181638], [107.39774811, 47.79096625], [107.3965006, 47.78849794], [107.39394487, 47.78708002], [107.38797766, 47.78556358], [107.38190134, 47.78418821], [107.3735902, 47.7828313], [107.3679245, 47.78310527], [107.36764157, 47.78312546], [107.36718975, 47.77597743], [107.38766482, 47.77283879], [107.39430625, 47.77174474], [107.40536726, 47.77962031], [107.4054172, 47.78340592]]]]}, "geometry_name": "geom", "properties": {"guid": 30796, "id": 30796, "object_no": null, "object_name": "Налайх хаяа хотын суурьшлын бүсийн хил хязгаар", "layer_type_id": 159, "valid_to": null, "address_no": null, "border_type": "dashed", "border_width": 1, "border_color": "#16537e", "border_opacity": null, "border_wellknown": "shape://horizline", "fill_type": "color", "fill_color": "#cfe2f3", "fill_opacity": 0.7, "fill_wellknown": null, "fill_shape_color": null, "fill_shape_width": null, "fill_shape_size": null, "fill_img_url": null, "marker_img_url": null}},{"type": "Feature", "id": "layer_data_map.fid--27e80436_1a098c1eed1_-4f1b", "geometry": {"type": "Polygon", "coordinates": [[[106.58945986, 48.069745], [106.58304659, 48.07409237], [106.57400071, 48.07189938], [106.55821711, 48.06954674], [106.55698481, 48.05659913], [106.56621736, 48.04964698], [106.58945986, 48.069745]]]}, "geometry_name": "geom", "properties": {"guid": 30797, "id": 30797, "object_no": null, "object_name": "Рашаант хаяа тосгоны суурьшлын бүсийн хил хязгаар", "layer_type_id": 159, "valid_to": null, "address_no": null, "border_type": "dashed", "border_width": 1, "border_color": "#16537e", "border_opacity": null, "border_wellknown": "shape://horizline", "fill_type": "color", "fill_color": "#cfe2f3", "fill_opacity": 0.7, "fill_wellknown": null, "fill_shape_color": null, "fill_shape_width": null, "fill_shape_size": null, "fill_img_url": null, "marker_img_url": null}},{"type": "Feature", "id": "layer_data_map.fid--27e80436_1a098c1eed1_-4f1a", "geometry": {"type": "Polygon", "coordinates": [[[106.7275559, 47.79829308], [106.72103006, 47.8005869], [106.71674729, 47.80065105], [106.71546486, 47.79888457], [106.70713948, 47.80010759], [106.70164202, 47.80046395], [106.69482702, 47.797955], [106.68925847, 47.79611409], [106.67746847, 47.79149548], [106.6781002, 47.77900464], [106.73636112, 47.76644438], [106.74583612, 47.78202222], [106.74337055, 47.7852776], [106.73254209, 47.78475481], [106.72931647, 47.78590234], [106.72726537, 47.79044496], [106.72544924, 47.79295729], [106.7275559, 47.79829308]]]}, "geometry_name": "geom", "properties": {"guid": 30798, "id": 30798, "object_no": null, "object_name": "Өлзийт хаяа тосгоны суурьшлын бүсийн хил хязгаар", "layer_type_id": 159, "valid_to": null, "address_no": null, "border_type": "dashed", "border_width": 1, "border_color": "#16537e", "border_opacity": null, "border_wellknown": "shape://horizline", "fill_type": "color", "fill_color": "#cfe2f3", "fill_opacity": 0.7, "fill_wellknown": null, "fill_shape_color": null, "fill_shape_width": null, "fill_shape_size": null, "fill_img_url": null, "marker_img_url": null}},{"type": "Feature", "id": "layer_data_map.fid--27e80436_1a098c1eed1_-4f19", "geometry": {"type": "Polygon", "coordinates": [[[106.70093507, 48.23032223], [106.67664663, 48.23175669], [106.65847195, 48.23753343], [106.61204132, 48.23213092], [106.57223679, 48.224804], [106.58139968, 48.19352929], [106.60226813, 48.18006148], [106.60841214, 48.1800874], [106.61811391, 48.19485745], [106.66754743, 48.19807048], [106.65825841, 48.16308518], [106.59686586, 48.1684248], [106.59011879, 48.16280705], [106.60013732, 48.14574679], [106.61998241, 48.13883105], [106.62330983, 48.13548292], [106.64349932, 48.13608187], [106.64715969, 48.13196244], [106.66036305, 48.13247298], [106.65993844, 48.1405893], [106.64687492, 48.14732821], [106.65054428, 48.15108651], [106.65931547, 48.15031654], [106.66387727, 48.15541021], [106.6718285, 48.15179591], [106.67323311, 48.14775035], [106.68858763, 48.1398473], [106.69940945, 48.14744736], [106.70408459, 48.15917145], [106.70816217, 48.16302432], [106.71494039, 48.168269], [106.71649384, 48.16963769], [106.7201717, 48.17533981], [106.72316061, 48.17960384], [106.73777704, 48.20653758], [106.75874629, 48.21412039], [106.76888456, 48.22479884], [106.74507707, 48.22785242], [106.70093507, 48.23032223]]]}, "geometry_name": "geom", "properties": {"guid": 1437329, "id": 1437329, "object_no": null, "object_name": null, "layer_type_id": 159, "valid_to": null, "address_no": null, "border_type": "dashed", "border_width": 1, "border_color": "#16537e", "border_opacity": null, "border_wellknown": "shape://horizline", "fill_type": "color", "fill_color": "#cfe2f3", "fill_opacity": 0.7, "fill_wellknown": null, "fill_shape_color": null, "fill_shape_width": null, "fill_shape_size": null, "fill_img_url": null, "marker_img_url": null}},{"type": "Feature", "id": "layer_data_map.fid--27e80436_1a098c1eed1_-4f18", "geometry": {"type": "Polygon", "coordinates": [[[106.71645194, 47.69877972], [106.69458472, 47.7001175], [106.68268778, 47.70084333], [106.68039278, 47.70098333], [106.61967222, 47.74483417], [106.59295444, 47.73657583], [106.59298111, 47.73655222], [106.57258444, 47.72027417], [106.56773861, 47.71630694], [106.57516917, 47.71437694], [106.58447639, 47.71200306], [106.59287722, 47.70985944], [106.60041278, 47.70793583], [106.60708833, 47.70623139], [106.61401694, 47.70441111], [106.62017083, 47.70235722], [106.62721611, 47.69928361], [106.63137861, 47.69702556], [106.63683028, 47.69342556], [106.64395778, 47.6880275], [106.64952806, 47.68380389], [106.65444389, 47.68005083], [106.6621625, 47.67422111], [106.66989833, 47.66803472], [106.67382139, 47.66485667], [106.67970583, 47.66008917], [106.68644194, 47.65463], [106.68893361, 47.65148028], [106.69127611, 47.64785611], [106.69364083, 47.64290639], [106.69732556, 47.63335167], [106.70056, 47.62496167], [106.70110083, 47.62356667], [106.71516472, 47.58744833], [106.72043889, 47.57868722], [106.72054722, 47.57854139], [106.72076528, 47.57824972], [106.72120278, 47.57767389], [106.72197722, 47.57668694], [106.72253139, 47.57600722], [106.72285889, 47.575615], [106.723235, 47.5751725], [106.723575, 47.57477722], [106.72390444, 47.57440333], [106.72444417, 47.57380083], [106.72494083, 47.57326], [106.72620139, 47.57193833], [106.72775083, 47.57040694], [106.72967972, 47.56862667], [106.73054972, 47.56786472], [106.73107222, 47.56741833], [106.73179556, 47.56681417], [106.73254333, 47.56620472], [106.73411556, 47.56497222], [106.73630167, 47.56336028], [106.73667278, 47.56309778], [106.73719833, 47.56273], [106.73785222, 47.56228194], [106.73845028, 47.56188028], [106.73884833, 47.56161833], [106.74000889, 47.5608975], [106.74023806, 47.56075611], [106.74054111, 47.56056917], [106.77181333, 47.54127278], [106.78839694, 47.53103083], [106.795695, 47.52652167], [106.81596722, 47.51398944], [106.82388833, 47.50909028], [106.86909056, 47.56003583], [106.87735722, 47.56934], [106.8796475, 47.57191722], [106.92482, 47.61019417], [106.92634806, 47.63354222], [106.96797, 47.63682111], [107.01310611, 47.64554083], [107.01256028, 47.64722306], [107.00976, 47.65561083], [107.00975528, 47.65562472], [107.009755, 47.65562861], [107.0092225, 47.66263667], [106.98808417, 47.66112194], [106.98076889, 47.66041889], [106.97702028, 47.66012611], [106.97406528, 47.65989528], [106.958335, 47.658665], [106.94810306, 47.65786361], [106.94773028, 47.66371333], [106.94767361, 47.66381389], [106.93910722, 47.66548556], [106.93468194, 47.66689611], [106.93097222, 47.66807861], [106.93072944, 47.66817306], [106.92644861, 47.67012278], [106.92627944, 47.67021056], [106.92204806, 47.67266556], [106.92174917, 47.67287111], [106.91790139, 47.67603722], [106.91977333, 47.68078306], [106.91968111, 47.68079639], [106.91460972, 47.681815], [106.90558972, 47.68362639], [106.88854389, 47.68704694], [106.83796611, 47.69717917], [106.82313556, 47.69806306], [106.79407083, 47.69809278], [106.75608833, 47.69636417], [106.75605917, 47.69636917], [106.75605472, 47.6963625], [106.75590028, 47.69635556], [106.71645194, 47.69877972]]]}, "geometry_name": "geom", "properties": {"guid": 1439771, "id": 1439771, "object_no": null, "object_name": null, "layer_type_id": 159, "valid_to": null, "address_no": null, "border_type": "dashed", "border_width": 1, "border_color": "#16537e", "border_opacity": null, "border_wellknown": "shape://horizline", "fill_type": "color", "fill_color": "#cfe2f3", "fill_opacity": 0.7, "fill_wellknown": null, "fill_shape_color": null, "fill_shape_width": null, "fill_shape_size": null, "fill_img_url": null, "marker_img_url": null}}]}