{"type":"FeatureCollection","features":[{"type": "Feature", "id": "layer_data_map.fid--27e80436_1a098c1eed1_-54ad", "geometry": {"type": "Polygon", "coordinates": [[[106.9079899, 47.89990963], [106.90814687, 47.89993218], [106.90811335, 47.90003774], [106.90795637, 47.90001519], [106.9079899, 47.89990963]]]}, "geometry_name": "geom", "properties": {"guid": 85944, "id": 85944, "object_no": null, "object_name": "АТС-34", "layer_type_id": 134, "valid_to": null, "address_no": null, "border_type": "solid", "border_width": 1, "border_color": "#8e40d6", "border_opacity": null, "border_wellknown": "shape://horizline", "fill_type": "color", "fill_color": "#994fde", "fill_opacity": 0.8, "fill_wellknown": null, "fill_shape_color": null, "fill_shape_width": null, "fill_shape_size": null, "fill_img_url": null, "marker_img_url": null}},{"type": "Feature", "id": "layer_data_map.fid--27e80436_1a098c1eed1_-54ac", "geometry": {"type": "Polygon", "coordinates": [[[106.81661926, 47.91107459], [106.81677863, 47.91108767], [106.81675918, 47.91119482], [106.81659981, 47.91118174], [106.81661926, 47.91107459]]]}, "geometry_name": "geom", "properties": {"guid": 85945, "id": 85945, "object_no": null, "object_name": "АТС-63", "layer_type_id": 134, "valid_to": null, "address_no": null, "border_type": "solid", "border_width": 1, "border_color": "#8e40d6", "border_opacity": null, "border_wellknown": "shape://horizline", "fill_type": "color", "fill_color": "#994fde", "fill_opacity": 0.8, "fill_wellknown": null, "fill_shape_color": null, "fill_shape_width": null, "fill_shape_size": null, "fill_img_url": null, "marker_img_url": null}},{"type": "Feature", "id": "layer_data_map.fid--27e80436_1a098c1eed1_-54ab", "geometry": {"type": "Polygon", "coordinates": [[[106.83707536, 47.9122787], [106.83712768, 47.91232207], [106.83706317, 47.91235725], [106.83701085, 47.91231388], [106.83707536, 47.9122787]]]}, "geometry_name": "geom", "properties": {"guid": 85946, "id": 85946, "object_no": null, "object_name": "АТС-68", "layer_type_id": 134, "valid_to": null, "address_no": null, "border_type": "solid", "border_width": 1, "border_color": "#8e40d6", "border_opacity": null, "border_wellknown": "shape://horizline", "fill_type": "color", "fill_color": "#994fde", "fill_opacity": 0.8, "fill_wellknown": null, "fill_shape_color": null, "fill_shape_width": null, "fill_shape_size": null, "fill_img_url": null, "marker_img_url": null}},{"type": "Feature", "id": "layer_data_map.fid--27e80436_1a098c1eed1_-54aa", "geometry": {"type": "Polygon", "coordinates": [[[106.87997973, 47.92030449], [106.88014018, 47.920309], [106.88013348, 47.92041685], [106.87997303, 47.92041234], [106.87997973, 47.92030449]]]}, "geometry_name": "geom", "properties": {"guid": 85948, "id": 85948, "object_no": null, "object_name": "АТС-36", "layer_type_id": 134, "valid_to": null, "address_no": null, "border_type": "solid", "border_width": 1, "border_color": "#8e40d6", "border_opacity": null, "border_wellknown": "shape://horizline", "fill_type": "color", "fill_color": "#994fde", "fill_opacity": 0.8, "fill_wellknown": null, "fill_shape_color": null, "fill_shape_width": null, "fill_shape_size": null, "fill_img_url": null, "marker_img_url": null}},{"type": "Feature", "id": "layer_data_map.fid--27e80436_1a098c1eed1_-54a9", "geometry": {"type": "Polygon", "coordinates": [[[106.91552283, 47.91702733], [106.91568335, 47.91702465], [106.91568733, 47.91713256], [106.91552681, 47.91713524], [106.91552283, 47.91702733]]]}, "geometry_name": "geom", "properties": {"guid": 85950, "id": 85950, "object_no": null, "object_name": "АТС-32", "layer_type_id": 134, "valid_to": null, "address_no": null, "border_type": "solid", "border_width": 1, "border_color": "#8e40d6", "border_opacity": null, "border_wellknown": "shape://horizline", "fill_type": "color", "fill_color": "#994fde", "fill_opacity": 0.8, "fill_wellknown": null, "fill_shape_color": null, "fill_shape_width": null, "fill_shape_size": null, "fill_img_url": null, "marker_img_url": null}},{"type": "Feature", "id": "layer_data_map.fid--27e80436_1a098c1eed1_-54a8", "geometry": {"type": "Polygon", "coordinates": [[[106.92150402, 47.92861725], [106.9216631, 47.9286321], [106.921641, 47.92873901], [106.92148193, 47.92872416], [106.92150402, 47.92861725]]]}, "geometry_name": "geom", "properties": {"guid": 85951, "id": 85951, "object_no": null, "object_name": "АТС-35", "layer_type_id": 134, "valid_to": null, "address_no": null, "border_type": "solid", "border_width": 1, "border_color": "#8e40d6", "border_opacity": null, "border_wellknown": "shape://horizline", "fill_type": "color", "fill_color": "#994fde", "fill_opacity": 0.8, "fill_wellknown": null, "fill_shape_color": null, "fill_shape_width": null, "fill_shape_size": null, "fill_img_url": null, "marker_img_url": null}},{"type": "Feature", "id": "layer_data_map.fid--27e80436_1a098c1eed1_-54a7", "geometry": {"type": "Polygon", "coordinates": [[[106.95314454, 47.91819629], [106.95330301, 47.91817887], [106.95332892, 47.91828539], [106.95317046, 47.91830281], [106.95314454, 47.91819629]]]}, "geometry_name": "geom", "properties": {"guid": 85952, "id": 85952, "object_no": null, "object_name": "АТС-45", "layer_type_id": 134, "valid_to": null, "address_no": null, "border_type": "solid", "border_width": 1, "border_color": "#8e40d6", "border_opacity": null, "border_wellknown": "shape://horizline", "fill_type": "color", "fill_color": "#994fde", "fill_opacity": 0.8, "fill_wellknown": null, "fill_shape_color": null, "fill_shape_width": null, "fill_shape_size": null, "fill_img_url": null, "marker_img_url": null}},{"type": "Feature", "id": "layer_data_map.fid--27e80436_1a098c1eed1_-54a6", "geometry": {"type": "Polygon", "coordinates": [[[106.91428496, 47.95415825], [106.91460611, 47.95416626], [106.91459419, 47.95438199], [106.91427304, 47.95437398], [106.91428496, 47.95415825]]]}, "geometry_name": "geom", "properties": {"guid": 85953, "id": 85953, "object_no": null, "object_name": "Холбох АТС-352", "layer_type_id": 134, "valid_to": null, "address_no": null, "border_type": "solid", "border_width": 1, "border_color": "#8e40d6", "border_opacity": null, "border_wellknown": "shape://horizline", "fill_type": "color", "fill_color": "#994fde", "fill_opacity": 0.8, "fill_wellknown": null, "fill_shape_color": null, "fill_shape_width": null, "fill_shape_size": null, "fill_img_url": null, "marker_img_url": null}},{"type": "Feature", "id": "layer_data_map.fid--27e80436_1a098c1eed1_-54a5", "geometry": {"type": "Polygon", "coordinates": [[[106.75777592, 47.91139011], [106.75793528, 47.91140327], [106.75791571, 47.91151041], [106.75775635, 47.91149725], [106.75777592, 47.91139011]]]}, "geometry_name": "geom", "properties": {"guid": 1046033, "id": 1046033, "object_no": null, "object_name": "Наран станц", "layer_type_id": 134, "valid_to": null, "address_no": null, "border_type": "solid", "border_width": 1, "border_color": "#8e40d6", "border_opacity": null, "border_wellknown": "shape://horizline", "fill_type": "color", "fill_color": "#994fde", "fill_opacity": 0.8, "fill_wellknown": null, "fill_shape_color": null, "fill_shape_width": null, "fill_shape_size": null, "fill_img_url": null, "marker_img_url": null}},{"type": "Feature", "id": "layer_data_map.fid--27e80436_1a098c1eed1_-54a4", "geometry": {"type": "Polygon", "coordinates": [[[106.81819598, 47.86955645], [106.81835283, 47.86957912], [106.81831914, 47.86968465], [106.81816229, 47.86966198], [106.81819598, 47.86955645]]]}, "geometry_name": "geom", "properties": {"guid": 1046034, "id": 1046034, "object_no": null, "object_name": "Холбох АТС-379", "layer_type_id": 134, "valid_to": null, "address_no": null, "border_type": "solid", "border_width": 1, "border_color": "#8e40d6", "border_opacity": null, "border_wellknown": "shape://horizline", "fill_type": "color", "fill_color": "#994fde", "fill_opacity": 0.8, "fill_wellknown": null, "fill_shape_color": null, "fill_shape_width": null, "fill_shape_size": null, "fill_img_url": null, "marker_img_url": null}},{"type": "Feature", "id": "layer_data_map.fid--27e80436_1a098c1eed1_-54a3", "geometry": {"type": "Polygon", "coordinates": [[[106.8334686, 47.9540663], [106.83346181, 47.95417414], [106.83330126, 47.95416958], [106.83330806, 47.95406173], [106.8334686, 47.9540663]]]}, "geometry_name": "geom", "properties": {"guid": 1046037, "id": 1046037, "object_no": null, "object_name": "Баянхошуу дэд төв", "layer_type_id": 134, "valid_to": null, "address_no": null, "border_type": "solid", "border_width": 1, "border_color": "#8e40d6", "border_opacity": null, "border_wellknown": "shape://horizline", "fill_type": "color", "fill_color": "#994fde", "fill_opacity": 0.8, "fill_wellknown": null, "fill_shape_color": null, "fill_shape_width": null, "fill_shape_size": null, "fill_img_url": null, "marker_img_url": null}}]}