{"type":"FeatureCollection","features":[{"type": "Feature", "id": "layer_data_map.fid--27e80436_1a098b908f8_75f0", "geometry": {"type": "Point", "coordinates": [106.90505472, 47.91693648]}, "geometry_name": "geom", "properties": {"guid": 7135, "id": 7135, "object_no": null, "object_name": null, "layer_type_id": 228, "valid_to": null, "address_no": null, "border_type": "solid", "border_width": null, "border_color": null, "border_opacity": null, "border_wellknown": "horizline", "fill_type": "color", "fill_color": "#ae7adf", "fill_opacity": 1, "fill_wellknown": "horizline", "fill_shape_color": null, "fill_shape_width": null, "fill_shape_size": null, "fill_img_url": null, "marker_img_url": null}},{"type": "Feature", "id": "layer_data_map.fid--27e80436_1a098b908f8_75f1", "geometry": {"type": "Point", "coordinates": [106.87962925, 47.90040377]}, "geometry_name": "geom", "properties": {"guid": 7136, "id": 7136, "object_no": null, "object_name": null, "layer_type_id": 228, "valid_to": null, "address_no": null, "border_type": "solid", "border_width": null, "border_color": null, "border_opacity": null, "border_wellknown": "horizline", "fill_type": "color", "fill_color": "#ae7adf", "fill_opacity": 1, "fill_wellknown": "horizline", "fill_shape_color": null, "fill_shape_width": null, "fill_shape_size": null, "fill_img_url": null, "marker_img_url": null}},{"type": "Feature", "id": "layer_data_map.fid--27e80436_1a098b908f8_75f2", "geometry": {"type": "Point", "coordinates": [106.86737704, 47.90179209]}, "geometry_name": "geom", "properties": {"guid": 7137, "id": 7137, "object_no": null, "object_name": null, "layer_type_id": 228, "valid_to": null, "address_no": null, "border_type": "solid", "border_width": null, "border_color": null, "border_opacity": null, "border_wellknown": "horizline", "fill_type": "color", "fill_color": "#ae7adf", "fill_opacity": 1, "fill_wellknown": "horizline", "fill_shape_color": null, "fill_shape_width": null, "fill_shape_size": null, "fill_img_url": null, "marker_img_url": null}},{"type": "Feature", "id": "layer_data_map.fid--27e80436_1a098b908f8_75f3", "geometry": {"type": "Point", "coordinates": [106.88525052, 47.89404933]}, "geometry_name": "geom", "properties": {"guid": 7138, "id": 7138, "object_no": null, "object_name": null, "layer_type_id": 228, "valid_to": null, "address_no": null, "border_type": "solid", "border_width": null, "border_color": null, "border_opacity": null, "border_wellknown": "horizline", "fill_type": "color", "fill_color": "#ae7adf", "fill_opacity": 1, "fill_wellknown": "horizline", "fill_shape_color": null, "fill_shape_width": null, "fill_shape_size": null, "fill_img_url": null, "marker_img_url": null}},{"type": "Feature", "id": "layer_data_map.fid--27e80436_1a098b908f8_75f4", "geometry": {"type": "Point", "coordinates": [106.86626478, 47.91454551]}, "geometry_name": "geom", "properties": {"guid": 7139, "id": 7139, "object_no": null, "object_name": null, "layer_type_id": 228, "valid_to": null, "address_no": null, "border_type": "solid", "border_width": null, "border_color": null, "border_opacity": null, "border_wellknown": "horizline", "fill_type": "color", "fill_color": "#ae7adf", "fill_opacity": 1, "fill_wellknown": "horizline", "fill_shape_color": null, "fill_shape_width": null, "fill_shape_size": null, "fill_img_url": null, "marker_img_url": null}},{"type": "Feature", "id": "layer_data_map.fid--27e80436_1a098b908f8_75f5", "geometry": {"type": "Point", "coordinates": [106.89517589, 47.91352968]}, "geometry_name": "geom", "properties": {"guid": 7140, "id": 7140, "object_no": null, "object_name": null, "layer_type_id": 228, "valid_to": null, "address_no": null, "border_type": "solid", "border_width": null, "border_color": null, "border_opacity": null, "border_wellknown": "horizline", "fill_type": "color", "fill_color": "#ae7adf", "fill_opacity": 1, "fill_wellknown": "horizline", "fill_shape_color": null, "fill_shape_width": null, "fill_shape_size": null, "fill_img_url": null, "marker_img_url": null}},{"type": "Feature", "id": "layer_data_map.fid--27e80436_1a098b908f8_75f6", "geometry": {"type": "Point", "coordinates": [106.91323535, 47.92234721]}, "geometry_name": "geom", "properties": {"guid": 7141, "id": 7141, "object_no": null, "object_name": null, "layer_type_id": 228, "valid_to": null, "address_no": null, "border_type": "solid", "border_width": null, "border_color": null, "border_opacity": null, "border_wellknown": "horizline", "fill_type": "color", "fill_color": "#ae7adf", "fill_opacity": 1, "fill_wellknown": "horizline", "fill_shape_color": null, "fill_shape_width": null, "fill_shape_size": null, "fill_img_url": null, "marker_img_url": null}},{"type": "Feature", "id": "layer_data_map.fid--27e80436_1a098b908f8_75f7", "geometry": {"type": "Point", "coordinates": [106.92521974, 47.92867457]}, "geometry_name": "geom", "properties": {"guid": 7142, "id": 7142, "object_no": null, "object_name": null, "layer_type_id": 228, "valid_to": null, "address_no": null, "border_type": "solid", "border_width": null, "border_color": null, "border_opacity": null, "border_wellknown": "horizline", "fill_type": "color", "fill_color": "#ae7adf", "fill_opacity": 1, "fill_wellknown": "horizline", "fill_shape_color": null, "fill_shape_width": null, "fill_shape_size": null, "fill_img_url": null, "marker_img_url": null}},{"type": "Feature", "id": "layer_data_map.fid--27e80436_1a098b908f8_75f8", "geometry": {"type": "Point", "coordinates": [106.94305116, 47.9119657]}, "geometry_name": "geom", "properties": {"guid": 7143, "id": 7143, "object_no": null, "object_name": null, "layer_type_id": 228, "valid_to": null, "address_no": null, "border_type": "solid", "border_width": null, "border_color": null, "border_opacity": null, "border_wellknown": "horizline", "fill_type": "color", "fill_color": "#ae7adf", "fill_opacity": 1, "fill_wellknown": "horizline", "fill_shape_color": null, "fill_shape_width": null, "fill_shape_size": null, "fill_img_url": null, "marker_img_url": null}},{"type": "Feature", "id": "layer_data_map.fid--27e80436_1a098b908f8_75f9", "geometry": {"type": "Point", "coordinates": [106.93112022, 47.9180935]}, "geometry_name": "geom", "properties": {"guid": 7144, "id": 7144, "object_no": null, "object_name": null, "layer_type_id": 228, "valid_to": null, "address_no": null, "border_type": "solid", "border_width": null, "border_color": null, "border_opacity": null, "border_wellknown": "horizline", "fill_type": "color", "fill_color": "#ae7adf", "fill_opacity": 1, "fill_wellknown": "horizline", "fill_shape_color": null, "fill_shape_width": null, "fill_shape_size": null, "fill_img_url": null, "marker_img_url": null}},{"type": "Feature", "id": "layer_data_map.fid--27e80436_1a098b908f8_75fa", "geometry": {"type": "Point", "coordinates": [106.94404929, 47.91018732]}, "geometry_name": "geom", "properties": {"guid": 7145, "id": 7145, "object_no": null, "object_name": null, "layer_type_id": 228, "valid_to": null, "address_no": null, "border_type": "solid", "border_width": null, "border_color": null, "border_opacity": null, "border_wellknown": "horizline", "fill_type": "color", "fill_color": "#ae7adf", "fill_opacity": 1, "fill_wellknown": "horizline", "fill_shape_color": null, "fill_shape_width": null, "fill_shape_size": null, "fill_img_url": null, "marker_img_url": null}},{"type": "Feature", "id": "layer_data_map.fid--27e80436_1a098b908f8_75fb", "geometry": {"type": "Point", "coordinates": [106.94725775, 47.90972459]}, "geometry_name": "geom", "properties": {"guid": 7146, "id": 7146, "object_no": null, "object_name": null, "layer_type_id": 228, "valid_to": null, "address_no": null, "border_type": "solid", "border_width": null, "border_color": null, "border_opacity": null, "border_wellknown": "horizline", "fill_type": "color", "fill_color": "#ae7adf", "fill_opacity": 1, "fill_wellknown": "horizline", "fill_shape_color": null, "fill_shape_width": null, "fill_shape_size": null, "fill_img_url": null, "marker_img_url": null}},{"type": "Feature", "id": "layer_data_map.fid--27e80436_1a098b908f8_75fc", "geometry": {"type": "Point", "coordinates": [106.94399153, 47.9109762]}, "geometry_name": "geom", "properties": {"guid": 7147, "id": 7147, "object_no": null, "object_name": null, "layer_type_id": 228, "valid_to": null, "address_no": null, "border_type": "solid", "border_width": null, "border_color": null, "border_opacity": null, "border_wellknown": "horizline", "fill_type": "color", "fill_color": "#ae7adf", "fill_opacity": 1, "fill_wellknown": "horizline", "fill_shape_color": null, "fill_shape_width": null, "fill_shape_size": null, "fill_img_url": null, "marker_img_url": null}},{"type": "Feature", "id": "layer_data_map.fid--27e80436_1a098b908f8_75fd", "geometry": {"type": "Point", "coordinates": [106.93635318, 47.92619246]}, "geometry_name": "geom", "properties": {"guid": 7148, "id": 7148, "object_no": null, "object_name": null, "layer_type_id": 228, "valid_to": null, "address_no": null, "border_type": "solid", "border_width": null, "border_color": null, "border_opacity": null, "border_wellknown": "horizline", "fill_type": "color", "fill_color": "#ae7adf", "fill_opacity": 1, "fill_wellknown": "horizline", "fill_shape_color": null, "fill_shape_width": null, "fill_shape_size": null, "fill_img_url": null, "marker_img_url": null}},{"type": "Feature", "id": "layer_data_map.fid--27e80436_1a098b908f8_75fe", "geometry": {"type": "Point", "coordinates": [106.95482786, 47.91667585]}, "geometry_name": "geom", "properties": {"guid": 7149, "id": 7149, "object_no": null, "object_name": null, "layer_type_id": 228, "valid_to": null, "address_no": null, "border_type": "solid", "border_width": null, "border_color": null, "border_opacity": null, "border_wellknown": "horizline", "fill_type": "color", "fill_color": "#ae7adf", "fill_opacity": 1, "fill_wellknown": "horizline", "fill_shape_color": null, "fill_shape_width": null, "fill_shape_size": null, "fill_img_url": null, "marker_img_url": null}},{"type": "Feature", "id": "layer_data_map.fid--27e80436_1a098b908f8_75ff", "geometry": {"type": "Point", "coordinates": [106.87898988, 47.91161581]}, "geometry_name": "geom", "properties": {"guid": 7150, "id": 7150, "object_no": null, "object_name": null, "layer_type_id": 228, "valid_to": null, "address_no": null, "border_type": "solid", "border_width": null, "border_color": null, "border_opacity": null, "border_wellknown": "horizline", "fill_type": "color", "fill_color": "#ae7adf", "fill_opacity": 1, "fill_wellknown": "horizline", "fill_shape_color": null, "fill_shape_width": null, "fill_shape_size": null, "fill_img_url": null, "marker_img_url": null}},{"type": "Feature", "id": "layer_data_map.fid--27e80436_1a098b908f8_7600", "geometry": {"type": "Point", "coordinates": [106.88589086, 47.91423569]}, "geometry_name": "geom", "properties": {"guid": 7151, "id": 7151, "object_no": null, "object_name": null, "layer_type_id": 228, "valid_to": null, "address_no": null, "border_type": "solid", "border_width": null, "border_color": null, "border_opacity": null, "border_wellknown": "horizline", "fill_type": "color", "fill_color": "#ae7adf", "fill_opacity": 1, "fill_wellknown": "horizline", "fill_shape_color": null, "fill_shape_width": null, "fill_shape_size": null, "fill_img_url": null, "marker_img_url": null}},{"type": "Feature", "id": "layer_data_map.fid--27e80436_1a098b908f8_7601", "geometry": {"type": "Point", "coordinates": [106.88629141, 47.91520154]}, "geometry_name": "geom", "properties": {"guid": 7152, "id": 7152, "object_no": null, "object_name": null, "layer_type_id": 228, "valid_to": null, "address_no": null, "border_type": "solid", "border_width": null, "border_color": null, "border_opacity": null, "border_wellknown": "horizline", "fill_type": "color", "fill_color": "#ae7adf", "fill_opacity": 1, "fill_wellknown": "horizline", "fill_shape_color": null, "fill_shape_width": null, "fill_shape_size": null, "fill_img_url": null, "marker_img_url": null}},{"type": "Feature", "id": "layer_data_map.fid--27e80436_1a098b908f8_7602", "geometry": {"type": "Point", "coordinates": [106.8840458, 47.92264816]}, "geometry_name": "geom", "properties": {"guid": 7153, "id": 7153, "object_no": null, "object_name": null, "layer_type_id": 228, "valid_to": null, "address_no": null, "border_type": "solid", "border_width": null, "border_color": null, "border_opacity": null, "border_wellknown": "horizline", "fill_type": "color", "fill_color": "#ae7adf", "fill_opacity": 1, "fill_wellknown": "horizline", "fill_shape_color": null, "fill_shape_width": null, "fill_shape_size": null, "fill_img_url": null, "marker_img_url": null}},{"type": "Feature", "id": "layer_data_map.fid--27e80436_1a098b908f8_7603", "geometry": {"type": "Point", "coordinates": [106.87500772, 47.92231808]}, "geometry_name": "geom", "properties": {"guid": 7154, "id": 7154, "object_no": null, "object_name": null, "layer_type_id": 228, "valid_to": null, "address_no": null, "border_type": "solid", "border_width": null, "border_color": null, "border_opacity": null, "border_wellknown": "horizline", "fill_type": "color", "fill_color": "#ae7adf", "fill_opacity": 1, "fill_wellknown": "horizline", "fill_shape_color": null, "fill_shape_width": null, "fill_shape_size": null, "fill_img_url": null, "marker_img_url": null}},{"type": "Feature", "id": "layer_data_map.fid--27e80436_1a098b908f8_7604", "geometry": {"type": "Point", "coordinates": [106.86896402, 47.92290524]}, "geometry_name": "geom", "properties": {"guid": 7155, "id": 7155, "object_no": null, "object_name": null, "layer_type_id": 228, "valid_to": null, "address_no": null, "border_type": "solid", "border_width": null, "border_color": null, "border_opacity": null, "border_wellknown": "horizline", "fill_type": "color", "fill_color": "#ae7adf", "fill_opacity": 1, "fill_wellknown": "horizline", "fill_shape_color": null, "fill_shape_width": null, "fill_shape_size": null, "fill_img_url": null, "marker_img_url": null}},{"type": "Feature", "id": "layer_data_map.fid--27e80436_1a098b908f8_7605", "geometry": {"type": "Point", "coordinates": [106.87115363, 47.92291257]}, "geometry_name": "geom", "properties": {"guid": 7156, "id": 7156, "object_no": null, "object_name": null, "layer_type_id": 228, "valid_to": null, "address_no": null, "border_type": "solid", "border_width": null, "border_color": null, "border_opacity": null, "border_wellknown": "horizline", "fill_type": "color", "fill_color": "#ae7adf", "fill_opacity": 1, "fill_wellknown": "horizline", "fill_shape_color": null, "fill_shape_width": null, "fill_shape_size": null, "fill_img_url": null, "marker_img_url": null}},{"type": "Feature", "id": "layer_data_map.fid--27e80436_1a098b908f8_7606", "geometry": {"type": "Point", "coordinates": [106.89530529, 47.91489089]}, "geometry_name": "geom", "properties": {"guid": 7157, "id": 7157, "object_no": null, "object_name": null, "layer_type_id": 228, "valid_to": null, "address_no": null, "border_type": "solid", "border_width": null, "border_color": null, "border_opacity": null, "border_wellknown": "horizline", "fill_type": "color", "fill_color": "#ae7adf", "fill_opacity": 1, "fill_wellknown": "horizline", "fill_shape_color": null, "fill_shape_width": null, "fill_shape_size": null, "fill_img_url": null, "marker_img_url": null}},{"type": "Feature", "id": "layer_data_map.fid--27e80436_1a098b908f8_7607", "geometry": {"type": "Point", "coordinates": [106.89647839, 47.91662776]}, "geometry_name": "geom", "properties": {"guid": 7158, "id": 7158, "object_no": null, "object_name": null, "layer_type_id": 228, "valid_to": null, "address_no": null, "border_type": "solid", "border_width": null, "border_color": null, "border_opacity": null, "border_wellknown": "horizline", "fill_type": "color", "fill_color": "#ae7adf", "fill_opacity": 1, "fill_wellknown": "horizline", "fill_shape_color": null, "fill_shape_width": null, "fill_shape_size": null, "fill_img_url": null, "marker_img_url": null}},{"type": "Feature", "id": "layer_data_map.fid--27e80436_1a098b908f8_7608", "geometry": {"type": "Point", "coordinates": [106.88857965, 47.92278769]}, "geometry_name": "geom", "properties": {"guid": 7159, "id": 7159, "object_no": null, "object_name": null, "layer_type_id": 228, "valid_to": null, "address_no": null, "border_type": "solid", "border_width": null, "border_color": null, "border_opacity": null, "border_wellknown": "horizline", "fill_type": "color", "fill_color": "#ae7adf", "fill_opacity": 1, "fill_wellknown": "horizline", "fill_shape_color": null, "fill_shape_width": null, "fill_shape_size": null, "fill_img_url": null, "marker_img_url": null}},{"type": "Feature", "id": "layer_data_map.fid--27e80436_1a098b908f8_7609", "geometry": {"type": "Point", "coordinates": [106.88859623, 47.9239626]}, "geometry_name": "geom", "properties": {"guid": 7160, "id": 7160, "object_no": null, "object_name": null, "layer_type_id": 228, "valid_to": null, "address_no": null, "border_type": "solid", "border_width": null, "border_color": null, "border_opacity": null, "border_wellknown": "horizline", "fill_type": "color", "fill_color": "#ae7adf", "fill_opacity": 1, "fill_wellknown": "horizline", "fill_shape_color": null, "fill_shape_width": null, "fill_shape_size": null, "fill_img_url": null, "marker_img_url": null}},{"type": "Feature", "id": "layer_data_map.fid--27e80436_1a098b908f8_760a", "geometry": {"type": "Point", "coordinates": [106.93420669, 47.92877527]}, "geometry_name": "geom", "properties": {"guid": 7161, "id": 7161, "object_no": null, "object_name": null, "layer_type_id": 228, "valid_to": null, "address_no": null, "border_type": "solid", "border_width": null, "border_color": null, "border_opacity": null, "border_wellknown": "horizline", "fill_type": "color", "fill_color": "#ae7adf", "fill_opacity": 1, "fill_wellknown": "horizline", "fill_shape_color": null, "fill_shape_width": null, "fill_shape_size": null, "fill_img_url": null, "marker_img_url": null}},{"type": "Feature", "id": "layer_data_map.fid--27e80436_1a098b908f8_760b", "geometry": {"type": "Point", "coordinates": [106.933517, 47.92889522]}, "geometry_name": "geom", "properties": {"guid": 7162, "id": 7162, "object_no": null, "object_name": null, "layer_type_id": 228, "valid_to": null, "address_no": null, "border_type": "solid", "border_width": null, "border_color": null, "border_opacity": null, "border_wellknown": "horizline", "fill_type": "color", "fill_color": "#ae7adf", "fill_opacity": 1, "fill_wellknown": "horizline", "fill_shape_color": null, "fill_shape_width": null, "fill_shape_size": null, "fill_img_url": null, "marker_img_url": null}},{"type": "Feature", "id": "layer_data_map.fid--27e80436_1a098b908f8_760c", "geometry": {"type": "Point", "coordinates": [106.90150964, 47.91533242]}, "geometry_name": "geom", "properties": {"guid": 7163, "id": 7163, "object_no": null, "object_name": null, "layer_type_id": 228, "valid_to": null, "address_no": null, "border_type": "solid", "border_width": null, "border_color": null, "border_opacity": null, "border_wellknown": "horizline", "fill_type": "color", "fill_color": "#ae7adf", "fill_opacity": 1, "fill_wellknown": "horizline", "fill_shape_color": null, "fill_shape_width": null, "fill_shape_size": null, "fill_img_url": null, "marker_img_url": null}},{"type": "Feature", "id": "layer_data_map.fid--27e80436_1a098b908f8_760d", "geometry": {"type": "Point", "coordinates": [106.91218884, 47.91727043]}, "geometry_name": "geom", "properties": {"guid": 7164, "id": 7164, "object_no": null, "object_name": null, "layer_type_id": 228, "valid_to": null, "address_no": null, "border_type": "solid", "border_width": null, "border_color": null, "border_opacity": null, "border_wellknown": "horizline", "fill_type": "color", "fill_color": "#ae7adf", "fill_opacity": 1, "fill_wellknown": "horizline", "fill_shape_color": null, "fill_shape_width": null, "fill_shape_size": null, "fill_img_url": null, "marker_img_url": null}},{"type": "Feature", "id": "layer_data_map.fid--27e80436_1a098b908f8_760e", "geometry": {"type": "Point", "coordinates": [106.91307175, 47.90967778]}, "geometry_name": "geom", "properties": {"guid": 7165, "id": 7165, "object_no": null, "object_name": null, "layer_type_id": 228, "valid_to": null, "address_no": null, "border_type": "solid", "border_width": null, "border_color": null, "border_opacity": null, "border_wellknown": "horizline", "fill_type": "color", "fill_color": "#ae7adf", "fill_opacity": 1, "fill_wellknown": "horizline", "fill_shape_color": null, "fill_shape_width": null, "fill_shape_size": null, "fill_img_url": null, "marker_img_url": null}},{"type": "Feature", "id": "layer_data_map.fid--27e80436_1a098b908f8_760f", "geometry": {"type": "Point", "coordinates": [106.91782055, 47.91379598]}, "geometry_name": "geom", "properties": {"guid": 7166, "id": 7166, "object_no": null, "object_name": null, "layer_type_id": 228, "valid_to": null, "address_no": null, "border_type": "solid", "border_width": null, "border_color": null, "border_opacity": null, "border_wellknown": "horizline", "fill_type": "color", "fill_color": "#ae7adf", "fill_opacity": 1, "fill_wellknown": "horizline", "fill_shape_color": null, "fill_shape_width": null, "fill_shape_size": null, "fill_img_url": null, "marker_img_url": null}},{"type": "Feature", "id": "layer_data_map.fid--27e80436_1a098b908f8_7610", "geometry": {"type": "Point", "coordinates": [106.88863611, 47.92350601]}, "geometry_name": "geom", "properties": {"guid": 7167, "id": 7167, "object_no": null, "object_name": null, "layer_type_id": 228, "valid_to": null, "address_no": null, "border_type": "solid", "border_width": null, "border_color": null, "border_opacity": null, "border_wellknown": "horizline", "fill_type": "color", "fill_color": "#ae7adf", "fill_opacity": 1, "fill_wellknown": "horizline", "fill_shape_color": null, "fill_shape_width": null, "fill_shape_size": null, "fill_img_url": null, "marker_img_url": null}},{"type": "Feature", "id": "layer_data_map.fid--27e80436_1a098b908f8_7611", "geometry": {"type": "Point", "coordinates": [106.91613646, 47.91400895]}, "geometry_name": "geom", "properties": {"guid": 7168, "id": 7168, "object_no": null, "object_name": null, "layer_type_id": 228, "valid_to": null, "address_no": null, "border_type": "solid", "border_width": null, "border_color": null, "border_opacity": null, "border_wellknown": "horizline", "fill_type": "color", "fill_color": "#ae7adf", "fill_opacity": 1, "fill_wellknown": "horizline", "fill_shape_color": null, "fill_shape_width": null, "fill_shape_size": null, "fill_img_url": null, "marker_img_url": null}},{"type": "Feature", "id": "layer_data_map.fid--27e80436_1a098b908f8_7612", "geometry": {"type": "Point", "coordinates": [106.87641668, 47.92316821]}, "geometry_name": "geom", "properties": {"guid": 7169, "id": 7169, "object_no": null, "object_name": null, "layer_type_id": 228, "valid_to": null, "address_no": null, "border_type": "solid", "border_width": null, "border_color": null, "border_opacity": null, "border_wellknown": "horizline", "fill_type": "color", "fill_color": "#ae7adf", "fill_opacity": 1, "fill_wellknown": "horizline", "fill_shape_color": null, "fill_shape_width": null, "fill_shape_size": null, "fill_img_url": null, "marker_img_url": null}},{"type": "Feature", "id": "layer_data_map.fid--27e80436_1a098b908f8_7613", "geometry": {"type": "Point", "coordinates": [106.88290807, 47.92335125]}, "geometry_name": "geom", "properties": {"guid": 7170, "id": 7170, "object_no": null, "object_name": null, "layer_type_id": 228, "valid_to": null, "address_no": null, "border_type": "solid", "border_width": null, "border_color": null, "border_opacity": null, "border_wellknown": "horizline", "fill_type": "color", "fill_color": "#ae7adf", "fill_opacity": 1, "fill_wellknown": "horizline", "fill_shape_color": null, "fill_shape_width": null, "fill_shape_size": null, "fill_img_url": null, "marker_img_url": null}},{"type": "Feature", "id": "layer_data_map.fid--27e80436_1a098b908f8_7614", "geometry": {"type": "Point", "coordinates": [106.90003366, 47.91283595]}, "geometry_name": "geom", "properties": {"guid": 7171, "id": 7171, "object_no": null, "object_name": null, "layer_type_id": 228, "valid_to": null, "address_no": null, "border_type": "solid", "border_width": null, "border_color": null, "border_opacity": null, "border_wellknown": "horizline", "fill_type": "color", "fill_color": "#ae7adf", "fill_opacity": 1, "fill_wellknown": "horizline", "fill_shape_color": null, "fill_shape_width": null, "fill_shape_size": null, "fill_img_url": null, "marker_img_url": null}},{"type": "Feature", "id": "layer_data_map.fid--27e80436_1a098b908f8_7615", "geometry": {"type": "Point", "coordinates": [106.93272902, 47.92202698]}, "geometry_name": "geom", "properties": {"guid": 7172, "id": 7172, "object_no": null, "object_name": null, "layer_type_id": 228, "valid_to": null, "address_no": null, "border_type": "solid", "border_width": null, "border_color": null, "border_opacity": null, "border_wellknown": "horizline", "fill_type": "color", "fill_color": "#ae7adf", "fill_opacity": 1, "fill_wellknown": "horizline", "fill_shape_color": null, "fill_shape_width": null, "fill_shape_size": null, "fill_img_url": null, "marker_img_url": null}},{"type": "Feature", "id": "layer_data_map.fid--27e80436_1a098b908f8_7616", "geometry": {"type": "Point", "coordinates": [106.90625779, 47.91698849]}, "geometry_name": "geom", "properties": {"guid": 7173, "id": 7173, "object_no": null, "object_name": null, "layer_type_id": 228, "valid_to": null, "address_no": null, "border_type": "solid", "border_width": null, "border_color": null, "border_opacity": null, "border_wellknown": "horizline", "fill_type": "color", "fill_color": "#ae7adf", "fill_opacity": 1, "fill_wellknown": "horizline", "fill_shape_color": null, "fill_shape_width": null, "fill_shape_size": null, "fill_img_url": null, "marker_img_url": null}},{"type": "Feature", "id": "layer_data_map.fid--27e80436_1a098b908f8_7617", "geometry": {"type": "Point", "coordinates": [106.91508613, 47.92637371]}, "geometry_name": "geom", "properties": {"guid": 7174, "id": 7174, "object_no": null, "object_name": null, "layer_type_id": 228, "valid_to": null, "address_no": null, "border_type": "solid", "border_width": null, "border_color": null, "border_opacity": null, "border_wellknown": "horizline", "fill_type": "color", "fill_color": "#ae7adf", "fill_opacity": 1, "fill_wellknown": "horizline", "fill_shape_color": null, "fill_shape_width": null, "fill_shape_size": null, "fill_img_url": null, "marker_img_url": null}},{"type": "Feature", "id": "layer_data_map.fid--27e80436_1a098b908f8_7618", "geometry": {"type": "Point", "coordinates": [106.8862461, 47.8977927]}, "geometry_name": "geom", "properties": {"guid": 7175, "id": 7175, "object_no": null, "object_name": null, "layer_type_id": 228, "valid_to": null, "address_no": null, "border_type": "solid", "border_width": null, "border_color": null, "border_opacity": null, "border_wellknown": "horizline", "fill_type": "color", "fill_color": "#ae7adf", "fill_opacity": 1, "fill_wellknown": "horizline", "fill_shape_color": null, "fill_shape_width": null, "fill_shape_size": null, "fill_img_url": null, "marker_img_url": null}},{"type": "Feature", "id": "layer_data_map.fid--27e80436_1a098b908f8_7619", "geometry": {"type": "Point", "coordinates": [106.88658112, 47.89559883]}, "geometry_name": "geom", "properties": {"guid": 7176, "id": 7176, "object_no": null, "object_name": null, "layer_type_id": 228, "valid_to": null, "address_no": null, "border_type": "solid", "border_width": null, "border_color": null, "border_opacity": null, "border_wellknown": "horizline", "fill_type": "color", "fill_color": "#ae7adf", "fill_opacity": 1, "fill_wellknown": "horizline", "fill_shape_color": null, "fill_shape_width": null, "fill_shape_size": null, "fill_img_url": null, "marker_img_url": null}},{"type": "Feature", "id": "layer_data_map.fid--27e80436_1a098b908f8_761a", "geometry": {"type": "Point", "coordinates": [106.93386715, 47.90874317]}, "geometry_name": "geom", "properties": {"guid": 7177, "id": 7177, "object_no": null, "object_name": null, "layer_type_id": 228, "valid_to": null, "address_no": null, "border_type": "solid", "border_width": null, "border_color": null, "border_opacity": null, "border_wellknown": "horizline", "fill_type": "color", "fill_color": "#ae7adf", "fill_opacity": 1, "fill_wellknown": "horizline", "fill_shape_color": null, "fill_shape_width": null, "fill_shape_size": null, "fill_img_url": null, "marker_img_url": null}},{"type": "Feature", "id": "layer_data_map.fid--27e80436_1a098b908f8_761b", "geometry": {"type": "Point", "coordinates": [106.9032078, 47.9214375]}, "geometry_name": "geom", "properties": {"guid": 7178, "id": 7178, "object_no": null, "object_name": null, "layer_type_id": 228, "valid_to": null, "address_no": null, "border_type": "solid", "border_width": null, "border_color": null, "border_opacity": null, "border_wellknown": "horizline", "fill_type": "color", "fill_color": "#ae7adf", "fill_opacity": 1, "fill_wellknown": "horizline", "fill_shape_color": null, "fill_shape_width": null, "fill_shape_size": null, "fill_img_url": null, "marker_img_url": null}},{"type": "Feature", "id": "layer_data_map.fid--27e80436_1a098b908f8_761c", "geometry": {"type": "Point", "coordinates": [106.91683954, 47.93961187]}, "geometry_name": "geom", "properties": {"guid": 7179, "id": 7179, "object_no": null, "object_name": null, "layer_type_id": 228, "valid_to": null, "address_no": null, "border_type": "solid", "border_width": null, "border_color": null, "border_opacity": null, "border_wellknown": "horizline", "fill_type": "color", "fill_color": "#ae7adf", "fill_opacity": 1, "fill_wellknown": "horizline", "fill_shape_color": null, "fill_shape_width": null, "fill_shape_size": null, "fill_img_url": null, "marker_img_url": null}},{"type": "Feature", "id": "layer_data_map.fid--27e80436_1a098b908f8_761d", "geometry": {"type": "Point", "coordinates": [106.90726994, 47.91753207]}, "geometry_name": "geom", "properties": {"guid": 7180, "id": 7180, "object_no": null, "object_name": null, "layer_type_id": 228, "valid_to": null, "address_no": null, "border_type": "solid", "border_width": null, "border_color": null, "border_opacity": null, "border_wellknown": "horizline", "fill_type": "color", "fill_color": "#ae7adf", "fill_opacity": 1, "fill_wellknown": "horizline", "fill_shape_color": null, "fill_shape_width": null, "fill_shape_size": null, "fill_img_url": null, "marker_img_url": null}},{"type": "Feature", "id": "layer_data_map.fid--27e80436_1a098b908f8_761e", "geometry": {"type": "Point", "coordinates": [106.93535159, 47.92126234]}, "geometry_name": "geom", "properties": {"guid": 7181, "id": 7181, "object_no": null, "object_name": null, "layer_type_id": 228, "valid_to": null, "address_no": null, "border_type": "solid", "border_width": null, "border_color": null, "border_opacity": null, "border_wellknown": "horizline", "fill_type": "color", "fill_color": "#ae7adf", "fill_opacity": 1, "fill_wellknown": "horizline", "fill_shape_color": null, "fill_shape_width": null, "fill_shape_size": null, "fill_img_url": null, "marker_img_url": null}},{"type": "Feature", "id": "layer_data_map.fid--27e80436_1a098b908f8_761f", "geometry": {"type": "Point", "coordinates": [106.88605422, 47.92341906]}, "geometry_name": "geom", "properties": {"guid": 7182, "id": 7182, "object_no": null, "object_name": null, "layer_type_id": 228, "valid_to": null, "address_no": null, "border_type": "solid", "border_width": null, "border_color": null, "border_opacity": null, "border_wellknown": "horizline", "fill_type": "color", "fill_color": "#ae7adf", "fill_opacity": 1, "fill_wellknown": "horizline", "fill_shape_color": null, "fill_shape_width": null, "fill_shape_size": null, "fill_img_url": null, "marker_img_url": null}},{"type": "Feature", "id": "layer_data_map.fid--27e80436_1a098b908f8_7620", "geometry": {"type": "Point", "coordinates": [106.93864608, 47.91839971]}, "geometry_name": "geom", "properties": {"guid": 7183, "id": 7183, "object_no": null, "object_name": null, "layer_type_id": 228, "valid_to": null, "address_no": null, "border_type": "solid", "border_width": null, "border_color": null, "border_opacity": null, "border_wellknown": "horizline", "fill_type": "color", "fill_color": "#ae7adf", "fill_opacity": 1, "fill_wellknown": "horizline", "fill_shape_color": null, "fill_shape_width": null, "fill_shape_size": null, "fill_img_url": null, "marker_img_url": null}},{"type": "Feature", "id": "layer_data_map.fid--27e80436_1a098b908f8_7621", "geometry": {"type": "Point", "coordinates": [106.89228208, 47.90878955]}, "geometry_name": "geom", "properties": {"guid": 7184, "id": 7184, "object_no": null, "object_name": null, "layer_type_id": 228, "valid_to": null, "address_no": null, "border_type": "solid", "border_width": null, "border_color": null, "border_opacity": null, "border_wellknown": "horizline", "fill_type": "color", "fill_color": "#ae7adf", "fill_opacity": 1, "fill_wellknown": "horizline", "fill_shape_color": null, "fill_shape_width": null, "fill_shape_size": null, "fill_img_url": null, "marker_img_url": null}},{"type": "Feature", "id": "layer_data_map.fid--27e80436_1a098b908f8_7622", "geometry": {"type": "Point", "coordinates": [106.90036314, 47.91996485]}, "geometry_name": "geom", "properties": {"guid": 7185, "id": 7185, "object_no": null, "object_name": null, "layer_type_id": 228, "valid_to": null, "address_no": null, "border_type": "solid", "border_width": null, "border_color": null, "border_opacity": null, "border_wellknown": "horizline", "fill_type": "color", "fill_color": "#ae7adf", "fill_opacity": 1, "fill_wellknown": "horizline", "fill_shape_color": null, "fill_shape_width": null, "fill_shape_size": null, "fill_img_url": null, "marker_img_url": null}},{"type": "Feature", "id": "layer_data_map.fid--27e80436_1a098b908f8_7623", "geometry": {"type": "Point", "coordinates": [106.91444228, 47.9218999]}, "geometry_name": "geom", "properties": {"guid": 7186, "id": 7186, "object_no": null, "object_name": null, "layer_type_id": 228, "valid_to": null, "address_no": null, "border_type": "solid", "border_width": null, "border_color": null, "border_opacity": null, "border_wellknown": "horizline", "fill_type": "color", "fill_color": "#ae7adf", "fill_opacity": 1, "fill_wellknown": "horizline", "fill_shape_color": null, "fill_shape_width": null, "fill_shape_size": null, "fill_img_url": null, "marker_img_url": null}},{"type": "Feature", "id": "layer_data_map.fid--27e80436_1a098b908f8_7624", "geometry": {"type": "Point", "coordinates": [106.90350558, 47.91295663]}, "geometry_name": "geom", "properties": {"guid": 7187, "id": 7187, "object_no": null, "object_name": null, "layer_type_id": 228, "valid_to": null, "address_no": null, "border_type": "solid", "border_width": null, "border_color": null, "border_opacity": null, "border_wellknown": "horizline", "fill_type": "color", "fill_color": "#ae7adf", "fill_opacity": 1, "fill_wellknown": "horizline", "fill_shape_color": null, "fill_shape_width": null, "fill_shape_size": null, "fill_img_url": null, "marker_img_url": null}},{"type": "Feature", "id": "layer_data_map.fid--27e80436_1a098b908f8_7625", "geometry": {"type": "Point", "coordinates": [106.9167356, 47.92230488]}, "geometry_name": "geom", "properties": {"guid": 7188, "id": 7188, "object_no": null, "object_name": null, "layer_type_id": 228, "valid_to": null, "address_no": null, "border_type": "solid", "border_width": null, "border_color": null, "border_opacity": null, "border_wellknown": "horizline", "fill_type": "color", "fill_color": "#ae7adf", "fill_opacity": 1, "fill_wellknown": "horizline", "fill_shape_color": null, "fill_shape_width": null, "fill_shape_size": null, "fill_img_url": null, "marker_img_url": null}},{"type": "Feature", "id": "layer_data_map.fid--27e80436_1a098b908f8_7626", "geometry": {"type": "Point", "coordinates": [106.94316038, 47.92115434]}, "geometry_name": "geom", "properties": {"guid": 7189, "id": 7189, "object_no": null, "object_name": null, "layer_type_id": 228, "valid_to": null, "address_no": null, "border_type": "solid", "border_width": null, "border_color": null, "border_opacity": null, "border_wellknown": "horizline", "fill_type": "color", "fill_color": "#ae7adf", "fill_opacity": 1, "fill_wellknown": "horizline", "fill_shape_color": null, "fill_shape_width": null, "fill_shape_size": null, "fill_img_url": null, "marker_img_url": null}},{"type": "Feature", "id": "layer_data_map.fid--27e80436_1a098b908f8_7627", "geometry": {"type": "Point", "coordinates": [106.89703361, 47.89858428]}, "geometry_name": "geom", "properties": {"guid": 7190, "id": 7190, "object_no": null, "object_name": null, "layer_type_id": 228, "valid_to": null, "address_no": null, "border_type": "solid", "border_width": null, "border_color": null, "border_opacity": null, "border_wellknown": "horizline", "fill_type": "color", "fill_color": "#ae7adf", "fill_opacity": 1, "fill_wellknown": "horizline", "fill_shape_color": null, "fill_shape_width": null, "fill_shape_size": null, "fill_img_url": null, "marker_img_url": null}},{"type": "Feature", "id": "layer_data_map.fid--27e80436_1a098b908f8_7628", "geometry": {"type": "Point", "coordinates": [106.92505353, 47.92943818]}, "geometry_name": "geom", "properties": {"guid": 7191, "id": 7191, "object_no": null, "object_name": null, "layer_type_id": 228, "valid_to": null, "address_no": null, "border_type": "solid", "border_width": null, "border_color": null, "border_opacity": null, "border_wellknown": "horizline", "fill_type": "color", "fill_color": "#ae7adf", "fill_opacity": 1, "fill_wellknown": "horizline", "fill_shape_color": null, "fill_shape_width": null, "fill_shape_size": null, "fill_img_url": null, "marker_img_url": null}},{"type": "Feature", "id": "layer_data_map.fid--27e80436_1a098b908f8_7629", "geometry": {"type": "Point", "coordinates": [106.90672608, 47.91660251]}, "geometry_name": "geom", "properties": {"guid": 7192, "id": 7192, "object_no": null, "object_name": null, "layer_type_id": 228, "valid_to": null, "address_no": null, "border_type": "solid", "border_width": null, "border_color": null, "border_opacity": null, "border_wellknown": "horizline", "fill_type": "color", "fill_color": "#ae7adf", "fill_opacity": 1, "fill_wellknown": "horizline", "fill_shape_color": null, "fill_shape_width": null, "fill_shape_size": null, "fill_img_url": null, "marker_img_url": null}},{"type": "Feature", "id": "layer_data_map.fid--27e80436_1a098b908f8_762a", "geometry": {"type": "Point", "coordinates": [106.83705981, 47.91208764]}, "geometry_name": "geom", "properties": {"guid": 7193, "id": 7193, "object_no": null, "object_name": null, "layer_type_id": 228, "valid_to": null, "address_no": null, "border_type": "solid", "border_width": null, "border_color": null, "border_opacity": null, "border_wellknown": "horizline", "fill_type": "color", "fill_color": "#ae7adf", "fill_opacity": 1, "fill_wellknown": "horizline", "fill_shape_color": null, "fill_shape_width": null, "fill_shape_size": null, "fill_img_url": null, "marker_img_url": null}},{"type": "Feature", "id": "layer_data_map.fid--27e80436_1a098b908f8_762b", "geometry": {"type": "Point", "coordinates": [106.91147852, 47.92110432]}, "geometry_name": "geom", "properties": {"guid": 7194, "id": 7194, "object_no": null, "object_name": null, "layer_type_id": 228, "valid_to": null, "address_no": null, "border_type": "solid", "border_width": null, "border_color": null, "border_opacity": null, "border_wellknown": "horizline", "fill_type": "color", "fill_color": "#ae7adf", "fill_opacity": 1, "fill_wellknown": "horizline", "fill_shape_color": null, "fill_shape_width": null, "fill_shape_size": null, "fill_img_url": null, "marker_img_url": null}},{"type": "Feature", "id": "layer_data_map.fid--27e80436_1a098b908f8_762c", "geometry": {"type": "Point", "coordinates": [106.90773887, 47.91419093]}, "geometry_name": "geom", "properties": {"guid": 7195, "id": 7195, "object_no": null, "object_name": null, "layer_type_id": 228, "valid_to": null, "address_no": null, "border_type": "solid", "border_width": null, "border_color": null, "border_opacity": null, "border_wellknown": "horizline", "fill_type": "color", "fill_color": "#ae7adf", "fill_opacity": 1, "fill_wellknown": "horizline", "fill_shape_color": null, "fill_shape_width": null, "fill_shape_size": null, "fill_img_url": null, "marker_img_url": null}},{"type": "Feature", "id": "layer_data_map.fid--27e80436_1a098b908f8_762d", "geometry": {"type": "Point", "coordinates": [106.92281602, 47.92091498]}, "geometry_name": "geom", "properties": {"guid": 7196, "id": 7196, "object_no": null, "object_name": null, "layer_type_id": 228, "valid_to": null, "address_no": null, "border_type": "solid", "border_width": null, "border_color": null, "border_opacity": null, "border_wellknown": "horizline", "fill_type": "color", "fill_color": "#ae7adf", "fill_opacity": 1, "fill_wellknown": "horizline", "fill_shape_color": null, "fill_shape_width": null, "fill_shape_size": null, "fill_img_url": null, "marker_img_url": null}},{"type": "Feature", "id": "layer_data_map.fid--27e80436_1a098b908f8_762e", "geometry": {"type": "Point", "coordinates": [106.90514229, 47.92134822]}, "geometry_name": "geom", "properties": {"guid": 7197, "id": 7197, "object_no": null, "object_name": null, "layer_type_id": 228, "valid_to": null, "address_no": null, "border_type": "solid", "border_width": null, "border_color": null, "border_opacity": null, "border_wellknown": "horizline", "fill_type": "color", "fill_color": "#ae7adf", "fill_opacity": 1, "fill_wellknown": "horizline", "fill_shape_color": null, "fill_shape_width": null, "fill_shape_size": null, "fill_img_url": null, "marker_img_url": null}},{"type": "Feature", "id": "layer_data_map.fid--27e80436_1a098b908f8_762f", "geometry": {"type": "Point", "coordinates": [106.90434167, 47.91197571]}, "geometry_name": "geom", "properties": {"guid": 7198, "id": 7198, "object_no": null, "object_name": null, "layer_type_id": 228, "valid_to": null, "address_no": null, "border_type": "solid", "border_width": null, "border_color": null, "border_opacity": null, "border_wellknown": "horizline", "fill_type": "color", "fill_color": "#ae7adf", "fill_opacity": 1, "fill_wellknown": "horizline", "fill_shape_color": null, "fill_shape_width": null, "fill_shape_size": null, "fill_img_url": null, "marker_img_url": null}},{"type": "Feature", "id": "layer_data_map.fid--27e80436_1a098b908f8_7630", "geometry": {"type": "Point", "coordinates": [106.90806954, 47.89555205]}, "geometry_name": "geom", "properties": {"guid": 7199, "id": 7199, "object_no": null, "object_name": null, "layer_type_id": 228, "valid_to": null, "address_no": null, "border_type": "solid", "border_width": null, "border_color": null, "border_opacity": null, "border_wellknown": "horizline", "fill_type": "color", "fill_color": "#ae7adf", "fill_opacity": 1, "fill_wellknown": "horizline", "fill_shape_color": null, "fill_shape_width": null, "fill_shape_size": null, "fill_img_url": null, "marker_img_url": null}},{"type": "Feature", "id": "layer_data_map.fid--27e80436_1a098b908f8_7631", "geometry": {"type": "Point", "coordinates": [106.98214559, 47.91462741]}, "geometry_name": "geom", "properties": {"guid": 7200, "id": 7200, "object_no": null, "object_name": null, "layer_type_id": 228, "valid_to": null, "address_no": null, "border_type": "solid", "border_width": null, "border_color": null, "border_opacity": null, "border_wellknown": "horizline", "fill_type": "color", "fill_color": "#ae7adf", "fill_opacity": 1, "fill_wellknown": "horizline", "fill_shape_color": null, "fill_shape_width": null, "fill_shape_size": null, "fill_img_url": null, "marker_img_url": null}},{"type": "Feature", "id": "layer_data_map.fid--27e80436_1a098b908f8_7632", "geometry": {"type": "Point", "coordinates": [106.93590071, 47.92747209]}, "geometry_name": "geom", "properties": {"guid": 7201, "id": 7201, "object_no": null, "object_name": null, "layer_type_id": 228, "valid_to": null, "address_no": null, "border_type": "solid", "border_width": null, "border_color": null, "border_opacity": null, "border_wellknown": "horizline", "fill_type": "color", "fill_color": "#ae7adf", "fill_opacity": 1, "fill_wellknown": "horizline", "fill_shape_color": null, "fill_shape_width": null, "fill_shape_size": null, "fill_img_url": null, "marker_img_url": null}},{"type": "Feature", "id": "layer_data_map.fid--27e80436_1a098b908f8_7633", "geometry": {"type": "Point", "coordinates": [106.90506632, 47.91364367]}, "geometry_name": "geom", "properties": {"guid": 7202, "id": 7202, "object_no": null, "object_name": null, "layer_type_id": 228, "valid_to": null, "address_no": null, "border_type": "solid", "border_width": null, "border_color": null, "border_opacity": null, "border_wellknown": "horizline", "fill_type": "color", "fill_color": "#ae7adf", "fill_opacity": 1, "fill_wellknown": "horizline", "fill_shape_color": null, "fill_shape_width": null, "fill_shape_size": null, "fill_img_url": null, "marker_img_url": null}},{"type": "Feature", "id": "layer_data_map.fid--27e80436_1a098b908f8_7634", "geometry": {"type": "Point", "coordinates": [106.91593445, 47.92835149]}, "geometry_name": "geom", "properties": {"guid": 7203, "id": 7203, "object_no": null, "object_name": null, "layer_type_id": 228, "valid_to": null, "address_no": null, "border_type": "solid", "border_width": null, "border_color": null, "border_opacity": null, "border_wellknown": "horizline", "fill_type": "color", "fill_color": "#ae7adf", "fill_opacity": 1, "fill_wellknown": "horizline", "fill_shape_color": null, "fill_shape_width": null, "fill_shape_size": null, "fill_img_url": null, "marker_img_url": null}},{"type": "Feature", "id": "layer_data_map.fid--27e80436_1a098b908f8_7635", "geometry": {"type": "Point", "coordinates": [106.93405839, 47.92300918]}, "geometry_name": "geom", "properties": {"guid": 7204, "id": 7204, "object_no": null, "object_name": null, "layer_type_id": 228, "valid_to": null, "address_no": null, "border_type": "solid", "border_width": null, "border_color": null, "border_opacity": null, "border_wellknown": "horizline", "fill_type": "color", "fill_color": "#ae7adf", "fill_opacity": 1, "fill_wellknown": "horizline", "fill_shape_color": null, "fill_shape_width": null, "fill_shape_size": null, "fill_img_url": null, "marker_img_url": null}},{"type": "Feature", "id": "layer_data_map.fid--27e80436_1a098b908f8_7636", "geometry": {"type": "Point", "coordinates": [106.83650926, 47.91024092]}, "geometry_name": "geom", "properties": {"guid": 7205, "id": 7205, "object_no": null, "object_name": null, "layer_type_id": 228, "valid_to": null, "address_no": null, "border_type": "solid", "border_width": null, "border_color": null, "border_opacity": null, "border_wellknown": "horizline", "fill_type": "color", "fill_color": "#ae7adf", "fill_opacity": 1, "fill_wellknown": "horizline", "fill_shape_color": null, "fill_shape_width": null, "fill_shape_size": null, "fill_img_url": null, "marker_img_url": null}},{"type": "Feature", "id": "layer_data_map.fid--27e80436_1a098b908f8_7637", "geometry": {"type": "Point", "coordinates": [106.93351025, 47.91730077]}, "geometry_name": "geom", "properties": {"guid": 7206, "id": 7206, "object_no": null, "object_name": null, "layer_type_id": 228, "valid_to": null, "address_no": null, "border_type": "solid", "border_width": null, "border_color": null, "border_opacity": null, "border_wellknown": "horizline", "fill_type": "color", "fill_color": "#ae7adf", "fill_opacity": 1, "fill_wellknown": "horizline", "fill_shape_color": null, "fill_shape_width": null, "fill_shape_size": null, "fill_img_url": null, "marker_img_url": null}},{"type": "Feature", "id": "layer_data_map.fid--27e80436_1a098b908f8_7638", "geometry": {"type": "Point", "coordinates": [107.00065092, 47.9289217]}, "geometry_name": "geom", "properties": {"guid": 7207, "id": 7207, "object_no": null, "object_name": null, "layer_type_id": 228, "valid_to": null, "address_no": null, "border_type": "solid", "border_width": null, "border_color": null, "border_opacity": null, "border_wellknown": "horizline", "fill_type": "color", "fill_color": "#ae7adf", "fill_opacity": 1, "fill_wellknown": "horizline", "fill_shape_color": null, "fill_shape_width": null, "fill_shape_size": null, "fill_img_url": null, "marker_img_url": null}},{"type": "Feature", "id": "layer_data_map.fid--27e80436_1a098b908f8_7639", "geometry": {"type": "Point", "coordinates": [106.92683699, 47.93120832]}, "geometry_name": "geom", "properties": {"guid": 7208, "id": 7208, "object_no": null, "object_name": null, "layer_type_id": 228, "valid_to": null, "address_no": null, "border_type": "solid", "border_width": null, "border_color": null, "border_opacity": null, "border_wellknown": "horizline", "fill_type": "color", "fill_color": "#ae7adf", "fill_opacity": 1, "fill_wellknown": "horizline", "fill_shape_color": null, "fill_shape_width": null, "fill_shape_size": null, "fill_img_url": null, "marker_img_url": null}},{"type": "Feature", "id": "layer_data_map.fid--27e80436_1a098b908f8_763a", "geometry": {"type": "Point", "coordinates": [106.90212814, 47.94240217]}, "geometry_name": "geom", "properties": {"guid": 7209, "id": 7209, "object_no": null, "object_name": null, "layer_type_id": 228, "valid_to": null, "address_no": null, "border_type": "solid", "border_width": null, "border_color": null, "border_opacity": null, "border_wellknown": "horizline", "fill_type": "color", "fill_color": "#ae7adf", "fill_opacity": 1, "fill_wellknown": "horizline", "fill_shape_color": null, "fill_shape_width": null, "fill_shape_size": null, "fill_img_url": null, "marker_img_url": null}},{"type": "Feature", "id": "layer_data_map.fid--27e80436_1a098b908f8_763b", "geometry": {"type": "Point", "coordinates": [106.90146765, 47.9463097]}, "geometry_name": "geom", "properties": {"guid": 7210, "id": 7210, "object_no": null, "object_name": null, "layer_type_id": 228, "valid_to": null, "address_no": null, "border_type": "solid", "border_width": null, "border_color": null, "border_opacity": null, "border_wellknown": "horizline", "fill_type": "color", "fill_color": "#ae7adf", "fill_opacity": 1, "fill_wellknown": "horizline", "fill_shape_color": null, "fill_shape_width": null, "fill_shape_size": null, "fill_img_url": null, "marker_img_url": null}},{"type": "Feature", "id": "layer_data_map.fid--27e80436_1a098b908f8_763c", "geometry": {"type": "Point", "coordinates": [106.88129893, 47.92214851]}, "geometry_name": "geom", "properties": {"guid": 7211, "id": 7211, "object_no": null, "object_name": null, "layer_type_id": 228, "valid_to": null, "address_no": null, "border_type": "solid", "border_width": null, "border_color": null, "border_opacity": null, "border_wellknown": "horizline", "fill_type": "color", "fill_color": "#ae7adf", "fill_opacity": 1, "fill_wellknown": "horizline", "fill_shape_color": null, "fill_shape_width": null, "fill_shape_size": null, "fill_img_url": null, "marker_img_url": null}},{"type": "Feature", "id": "layer_data_map.fid--27e80436_1a098b908f8_763d", "geometry": {"type": "Point", "coordinates": [106.87487471, 47.9152897]}, "geometry_name": "geom", "properties": {"guid": 7212, "id": 7212, "object_no": null, "object_name": null, "layer_type_id": 228, "valid_to": null, "address_no": null, "border_type": "solid", "border_width": null, "border_color": null, "border_opacity": null, "border_wellknown": "horizline", "fill_type": "color", "fill_color": "#ae7adf", "fill_opacity": 1, "fill_wellknown": "horizline", "fill_shape_color": null, "fill_shape_width": null, "fill_shape_size": null, "fill_img_url": null, "marker_img_url": null}},{"type": "Feature", "id": "layer_data_map.fid--27e80436_1a098b908f8_763e", "geometry": {"type": "Point", "coordinates": [106.81838471, 47.92270851]}, "geometry_name": "geom", "properties": {"guid": 7213, "id": 7213, "object_no": null, "object_name": null, "layer_type_id": 228, "valid_to": null, "address_no": null, "border_type": "solid", "border_width": null, "border_color": null, "border_opacity": null, "border_wellknown": "horizline", "fill_type": "color", "fill_color": "#ae7adf", "fill_opacity": 1, "fill_wellknown": "horizline", "fill_shape_color": null, "fill_shape_width": null, "fill_shape_size": null, "fill_img_url": null, "marker_img_url": null}},{"type": "Feature", "id": "layer_data_map.fid--27e80436_1a098b908f8_763f", "geometry": {"type": "Point", "coordinates": [106.90305768, 47.90960373]}, "geometry_name": "geom", "properties": {"guid": 7214, "id": 7214, "object_no": null, "object_name": null, "layer_type_id": 228, "valid_to": null, "address_no": null, "border_type": "solid", "border_width": null, "border_color": null, "border_opacity": null, "border_wellknown": "horizline", "fill_type": "color", "fill_color": "#ae7adf", "fill_opacity": 1, "fill_wellknown": "horizline", "fill_shape_color": null, "fill_shape_width": null, "fill_shape_size": null, "fill_img_url": null, "marker_img_url": null}},{"type": "Feature", "id": "layer_data_map.fid--27e80436_1a098b908f8_7640", "geometry": {"type": "Point", "coordinates": [106.91153953, 47.90544979]}, "geometry_name": "geom", "properties": {"guid": 7215, "id": 7215, "object_no": null, "object_name": null, "layer_type_id": 228, "valid_to": null, "address_no": null, "border_type": "solid", "border_width": null, "border_color": null, "border_opacity": null, "border_wellknown": "horizline", "fill_type": "color", "fill_color": "#ae7adf", "fill_opacity": 1, "fill_wellknown": "horizline", "fill_shape_color": null, "fill_shape_width": null, "fill_shape_size": null, "fill_img_url": null, "marker_img_url": null}},{"type": "Feature", "id": "layer_data_map.fid--27e80436_1a098b908f8_7641", "geometry": {"type": "Point", "coordinates": [106.90843339, 47.90013986]}, "geometry_name": "geom", "properties": {"guid": 7216, "id": 7216, "object_no": null, "object_name": null, "layer_type_id": 228, "valid_to": null, "address_no": null, "border_type": "solid", "border_width": null, "border_color": null, "border_opacity": null, "border_wellknown": "horizline", "fill_type": "color", "fill_color": "#ae7adf", "fill_opacity": 1, "fill_wellknown": "horizline", "fill_shape_color": null, "fill_shape_width": null, "fill_shape_size": null, "fill_img_url": null, "marker_img_url": null}},{"type": "Feature", "id": "layer_data_map.fid--27e80436_1a098b908f8_7642", "geometry": {"type": "Point", "coordinates": [106.90122541, 47.90219981]}, "geometry_name": "geom", "properties": {"guid": 7217, "id": 7217, "object_no": null, "object_name": null, "layer_type_id": 228, "valid_to": null, "address_no": null, "border_type": "solid", "border_width": null, "border_color": null, "border_opacity": null, "border_wellknown": "horizline", "fill_type": "color", "fill_color": "#ae7adf", "fill_opacity": 1, "fill_wellknown": "horizline", "fill_shape_color": null, "fill_shape_width": null, "fill_shape_size": null, "fill_img_url": null, "marker_img_url": null}},{"type": "Feature", "id": "layer_data_map.fid--27e80436_1a098b908f8_7643", "geometry": {"type": "Point", "coordinates": [106.88764951, 47.89502266]}, "geometry_name": "geom", "properties": {"guid": 7218, "id": 7218, "object_no": null, "object_name": null, "layer_type_id": 228, "valid_to": null, "address_no": null, "border_type": "solid", "border_width": null, "border_color": null, "border_opacity": null, "border_wellknown": "horizline", "fill_type": "color", "fill_color": "#ae7adf", "fill_opacity": 1, "fill_wellknown": "horizline", "fill_shape_color": null, "fill_shape_width": null, "fill_shape_size": null, "fill_img_url": null, "marker_img_url": null}},{"type": "Feature", "id": "layer_data_map.fid--27e80436_1a098b908f8_7644", "geometry": {"type": "Point", "coordinates": [106.91124699, 47.88161125]}, "geometry_name": "geom", "properties": {"guid": 7219, "id": 7219, "object_no": null, "object_name": null, "layer_type_id": 228, "valid_to": null, "address_no": null, "border_type": "solid", "border_width": null, "border_color": null, "border_opacity": null, "border_wellknown": "horizline", "fill_type": "color", "fill_color": "#ae7adf", "fill_opacity": 1, "fill_wellknown": "horizline", "fill_shape_color": null, "fill_shape_width": null, "fill_shape_size": null, "fill_img_url": null, "marker_img_url": null}},{"type": "Feature", "id": "layer_data_map.fid--27e80436_1a098b908f8_7645", "geometry": {"type": "Point", "coordinates": [106.89050607, 47.91441471]}, "geometry_name": "geom", "properties": {"guid": 7220, "id": 7220, "object_no": null, "object_name": null, "layer_type_id": 228, "valid_to": null, "address_no": null, "border_type": "solid", "border_width": null, "border_color": null, "border_opacity": null, "border_wellknown": "horizline", "fill_type": "color", "fill_color": "#ae7adf", "fill_opacity": 1, "fill_wellknown": "horizline", "fill_shape_color": null, "fill_shape_width": null, "fill_shape_size": null, "fill_img_url": null, "marker_img_url": null}},{"type": "Feature", "id": "layer_data_map.fid--27e80436_1a098b908f8_7646", "geometry": {"type": "Point", "coordinates": [106.84642526, 47.9117263]}, "geometry_name": "geom", "properties": {"guid": 7221, "id": 7221, "object_no": null, "object_name": null, "layer_type_id": 228, "valid_to": null, "address_no": null, "border_type": "solid", "border_width": null, "border_color": null, "border_opacity": null, "border_wellknown": "horizline", "fill_type": "color", "fill_color": "#ae7adf", "fill_opacity": 1, "fill_wellknown": "horizline", "fill_shape_color": null, "fill_shape_width": null, "fill_shape_size": null, "fill_img_url": null, "marker_img_url": null}},{"type": "Feature", "id": "layer_data_map.fid--27e80436_1a098b908f8_7647", "geometry": {"type": "Point", "coordinates": [106.90163806, 47.92286069]}, "geometry_name": "geom", "properties": {"guid": 7222, "id": 7222, "object_no": null, "object_name": null, "layer_type_id": 228, "valid_to": null, "address_no": null, "border_type": "solid", "border_width": null, "border_color": null, "border_opacity": null, "border_wellknown": "horizline", "fill_type": "color", "fill_color": "#ae7adf", "fill_opacity": 1, "fill_wellknown": "horizline", "fill_shape_color": null, "fill_shape_width": null, "fill_shape_size": null, "fill_img_url": null, "marker_img_url": null}},{"type": "Feature", "id": "layer_data_map.fid--27e80436_1a098b908f8_7648", "geometry": {"type": "Point", "coordinates": [106.91946763, 47.91627898]}, "geometry_name": "geom", "properties": {"guid": 7223, "id": 7223, "object_no": null, "object_name": null, "layer_type_id": 228, "valid_to": null, "address_no": null, "border_type": "solid", "border_width": null, "border_color": null, "border_opacity": null, "border_wellknown": "horizline", "fill_type": "color", "fill_color": "#ae7adf", "fill_opacity": 1, "fill_wellknown": "horizline", "fill_shape_color": null, "fill_shape_width": null, "fill_shape_size": null, "fill_img_url": null, "marker_img_url": null}},{"type": "Feature", "id": "layer_data_map.fid--27e80436_1a098b908f8_7649", "geometry": {"type": "Point", "coordinates": [106.92943408, 47.90793418]}, "geometry_name": "geom", "properties": {"guid": 7224, "id": 7224, "object_no": null, "object_name": null, "layer_type_id": 228, "valid_to": null, "address_no": null, "border_type": "solid", "border_width": null, "border_color": null, "border_opacity": null, "border_wellknown": "horizline", "fill_type": "color", "fill_color": "#ae7adf", "fill_opacity": 1, "fill_wellknown": "horizline", "fill_shape_color": null, "fill_shape_width": null, "fill_shape_size": null, "fill_img_url": null, "marker_img_url": null}},{"type": "Feature", "id": "layer_data_map.fid--27e80436_1a098b908f8_764a", "geometry": {"type": "Point", "coordinates": [106.90787587, 47.90877171]}, "geometry_name": "geom", "properties": {"guid": 7225, "id": 7225, "object_no": null, "object_name": null, "layer_type_id": 228, "valid_to": null, "address_no": null, "border_type": "solid", "border_width": null, "border_color": null, "border_opacity": null, "border_wellknown": "horizline", "fill_type": "color", "fill_color": "#ae7adf", "fill_opacity": 1, "fill_wellknown": "horizline", "fill_shape_color": null, "fill_shape_width": null, "fill_shape_size": null, "fill_img_url": null, "marker_img_url": null}},{"type": "Feature", "id": "layer_data_map.fid--27e80436_1a098b908f8_764b", "geometry": {"type": "Point", "coordinates": [106.90076179, 47.91287186]}, "geometry_name": "geom", "properties": {"guid": 7226, "id": 7226, "object_no": null, "object_name": null, "layer_type_id": 228, "valid_to": null, "address_no": null, "border_type": "solid", "border_width": null, "border_color": null, "border_opacity": null, "border_wellknown": "horizline", "fill_type": "color", "fill_color": "#ae7adf", "fill_opacity": 1, "fill_wellknown": "horizline", "fill_shape_color": null, "fill_shape_width": null, "fill_shape_size": null, "fill_img_url": null, "marker_img_url": null}},{"type": "Feature", "id": "layer_data_map.fid--27e80436_1a098b908f8_764c", "geometry": {"type": "Point", "coordinates": [106.90820156, 47.91430342]}, "geometry_name": "geom", "properties": {"guid": 7227, "id": 7227, "object_no": null, "object_name": null, "layer_type_id": 228, "valid_to": null, "address_no": null, "border_type": "solid", "border_width": null, "border_color": null, "border_opacity": null, "border_wellknown": "horizline", "fill_type": "color", "fill_color": "#ae7adf", "fill_opacity": 1, "fill_wellknown": "horizline", "fill_shape_color": null, "fill_shape_width": null, "fill_shape_size": null, "fill_img_url": null, "marker_img_url": null}},{"type": "Feature", "id": "layer_data_map.fid--27e80436_1a098b908f8_764d", "geometry": {"type": "Point", "coordinates": [106.92504968, 47.91832974]}, "geometry_name": "geom", "properties": {"guid": 7228, "id": 7228, "object_no": null, "object_name": null, "layer_type_id": 228, "valid_to": null, "address_no": null, "border_type": "solid", "border_width": null, "border_color": null, "border_opacity": null, "border_wellknown": "horizline", "fill_type": "color", "fill_color": "#ae7adf", "fill_opacity": 1, "fill_wellknown": "horizline", "fill_shape_color": null, "fill_shape_width": null, "fill_shape_size": null, "fill_img_url": null, "marker_img_url": null}},{"type": "Feature", "id": "layer_data_map.fid--27e80436_1a098b908f8_764e", "geometry": {"type": "Point", "coordinates": [106.92627143, 47.9225977]}, "geometry_name": "geom", "properties": {"guid": 7229, "id": 7229, "object_no": null, "object_name": null, "layer_type_id": 228, "valid_to": null, "address_no": null, "border_type": "solid", "border_width": null, "border_color": null, "border_opacity": null, "border_wellknown": "horizline", "fill_type": "color", "fill_color": "#ae7adf", "fill_opacity": 1, "fill_wellknown": "horizline", "fill_shape_color": null, "fill_shape_width": null, "fill_shape_size": null, "fill_img_url": null, "marker_img_url": null}},{"type": "Feature", "id": "layer_data_map.fid--27e80436_1a098b908f8_764f", "geometry": {"type": "Point", "coordinates": [106.98220137, 47.91198997]}, "geometry_name": "geom", "properties": {"guid": 7230, "id": 7230, "object_no": null, "object_name": null, "layer_type_id": 228, "valid_to": null, "address_no": null, "border_type": "solid", "border_width": null, "border_color": null, "border_opacity": null, "border_wellknown": "horizline", "fill_type": "color", "fill_color": "#ae7adf", "fill_opacity": 1, "fill_wellknown": "horizline", "fill_shape_color": null, "fill_shape_width": null, "fill_shape_size": null, "fill_img_url": null, "marker_img_url": null}},{"type": "Feature", "id": "layer_data_map.fid--27e80436_1a098b908f8_7650", "geometry": {"type": "Point", "coordinates": [106.99018101, 47.91237428]}, "geometry_name": "geom", "properties": {"guid": 7231, "id": 7231, "object_no": null, "object_name": null, "layer_type_id": 228, "valid_to": null, "address_no": null, "border_type": "solid", "border_width": null, "border_color": null, "border_opacity": null, "border_wellknown": "horizline", "fill_type": "color", "fill_color": "#ae7adf", "fill_opacity": 1, "fill_wellknown": "horizline", "fill_shape_color": null, "fill_shape_width": null, "fill_shape_size": null, "fill_img_url": null, "marker_img_url": null}},{"type": "Feature", "id": "layer_data_map.fid--27e80436_1a098b908f8_7651", "geometry": {"type": "Point", "coordinates": [106.9884972, 47.9122537]}, "geometry_name": "geom", "properties": {"guid": 7232, "id": 7232, "object_no": null, "object_name": null, "layer_type_id": 228, "valid_to": null, "address_no": null, "border_type": "solid", "border_width": null, "border_color": null, "border_opacity": null, "border_wellknown": "horizline", "fill_type": "color", "fill_color": "#ae7adf", "fill_opacity": 1, "fill_wellknown": "horizline", "fill_shape_color": null, "fill_shape_width": null, "fill_shape_size": null, "fill_img_url": null, "marker_img_url": null}},{"type": "Feature", "id": "layer_data_map.fid--27e80436_1a098b908f8_7652", "geometry": {"type": "Point", "coordinates": [106.94752142, 47.9250696]}, "geometry_name": "geom", "properties": {"guid": 7233, "id": 7233, "object_no": null, "object_name": null, "layer_type_id": 228, "valid_to": null, "address_no": null, "border_type": "solid", "border_width": null, "border_color": null, "border_opacity": null, "border_wellknown": "horizline", "fill_type": "color", "fill_color": "#ae7adf", "fill_opacity": 1, "fill_wellknown": "horizline", "fill_shape_color": null, "fill_shape_width": null, "fill_shape_size": null, "fill_img_url": null, "marker_img_url": null}},{"type": "Feature", "id": "layer_data_map.fid--27e80436_1a098b908f8_7653", "geometry": {"type": "Point", "coordinates": [106.94002937, 47.92342502]}, "geometry_name": "geom", "properties": {"guid": 7234, "id": 7234, "object_no": null, "object_name": null, "layer_type_id": 228, "valid_to": null, "address_no": null, "border_type": "solid", "border_width": null, "border_color": null, "border_opacity": null, "border_wellknown": "horizline", "fill_type": "color", "fill_color": "#ae7adf", "fill_opacity": 1, "fill_wellknown": "horizline", "fill_shape_color": null, "fill_shape_width": null, "fill_shape_size": null, "fill_img_url": null, "marker_img_url": null}},{"type": "Feature", "id": "layer_data_map.fid--27e80436_1a098b908f8_7654", "geometry": {"type": "Point", "coordinates": [106.79258809, 47.90844959]}, "geometry_name": "geom", "properties": {"guid": 7235, "id": 7235, "object_no": null, "object_name": null, "layer_type_id": 228, "valid_to": null, "address_no": null, "border_type": "solid", "border_width": null, "border_color": null, "border_opacity": null, "border_wellknown": "horizline", "fill_type": "color", "fill_color": "#ae7adf", "fill_opacity": 1, "fill_wellknown": "horizline", "fill_shape_color": null, "fill_shape_width": null, "fill_shape_size": null, "fill_img_url": null, "marker_img_url": null}},{"type": "Feature", "id": "layer_data_map.fid--27e80436_1a098b908f8_7655", "geometry": {"type": "Point", "coordinates": [106.8538306, 47.91336545]}, "geometry_name": "geom", "properties": {"guid": 7236, "id": 7236, "object_no": null, "object_name": null, "layer_type_id": 228, "valid_to": null, "address_no": null, "border_type": "solid", "border_width": null, "border_color": null, "border_opacity": null, "border_wellknown": "horizline", "fill_type": "color", "fill_color": "#ae7adf", "fill_opacity": 1, "fill_wellknown": "horizline", "fill_shape_color": null, "fill_shape_width": null, "fill_shape_size": null, "fill_img_url": null, "marker_img_url": null}},{"type": "Feature", "id": "layer_data_map.fid--27e80436_1a098b908f8_7656", "geometry": {"type": "Point", "coordinates": [106.8373587, 47.91214815]}, "geometry_name": "geom", "properties": {"guid": 7237, "id": 7237, "object_no": null, "object_name": null, "layer_type_id": 228, "valid_to": null, "address_no": null, "border_type": "solid", "border_width": null, "border_color": null, "border_opacity": null, "border_wellknown": "horizline", "fill_type": "color", "fill_color": "#ae7adf", "fill_opacity": 1, "fill_wellknown": "horizline", "fill_shape_color": null, "fill_shape_width": null, "fill_shape_size": null, "fill_img_url": null, "marker_img_url": null}},{"type": "Feature", "id": "layer_data_map.fid--27e80436_1a098b908f8_7657", "geometry": {"type": "Point", "coordinates": [106.81731235, 47.91822241]}, "geometry_name": "geom", "properties": {"guid": 7238, "id": 7238, "object_no": null, "object_name": null, "layer_type_id": 228, "valid_to": null, "address_no": null, "border_type": "solid", "border_width": null, "border_color": null, "border_opacity": null, "border_wellknown": "horizline", "fill_type": "color", "fill_color": "#ae7adf", "fill_opacity": 1, "fill_wellknown": "horizline", "fill_shape_color": null, "fill_shape_width": null, "fill_shape_size": null, "fill_img_url": null, "marker_img_url": null}},{"type": "Feature", "id": "layer_data_map.fid--27e80436_1a098b908f8_7658", "geometry": {"type": "Point", "coordinates": [106.82799165, 47.91164265]}, "geometry_name": "geom", "properties": {"guid": 7239, "id": 7239, "object_no": null, "object_name": null, "layer_type_id": 228, "valid_to": null, "address_no": null, "border_type": "solid", "border_width": null, "border_color": null, "border_opacity": null, "border_wellknown": "horizline", "fill_type": "color", "fill_color": "#ae7adf", "fill_opacity": 1, "fill_wellknown": "horizline", "fill_shape_color": null, "fill_shape_width": null, "fill_shape_size": null, "fill_img_url": null, "marker_img_url": null}},{"type": "Feature", "id": "layer_data_map.fid--27e80436_1a098b908f8_7659", "geometry": {"type": "Point", "coordinates": [106.83911641, 47.96010988]}, "geometry_name": "geom", "properties": {"guid": 7240, "id": 7240, "object_no": null, "object_name": null, "layer_type_id": 228, "valid_to": null, "address_no": null, "border_type": "solid", "border_width": null, "border_color": null, "border_opacity": null, "border_wellknown": "horizline", "fill_type": "color", "fill_color": "#ae7adf", "fill_opacity": 1, "fill_wellknown": "horizline", "fill_shape_color": null, "fill_shape_width": null, "fill_shape_size": null, "fill_img_url": null, "marker_img_url": null}},{"type": "Feature", "id": "layer_data_map.fid--27e80436_1a098b908f8_765a", "geometry": {"type": "Point", "coordinates": [106.90570511, 47.92125712]}, "geometry_name": "geom", "properties": {"guid": 7241, "id": 7241, "object_no": null, "object_name": null, "layer_type_id": 228, "valid_to": null, "address_no": null, "border_type": "solid", "border_width": null, "border_color": null, "border_opacity": null, "border_wellknown": "horizline", "fill_type": "color", "fill_color": "#ae7adf", "fill_opacity": 1, "fill_wellknown": "horizline", "fill_shape_color": null, "fill_shape_width": null, "fill_shape_size": null, "fill_img_url": null, "marker_img_url": null}},{"type": "Feature", "id": "layer_data_map.fid--27e80436_1a098b908f8_765b", "geometry": {"type": "Point", "coordinates": [107.00094141, 47.912199]}, "geometry_name": "geom", "properties": {"guid": 7242, "id": 7242, "object_no": null, "object_name": null, "layer_type_id": 228, "valid_to": null, "address_no": null, "border_type": "solid", "border_width": null, "border_color": null, "border_opacity": null, "border_wellknown": "horizline", "fill_type": "color", "fill_color": "#ae7adf", "fill_opacity": 1, "fill_wellknown": "horizline", "fill_shape_color": null, "fill_shape_width": null, "fill_shape_size": null, "fill_img_url": null, "marker_img_url": null}},{"type": "Feature", "id": "layer_data_map.fid--27e80436_1a098b908f8_765c", "geometry": {"type": "Point", "coordinates": [106.89093611, 47.92248771]}, "geometry_name": "geom", "properties": {"guid": 7243, "id": 7243, "object_no": null, "object_name": null, "layer_type_id": 228, "valid_to": null, "address_no": null, "border_type": "solid", "border_width": null, "border_color": null, "border_opacity": null, "border_wellknown": "horizline", "fill_type": "color", "fill_color": "#ae7adf", "fill_opacity": 1, "fill_wellknown": "horizline", "fill_shape_color": null, "fill_shape_width": null, "fill_shape_size": null, "fill_img_url": null, "marker_img_url": null}},{"type": "Feature", "id": "layer_data_map.fid--27e80436_1a098b908f8_765d", "geometry": {"type": "Point", "coordinates": [106.88896518, 47.89655522]}, "geometry_name": "geom", "properties": {"guid": 7244, "id": 7244, "object_no": null, "object_name": null, "layer_type_id": 228, "valid_to": null, "address_no": null, "border_type": "solid", "border_width": null, "border_color": null, "border_opacity": null, "border_wellknown": "horizline", "fill_type": "color", "fill_color": "#ae7adf", "fill_opacity": 1, "fill_wellknown": "horizline", "fill_shape_color": null, "fill_shape_width": null, "fill_shape_size": null, "fill_img_url": null, "marker_img_url": null}},{"type": "Feature", "id": "layer_data_map.fid--27e80436_1a098b908f8_765e", "geometry": {"type": "Point", "coordinates": [106.9631102, 47.91620715]}, "geometry_name": "geom", "properties": {"guid": 7245, "id": 7245, "object_no": null, "object_name": null, "layer_type_id": 228, "valid_to": null, "address_no": null, "border_type": "solid", "border_width": null, "border_color": null, "border_opacity": null, "border_wellknown": "horizline", "fill_type": "color", "fill_color": "#ae7adf", "fill_opacity": 1, "fill_wellknown": "horizline", "fill_shape_color": null, "fill_shape_width": null, "fill_shape_size": null, "fill_img_url": null, "marker_img_url": null}},{"type": "Feature", "id": "layer_data_map.fid--27e80436_1a098b908f8_765f", "geometry": {"type": "Point", "coordinates": [106.94435687, 47.91404097]}, "geometry_name": "geom", "properties": {"guid": 7246, "id": 7246, "object_no": null, "object_name": null, "layer_type_id": 228, "valid_to": null, "address_no": null, "border_type": "solid", "border_width": null, "border_color": null, "border_opacity": null, "border_wellknown": "horizline", "fill_type": "color", "fill_color": "#ae7adf", "fill_opacity": 1, "fill_wellknown": "horizline", "fill_shape_color": null, "fill_shape_width": null, "fill_shape_size": null, "fill_img_url": null, "marker_img_url": null}},{"type": "Feature", "id": "layer_data_map.fid--27e80436_1a098b908f8_7660", "geometry": {"type": "Point", "coordinates": [106.91566873, 47.94116963]}, "geometry_name": "geom", "properties": {"guid": 7247, "id": 7247, "object_no": null, "object_name": null, "layer_type_id": 228, "valid_to": null, "address_no": null, "border_type": "solid", "border_width": null, "border_color": null, "border_opacity": null, "border_wellknown": "horizline", "fill_type": "color", "fill_color": "#ae7adf", "fill_opacity": 1, "fill_wellknown": "horizline", "fill_shape_color": null, "fill_shape_width": null, "fill_shape_size": null, "fill_img_url": null, "marker_img_url": null}},{"type": "Feature", "id": "layer_data_map.fid--27e80436_1a098b908f8_7661", "geometry": {"type": "Point", "coordinates": [106.92728957, 47.92769608]}, "geometry_name": "geom", "properties": {"guid": 7248, "id": 7248, "object_no": null, "object_name": null, "layer_type_id": 228, "valid_to": null, "address_no": null, "border_type": "solid", "border_width": null, "border_color": null, "border_opacity": null, "border_wellknown": "horizline", "fill_type": "color", "fill_color": "#ae7adf", "fill_opacity": 1, "fill_wellknown": "horizline", "fill_shape_color": null, "fill_shape_width": null, "fill_shape_size": null, "fill_img_url": null, "marker_img_url": null}},{"type": "Feature", "id": "layer_data_map.fid--27e80436_1a098b908f8_7662", "geometry": {"type": "Point", "coordinates": [106.90218966, 47.91626016]}, "geometry_name": "geom", "properties": {"guid": 7249, "id": 7249, "object_no": null, "object_name": null, "layer_type_id": 228, "valid_to": null, "address_no": null, "border_type": "solid", "border_width": null, "border_color": null, "border_opacity": null, "border_wellknown": "horizline", "fill_type": "color", "fill_color": "#ae7adf", "fill_opacity": 1, "fill_wellknown": "horizline", "fill_shape_color": null, "fill_shape_width": null, "fill_shape_size": null, "fill_img_url": null, "marker_img_url": null}},{"type": "Feature", "id": "layer_data_map.fid--27e80436_1a098b908f8_7663", "geometry": {"type": "Point", "coordinates": [106.921646, 47.91344358]}, "geometry_name": "geom", "properties": {"guid": 7250, "id": 7250, "object_no": null, "object_name": null, "layer_type_id": 228, "valid_to": null, "address_no": null, "border_type": "solid", "border_width": null, "border_color": null, "border_opacity": null, "border_wellknown": "horizline", "fill_type": "color", "fill_color": "#ae7adf", "fill_opacity": 1, "fill_wellknown": "horizline", "fill_shape_color": null, "fill_shape_width": null, "fill_shape_size": null, "fill_img_url": null, "marker_img_url": null}},{"type": "Feature", "id": "layer_data_map.fid--27e80436_1a098b908f8_7664", "geometry": {"type": "Point", "coordinates": [106.85122818, 47.87856085]}, "geometry_name": "geom", "properties": {"guid": 7251, "id": 7251, "object_no": null, "object_name": null, "layer_type_id": 228, "valid_to": null, "address_no": null, "border_type": "solid", "border_width": null, "border_color": null, "border_opacity": null, "border_wellknown": "horizline", "fill_type": "color", "fill_color": "#ae7adf", "fill_opacity": 1, "fill_wellknown": "horizline", "fill_shape_color": null, "fill_shape_width": null, "fill_shape_size": null, "fill_img_url": null, "marker_img_url": null}},{"type": "Feature", "id": "layer_data_map.fid--27e80436_1a098b908f8_7665", "geometry": {"type": "Point", "coordinates": [106.83056347, 47.87190032]}, "geometry_name": "geom", "properties": {"guid": 7252, "id": 7252, "object_no": null, "object_name": null, "layer_type_id": 228, "valid_to": null, "address_no": null, "border_type": "solid", "border_width": null, "border_color": null, "border_opacity": null, "border_wellknown": "horizline", "fill_type": "color", "fill_color": "#ae7adf", "fill_opacity": 1, "fill_wellknown": "horizline", "fill_shape_color": null, "fill_shape_width": null, "fill_shape_size": null, "fill_img_url": null, "marker_img_url": null}},{"type": "Feature", "id": "layer_data_map.fid--27e80436_1a098b908f8_7666", "geometry": {"type": "Point", "coordinates": [106.81762547, 47.92045052]}, "geometry_name": "geom", "properties": {"guid": 7253, "id": 7253, "object_no": null, "object_name": null, "layer_type_id": 228, "valid_to": null, "address_no": null, "border_type": "solid", "border_width": null, "border_color": null, "border_opacity": null, "border_wellknown": "horizline", "fill_type": "color", "fill_color": "#ae7adf", "fill_opacity": 1, "fill_wellknown": "horizline", "fill_shape_color": null, "fill_shape_width": null, "fill_shape_size": null, "fill_img_url": null, "marker_img_url": null}},{"type": "Feature", "id": "layer_data_map.fid--27e80436_1a098b908f8_7667", "geometry": {"type": "Point", "coordinates": [106.89568288, 47.90998631]}, "geometry_name": "geom", "properties": {"guid": 7254, "id": 7254, "object_no": null, "object_name": null, "layer_type_id": 228, "valid_to": null, "address_no": null, "border_type": "solid", "border_width": null, "border_color": null, "border_opacity": null, "border_wellknown": "horizline", "fill_type": "color", "fill_color": "#ae7adf", "fill_opacity": 1, "fill_wellknown": "horizline", "fill_shape_color": null, "fill_shape_width": null, "fill_shape_size": null, "fill_img_url": null, "marker_img_url": null}},{"type": "Feature", "id": "layer_data_map.fid--27e80436_1a098b908f8_7668", "geometry": {"type": "Point", "coordinates": [106.78508522, 47.85830246]}, "geometry_name": "geom", "properties": {"guid": 7255, "id": 7255, "object_no": null, "object_name": null, "layer_type_id": 228, "valid_to": null, "address_no": null, "border_type": "solid", "border_width": null, "border_color": null, "border_opacity": null, "border_wellknown": "horizline", "fill_type": "color", "fill_color": "#ae7adf", "fill_opacity": 1, "fill_wellknown": "horizline", "fill_shape_color": null, "fill_shape_width": null, "fill_shape_size": null, "fill_img_url": null, "marker_img_url": null}},{"type": "Feature", "id": "layer_data_map.fid--27e80436_1a098b908f8_7669", "geometry": {"type": "Point", "coordinates": [106.90960571, 47.88809225]}, "geometry_name": "geom", "properties": {"guid": 7256, "id": 7256, "object_no": null, "object_name": null, "layer_type_id": 228, "valid_to": null, "address_no": null, "border_type": "solid", "border_width": null, "border_color": null, "border_opacity": null, "border_wellknown": "horizline", "fill_type": "color", "fill_color": "#ae7adf", "fill_opacity": 1, "fill_wellknown": "horizline", "fill_shape_color": null, "fill_shape_width": null, "fill_shape_size": null, "fill_img_url": null, "marker_img_url": null}},{"type": "Feature", "id": "layer_data_map.fid--27e80436_1a098b908f8_766a", "geometry": {"type": "Point", "coordinates": [106.9303719, 47.90109183]}, "geometry_name": "geom", "properties": {"guid": 7257, "id": 7257, "object_no": null, "object_name": null, "layer_type_id": 228, "valid_to": null, "address_no": null, "border_type": "solid", "border_width": null, "border_color": null, "border_opacity": null, "border_wellknown": "horizline", "fill_type": "color", "fill_color": "#ae7adf", "fill_opacity": 1, "fill_wellknown": "horizline", "fill_shape_color": null, "fill_shape_width": null, "fill_shape_size": null, "fill_img_url": null, "marker_img_url": null}},{"type": "Feature", "id": "layer_data_map.fid--27e80436_1a098b908f8_766b", "geometry": {"type": "Point", "coordinates": [107.00286917, 47.91115887]}, "geometry_name": "geom", "properties": {"guid": 7258, "id": 7258, "object_no": null, "object_name": null, "layer_type_id": 228, "valid_to": null, "address_no": null, "border_type": "solid", "border_width": null, "border_color": null, "border_opacity": null, "border_wellknown": "horizline", "fill_type": "color", "fill_color": "#ae7adf", "fill_opacity": 1, "fill_wellknown": "horizline", "fill_shape_color": null, "fill_shape_width": null, "fill_shape_size": null, "fill_img_url": null, "marker_img_url": null}},{"type": "Feature", "id": "layer_data_map.fid--27e80436_1a098b908f8_766c", "geometry": {"type": "Point", "coordinates": [106.9215775, 47.91886088]}, "geometry_name": "geom", "properties": {"guid": 7259, "id": 7259, "object_no": null, "object_name": null, "layer_type_id": 228, "valid_to": null, "address_no": null, "border_type": "solid", "border_width": null, "border_color": null, "border_opacity": null, "border_wellknown": "horizline", "fill_type": "color", "fill_color": "#ae7adf", "fill_opacity": 1, "fill_wellknown": "horizline", "fill_shape_color": null, "fill_shape_width": null, "fill_shape_size": null, "fill_img_url": null, "marker_img_url": null}},{"type": "Feature", "id": "layer_data_map.fid--27e80436_1a098b908f8_766d", "geometry": {"type": "Point", "coordinates": [107.2182629, 47.79174732]}, "geometry_name": "geom", "properties": {"guid": 7260, "id": 7260, "object_no": null, "object_name": null, "layer_type_id": 228, "valid_to": null, "address_no": null, "border_type": "solid", "border_width": null, "border_color": null, "border_opacity": null, "border_wellknown": "horizline", "fill_type": "color", "fill_color": "#ae7adf", "fill_opacity": 1, "fill_wellknown": "horizline", "fill_shape_color": null, "fill_shape_width": null, "fill_shape_size": null, "fill_img_url": null, "marker_img_url": null}},{"type": "Feature", "id": "layer_data_map.fid--27e80436_1a098b908f8_766e", "geometry": {"type": "Point", "coordinates": [106.92486377, 48.00527541]}, "geometry_name": "geom", "properties": {"guid": 7261, "id": 7261, "object_no": null, "object_name": null, "layer_type_id": 228, "valid_to": null, "address_no": null, "border_type": "solid", "border_width": null, "border_color": null, "border_opacity": null, "border_wellknown": "horizline", "fill_type": "color", "fill_color": "#ae7adf", "fill_opacity": 1, "fill_wellknown": "horizline", "fill_shape_color": null, "fill_shape_width": null, "fill_shape_size": null, "fill_img_url": null, "marker_img_url": null}},{"type": "Feature", "id": "layer_data_map.fid--27e80436_1a098b908f8_766f", "geometry": {"type": "Point", "coordinates": [106.91777349, 47.96234698]}, "geometry_name": "geom", "properties": {"guid": 7262, "id": 7262, "object_no": null, "object_name": null, "layer_type_id": 228, "valid_to": null, "address_no": null, "border_type": "solid", "border_width": null, "border_color": null, "border_opacity": null, "border_wellknown": "horizline", "fill_type": "color", "fill_color": "#ae7adf", "fill_opacity": 1, "fill_wellknown": "horizline", "fill_shape_color": null, "fill_shape_width": null, "fill_shape_size": null, "fill_img_url": null, "marker_img_url": null}},{"type": "Feature", "id": "layer_data_map.fid--27e80436_1a098b908f8_7670", "geometry": {"type": "Point", "coordinates": [106.80545271, 47.86411128]}, "geometry_name": "geom", "properties": {"guid": 7263, "id": 7263, "object_no": null, "object_name": null, "layer_type_id": 228, "valid_to": null, "address_no": null, "border_type": "solid", "border_width": null, "border_color": null, "border_opacity": null, "border_wellknown": "horizline", "fill_type": "color", "fill_color": "#ae7adf", "fill_opacity": 1, "fill_wellknown": "horizline", "fill_shape_color": null, "fill_shape_width": null, "fill_shape_size": null, "fill_img_url": null, "marker_img_url": null}},{"type": "Feature", "id": "layer_data_map.fid--27e80436_1a098b908f8_7671", "geometry": {"type": "Point", "coordinates": [106.87006605, 47.92288813]}, "geometry_name": "geom", "properties": {"guid": 7264, "id": 7264, "object_no": null, "object_name": null, "layer_type_id": 228, "valid_to": null, "address_no": null, "border_type": "solid", "border_width": null, "border_color": null, "border_opacity": null, "border_wellknown": "horizline", "fill_type": "color", "fill_color": "#ae7adf", "fill_opacity": 1, "fill_wellknown": "horizline", "fill_shape_color": null, "fill_shape_width": null, "fill_shape_size": null, "fill_img_url": null, "marker_img_url": null}},{"type": "Feature", "id": "layer_data_map.fid--27e80436_1a098b908f8_7672", "geometry": {"type": "Point", "coordinates": [106.93818509, 47.90878509]}, "geometry_name": "geom", "properties": {"guid": 7265, "id": 7265, "object_no": null, "object_name": null, "layer_type_id": 228, "valid_to": null, "address_no": null, "border_type": "solid", "border_width": null, "border_color": null, "border_opacity": null, "border_wellknown": "horizline", "fill_type": "color", "fill_color": "#ae7adf", "fill_opacity": 1, "fill_wellknown": "horizline", "fill_shape_color": null, "fill_shape_width": null, "fill_shape_size": null, "fill_img_url": null, "marker_img_url": null}},{"type": "Feature", "id": "layer_data_map.fid--27e80436_1a098b908f8_7673", "geometry": {"type": "Point", "coordinates": [107.21658091, 47.7912509]}, "geometry_name": "geom", "properties": {"guid": 7266, "id": 7266, "object_no": null, "object_name": null, "layer_type_id": 228, "valid_to": null, "address_no": null, "border_type": "solid", "border_width": null, "border_color": null, "border_opacity": null, "border_wellknown": "horizline", "fill_type": "color", "fill_color": "#ae7adf", "fill_opacity": 1, "fill_wellknown": "horizline", "fill_shape_color": null, "fill_shape_width": null, "fill_shape_size": null, "fill_img_url": null, "marker_img_url": null}},{"type": "Feature", "id": "layer_data_map.fid--27e80436_1a098b908f8_7674", "geometry": {"type": "Point", "coordinates": [106.76562766, 47.91984129]}, "geometry_name": "geom", "properties": {"guid": 7267, "id": 7267, "object_no": null, "object_name": null, "layer_type_id": 228, "valid_to": null, "address_no": null, "border_type": "solid", "border_width": null, "border_color": null, "border_opacity": null, "border_wellknown": "horizline", "fill_type": "color", "fill_color": "#ae7adf", "fill_opacity": 1, "fill_wellknown": "horizline", "fill_shape_color": null, "fill_shape_width": null, "fill_shape_size": null, "fill_img_url": null, "marker_img_url": null}},{"type": "Feature", "id": "layer_data_map.fid--27e80436_1a098b908f8_7675", "geometry": {"type": "Point", "coordinates": [106.82574114, 47.95407504]}, "geometry_name": "geom", "properties": {"guid": 7268, "id": 7268, "object_no": null, "object_name": null, "layer_type_id": 228, "valid_to": null, "address_no": null, "border_type": "solid", "border_width": null, "border_color": null, "border_opacity": null, "border_wellknown": "horizline", "fill_type": "color", "fill_color": "#ae7adf", "fill_opacity": 1, "fill_wellknown": "horizline", "fill_shape_color": null, "fill_shape_width": null, "fill_shape_size": null, "fill_img_url": null, "marker_img_url": null}},{"type": "Feature", "id": "layer_data_map.fid--27e80436_1a098b908f8_7676", "geometry": {"type": "Point", "coordinates": [106.82586676, 47.95424564]}, "geometry_name": "geom", "properties": {"guid": 7269, "id": 7269, "object_no": null, "object_name": null, "layer_type_id": 228, "valid_to": null, "address_no": null, "border_type": "solid", "border_width": null, "border_color": null, "border_opacity": null, "border_wellknown": "horizline", "fill_type": "color", "fill_color": "#ae7adf", "fill_opacity": 1, "fill_wellknown": "horizline", "fill_shape_color": null, "fill_shape_width": null, "fill_shape_size": null, "fill_img_url": null, "marker_img_url": null}},{"type": "Feature", "id": "layer_data_map.fid--27e80436_1a098b908f8_7677", "geometry": {"type": "Point", "coordinates": [106.82640917, 47.95379838]}, "geometry_name": "geom", "properties": {"guid": 7270, "id": 7270, "object_no": null, "object_name": null, "layer_type_id": 228, "valid_to": null, "address_no": null, "border_type": "solid", "border_width": null, "border_color": null, "border_opacity": null, "border_wellknown": "horizline", "fill_type": "color", "fill_color": "#ae7adf", "fill_opacity": 1, "fill_wellknown": "horizline", "fill_shape_color": null, "fill_shape_width": null, "fill_shape_size": null, "fill_img_url": null, "marker_img_url": null}},{"type": "Feature", "id": "layer_data_map.fid--27e80436_1a098b908f8_7678", "geometry": {"type": "Point", "coordinates": [106.84039843, 47.95561671]}, "geometry_name": "geom", "properties": {"guid": 7271, "id": 7271, "object_no": null, "object_name": null, "layer_type_id": 228, "valid_to": null, "address_no": null, "border_type": "solid", "border_width": null, "border_color": null, "border_opacity": null, "border_wellknown": "horizline", "fill_type": "color", "fill_color": "#ae7adf", "fill_opacity": 1, "fill_wellknown": "horizline", "fill_shape_color": null, "fill_shape_width": null, "fill_shape_size": null, "fill_img_url": null, "marker_img_url": null}},{"type": "Feature", "id": "layer_data_map.fid--27e80436_1a098b908f8_7679", "geometry": {"type": "Point", "coordinates": [106.74639459, 47.91921217]}, "geometry_name": "geom", "properties": {"guid": 7272, "id": 7272, "object_no": null, "object_name": null, "layer_type_id": 228, "valid_to": null, "address_no": null, "border_type": "solid", "border_width": null, "border_color": null, "border_opacity": null, "border_wellknown": "horizline", "fill_type": "color", "fill_color": "#ae7adf", "fill_opacity": 1, "fill_wellknown": "horizline", "fill_shape_color": null, "fill_shape_width": null, "fill_shape_size": null, "fill_img_url": null, "marker_img_url": null}},{"type": "Feature", "id": "layer_data_map.fid--27e80436_1a098b908f8_767a", "geometry": {"type": "Point", "coordinates": [106.81503531, 47.92183236]}, "geometry_name": "geom", "properties": {"guid": 7273, "id": 7273, "object_no": null, "object_name": null, "layer_type_id": 228, "valid_to": null, "address_no": null, "border_type": "solid", "border_width": null, "border_color": null, "border_opacity": null, "border_wellknown": "horizline", "fill_type": "color", "fill_color": "#ae7adf", "fill_opacity": 1, "fill_wellknown": "horizline", "fill_shape_color": null, "fill_shape_width": null, "fill_shape_size": null, "fill_img_url": null, "marker_img_url": null}},{"type": "Feature", "id": "layer_data_map.fid--27e80436_1a098b908f8_767b", "geometry": {"type": "Point", "coordinates": [106.85221084, 47.9539778]}, "geometry_name": "geom", "properties": {"guid": 7274, "id": 7274, "object_no": null, "object_name": null, "layer_type_id": 228, "valid_to": null, "address_no": null, "border_type": "solid", "border_width": null, "border_color": null, "border_opacity": null, "border_wellknown": "horizline", "fill_type": "color", "fill_color": "#ae7adf", "fill_opacity": 1, "fill_wellknown": "horizline", "fill_shape_color": null, "fill_shape_width": null, "fill_shape_size": null, "fill_img_url": null, "marker_img_url": null}},{"type": "Feature", "id": "layer_data_map.fid--27e80436_1a098b908f8_767c", "geometry": {"type": "Point", "coordinates": [106.82204909, 47.91136938]}, "geometry_name": "geom", "properties": {"guid": 7275, "id": 7275, "object_no": null, "object_name": null, "layer_type_id": 228, "valid_to": null, "address_no": null, "border_type": "solid", "border_width": null, "border_color": null, "border_opacity": null, "border_wellknown": "horizline", "fill_type": "color", "fill_color": "#ae7adf", "fill_opacity": 1, "fill_wellknown": "horizline", "fill_shape_color": null, "fill_shape_width": null, "fill_shape_size": null, "fill_img_url": null, "marker_img_url": null}},{"type": "Feature", "id": "layer_data_map.fid--27e80436_1a098b908f8_767d", "geometry": {"type": "Point", "coordinates": [106.82027617, 47.91091108]}, "geometry_name": "geom", "properties": {"guid": 7276, "id": 7276, "object_no": null, "object_name": null, "layer_type_id": 228, "valid_to": null, "address_no": null, "border_type": "solid", "border_width": null, "border_color": null, "border_opacity": null, "border_wellknown": "horizline", "fill_type": "color", "fill_color": "#ae7adf", "fill_opacity": 1, "fill_wellknown": "horizline", "fill_shape_color": null, "fill_shape_width": null, "fill_shape_size": null, "fill_img_url": null, "marker_img_url": null}},{"type": "Feature", "id": "layer_data_map.fid--27e80436_1a098b908f8_767e", "geometry": {"type": "Point", "coordinates": [106.82336692, 47.91122447]}, "geometry_name": "geom", "properties": {"guid": 7277, "id": 7277, "object_no": null, "object_name": null, "layer_type_id": 228, "valid_to": null, "address_no": null, "border_type": "solid", "border_width": null, "border_color": null, "border_opacity": null, "border_wellknown": "horizline", "fill_type": "color", "fill_color": "#ae7adf", "fill_opacity": 1, "fill_wellknown": "horizline", "fill_shape_color": null, "fill_shape_width": null, "fill_shape_size": null, "fill_img_url": null, "marker_img_url": null}},{"type": "Feature", "id": "layer_data_map.fid--27e80436_1a098b908f8_767f", "geometry": {"type": "Point", "coordinates": [106.80476343, 47.91053303]}, "geometry_name": "geom", "properties": {"guid": 7278, "id": 7278, "object_no": null, "object_name": null, "layer_type_id": 228, "valid_to": null, "address_no": null, "border_type": "solid", "border_width": null, "border_color": null, "border_opacity": null, "border_wellknown": "horizline", "fill_type": "color", "fill_color": "#ae7adf", "fill_opacity": 1, "fill_wellknown": "horizline", "fill_shape_color": null, "fill_shape_width": null, "fill_shape_size": null, "fill_img_url": null, "marker_img_url": null}}]}