{"type":"FeatureCollection","features":[{"type": "Feature", "id": "layer_data_map.fid--27e80436_1a098c1eed1_-5478", "geometry": {"type": "Polygon", "coordinates": [[[106.70787479, 47.8736231], [106.80687717, 47.79928085], [106.82677357, 47.81128096], [106.72777773, 47.88564016], [106.70787479, 47.8736231]]]}, "geometry_name": "geom", "properties": {"guid": 3241489, "id": 3241489, "object_no": null, "object_name": "Тусгай бүс", "layer_type_id": 163, "valid_to": null, "address_no": null, "border_type": "solid", "border_width": null, "border_color": "#999999", "border_opacity": null, "border_wellknown": "shape://horizline", "fill_type": "wellknown", "fill_color": "#999999", "fill_opacity": 0.5, "fill_wellknown": "shape://slash", "fill_shape_color": "#999999", "fill_shape_width": null, "fill_shape_size": 10, "fill_img_url": null, "marker_img_url": null}},{"type": "Feature", "id": "layer_data_map.fid--27e80436_1a098c1eed1_-5477", "geometry": {"type": "Polygon", "coordinates": [[[106.87422414, 47.84077169], [106.8742447, 47.8414904], [106.8742546, 47.8422092], [106.87425383, 47.84292804], [106.8742424, 47.84364684], [106.8742203, 47.84436552], [106.87418754, 47.84508402], [106.87414411, 47.84580227], [106.87409003, 47.84652018], [106.8740253, 47.8472377], [106.87394992, 47.84795474], [106.87386391, 47.84867124], [106.87376726, 47.84938713], [106.87365999, 47.85010233], [106.87354211, 47.85081678], [106.87341363, 47.8515304], [106.87327456, 47.85224311], [106.87312492, 47.85295486], [106.87296472, 47.85366556], [106.87279398, 47.85437515], [106.8726127, 47.85508356], [106.87242092, 47.85579071], [106.87221865, 47.85649654], [106.87200591, 47.85720098], [106.87178271, 47.85790394], [106.87154909, 47.85860537], [106.87130506, 47.8593052], [106.87105065, 47.86000335], [106.87078589, 47.86069975], [106.87051079, 47.86139434], [106.87022539, 47.86208704], [106.86992972, 47.86277779], [106.8696238, 47.86346652], [106.86930766, 47.86415316], [106.86898134, 47.86483763], [106.86864486, 47.86551988], [106.86829826, 47.86619983], [106.86794158, 47.86687741], [106.86757485, 47.86755257], [106.86719811, 47.86822522], [106.86681139, 47.86889531], [106.86641473, 47.86956276], [106.86600817, 47.87022751], [106.86559175, 47.87088949], [106.86516552, 47.87154865], [106.86472951, 47.8722049], [106.86428377, 47.87285818], [106.86382834, 47.87350844], [106.86336326, 47.8741556], [106.8628886, 47.87479961], [106.86240438, 47.87544038], [106.86191065, 47.87607788], [106.86140748, 47.87671201], [106.86089491, 47.87734274], [106.86037298, 47.87796998], [106.85984175, 47.87859369], [106.85930127, 47.87921379], [106.85875161, 47.87983022], [106.8581928, 47.88044293], [106.85762491, 47.88105185], [106.85704799, 47.88165692], [106.85646211, 47.88225808], [106.85586731, 47.88285527], [106.85526366, 47.88344843], [106.85465122, 47.8840375], [106.85403005, 47.88462243], [106.85340021, 47.88520315], [106.85276176, 47.8857796], [106.85211477, 47.88635173], [106.8514593, 47.88691949], [106.85079542, 47.8874828], [106.85012319, 47.88804163], [106.84944268, 47.8885959], [106.84875396, 47.88914558], [106.84805709, 47.88969059], [106.84735215, 47.89023089], [106.84663921, 47.89076642], [106.84591834, 47.89129714], [106.8451896, 47.89182297], [106.84445308, 47.89234389], [106.84370884, 47.89285982], [106.84295696, 47.89337072], [106.84219751, 47.89387654], [106.84143058, 47.89437723], [106.84065623, 47.89487274], [106.83987455, 47.89536301], [106.83908561, 47.895848], [106.83828949, 47.89632767], [106.83748627, 47.89680196], [106.83667603, 47.89727082], [106.83585885, 47.89773421], [106.83503481, 47.89819208], [106.834204, 47.89864439], [106.8333665, 47.89909108], [106.83252239, 47.89953213], [106.83167176, 47.89996747], [106.83081469, 47.90039708], [106.82995127, 47.9008209], [106.82908157, 47.90123889], [106.8282057, 47.90165101], [106.82732374, 47.90205723], [106.82643577, 47.90245749], [106.82554189, 47.90285176], [106.82464218, 47.90324], [106.82373674, 47.90362217], [106.82282565, 47.90399823], [106.821909, 47.90436815], [106.82098689, 47.90473188], [106.82005942, 47.9050894], [106.81912666, 47.90544066], [106.81818872, 47.90578563], [106.81724569, 47.90612428], [106.81629766, 47.90645656], [106.81534473, 47.90678246], [106.814387, 47.90710193], [106.81342456, 47.90741495], [106.8124575, 47.90772148], [106.81148592, 47.90802149], [106.81050992, 47.90831495], [106.80952961, 47.90860183], [106.80854506, 47.90888211], [106.8075564, 47.90915576], [106.8065637, 47.90942274], [106.80556708, 47.90968303], [106.80456663, 47.90993661], [106.80356245, 47.91018344], [106.80255465, 47.91042352], [106.80154332, 47.9106568], [106.80052856, 47.91088327], [106.79951048, 47.91110291], [106.79848919, 47.91131569], [106.79746477, 47.91152159], [106.79643733, 47.91172059], [106.79540699, 47.91191267], [106.79437383, 47.91209781], [106.79333796, 47.912276], [106.7922995, 47.91244721], [106.79125853, 47.91261143], [106.79021517, 47.91276865], [106.78916952, 47.91291884], [106.78812168, 47.91306199], [106.78707176, 47.91319808], [106.78601987, 47.91332711], [106.78496611, 47.91344906], [106.78391058, 47.91356392], [106.7828534, 47.91367167], [106.78179466, 47.91377231], [106.78073447, 47.91386582], [106.77967295, 47.91395221], [106.77861019, 47.91403144], [106.7775463, 47.91410353], [106.77648139, 47.91416846], [106.77541557, 47.91422622], [106.77434894, 47.91427682], [106.77328161, 47.91432024], [106.77221368, 47.91435648], [106.77114527, 47.91438554], [106.77007648, 47.91440741], [106.76900742, 47.91442209], [106.76793819, 47.91442958], [106.7668689, 47.91442989], [106.76579966, 47.914423], [106.76473058, 47.91440892], [106.76366176, 47.91438765], [106.76259331, 47.9143592], [106.76152534, 47.91432356], [106.76045795, 47.91428075], [106.75939125, 47.91423075], [106.75832535, 47.91417359], [106.75726036, 47.91410926], [106.75619638, 47.91403778], [106.75513351, 47.91395914], [106.75407187, 47.91387336], [106.75301156, 47.91378044], [106.75195269, 47.9136804], [106.75089536, 47.91357325], [106.74983968, 47.91345899], [106.74878576, 47.91333763], [106.74773369, 47.91320919], [106.7466836, 47.91307369], [106.74563557, 47.91293113], [106.74458972, 47.91278153], [106.74354615, 47.91262491], [106.74250497, 47.91246127], [106.74146627, 47.91229064], [106.74043017, 47.91211304], [106.73939677, 47.91192847], [106.73836617, 47.91173697], [106.73733847, 47.91153855], [106.73631378, 47.91133322], [106.7352922, 47.91112101], [106.73427383, 47.91090195], [106.73325878, 47.91067605], [106.73224714, 47.91044333], [106.73123902, 47.91020382], [106.73023452, 47.90995754], [106.72923374, 47.90970453], [106.72823677, 47.90944479], [106.72724372, 47.90917836], [106.7262547, 47.90890527], [106.72526978, 47.90862554], [106.72428909, 47.9083392], [106.72331271, 47.90804628], [106.72234074, 47.90774681], [106.72137327, 47.90744082], [106.72041042, 47.90712834], [106.71945226, 47.9068094], [106.71849891, 47.90648403], [106.71755045, 47.90615227], [106.71660697, 47.90581414], [106.71566858, 47.90546969], [106.71473536, 47.90511894], [106.71380742, 47.90476194], [106.71288483, 47.90439871], [106.71196771, 47.9040293], [106.71105613, 47.90365373], [106.71015018, 47.90327206], [106.70924997, 47.90288431], [106.70835557, 47.90249053], [106.70746708, 47.90209076], [106.70658459, 47.90168503], [106.70570818, 47.90127338], [106.70483795, 47.90085586], [106.70397397, 47.90043251], [106.70311634, 47.90000338], [106.70226515, 47.89956849], [106.70142047, 47.8991279], [106.70058239, 47.89868166], [106.69975099, 47.8982298], [106.69892636, 47.89777237], [106.69810859, 47.89730942], [106.69729774, 47.896841], [106.69649391, 47.89636714], [106.69569717, 47.8958879], [106.69490761, 47.89540333], [106.69412529, 47.89491348], [106.69335031, 47.89441838], [106.69258273, 47.8939181], [106.69182264, 47.89341269], [106.6910701, 47.89290218], [106.6903252, 47.89238664], [106.68958801, 47.89186612], [106.6888586, 47.89134067], [106.68813705, 47.89081033], [106.68742342, 47.89027518], [106.68671779, 47.88973524], [106.68602024, 47.8891906], [106.68533081, 47.88864128], [106.6846496, 47.88808736], [106.68397666, 47.88752889], [106.68331206, 47.88696591], [106.68265588, 47.8863985], [106.68200816, 47.8858267], [106.68136898, 47.88525057], [106.68073841, 47.88467018], [106.6801165, 47.88408557], [106.67950331, 47.88349681], [106.67889892, 47.88290396], [106.67830337, 47.88230707], [106.67771672, 47.8817062], [106.67713905, 47.88110142], [106.67657039, 47.88049279], [106.67601082, 47.87988036], [106.67546038, 47.8792642], [106.67491913, 47.87864437], [106.67438712, 47.87802093], [106.67386441, 47.87739394], [106.67335104, 47.87676347], [106.67284708, 47.87612958], [106.67235257, 47.87549233], [106.67186755, 47.87485179], [106.67139208, 47.87420801], [106.67092621, 47.87356107], [106.67046997, 47.87291103], [106.67002342, 47.87225796], [106.6695866, 47.87160191], [106.66915955, 47.87094296], [106.66874232, 47.87028118], [106.66833494, 47.86961661], [106.66793746, 47.86894934], [106.66754992, 47.86827944], [106.66717235, 47.86760696], [106.66680479, 47.86693197], [106.66644728, 47.86625454], [106.66609985, 47.86557475], [106.66576255, 47.86489265], [106.66543539, 47.86420832], [106.66511841, 47.86352182], [106.66481166, 47.86283322], [106.66451514, 47.8621426], [106.6642289, 47.86145002], [106.66395296, 47.86075554], [106.66368735, 47.86005925], [106.6634321, 47.8593612], [106.66318723, 47.85866147], [106.66295276, 47.85796013], [106.66272872, 47.85725725], [106.66251513, 47.85655289], [106.66231201, 47.85584714], [106.66211938, 47.85514005], [106.66193726, 47.8544317], [106.66176567, 47.85372217], [106.66160462, 47.85301151], [106.66145413, 47.85229981], [106.66131421, 47.85158713], [106.66118488, 47.85087355], [106.66106615, 47.85015913], [106.66095803, 47.84944395], [106.66086054, 47.84872808], [106.66077367, 47.84801158], [106.66069745, 47.84729454], [106.66063187, 47.84657702], [106.66057694, 47.8458591], [106.66053267, 47.84514084], [106.66049906, 47.84442232], [106.66047612, 47.84370361], [106.66046384, 47.84298479], [106.66046223, 47.84226591], [106.66047129, 47.84154706], [106.66049101, 47.84082831], [106.6605214, 47.84010972], [106.66056244, 47.83939138], [106.66061414, 47.83867335], [106.66067649, 47.8379557], [106.66074948, 47.8372385], [106.66083311, 47.83652183], [106.66092736, 47.83580576], [106.66103223, 47.83509036], [106.66114771, 47.8343757], [106.66127378, 47.83366186], [106.66141043, 47.83294889], [106.66155764, 47.83223688], [106.66171541, 47.8315259], [106.66188371, 47.83081601], [106.66206253, 47.83010729], [106.66225185, 47.82939981], [106.66245165, 47.82869363], [106.66266191, 47.82798884], [106.66288261, 47.82728549], [106.66311373, 47.82658366], [106.66335523, 47.82588343], [106.66360711, 47.82518485], [106.66386933, 47.824488], [106.66414186, 47.82379294], [106.66442469, 47.82309976], [106.66471777, 47.82240851], [106.66502109, 47.82171927], [106.6653346, 47.8210321], [106.66565828, 47.82034707], [106.6659921, 47.81966425], [106.66633602, 47.81898372], [106.66669001, 47.81830553], [106.66705402, 47.81762975], [106.66742804, 47.81695646], [106.667812, 47.81628571], [106.66820589, 47.81561758], [106.66860966, 47.81495213], [106.66902326, 47.81428943], [106.66944667, 47.81362955], [106.66987982, 47.81297254], [106.67032269, 47.81231848], [106.67077522, 47.81166743], [106.67123737, 47.81101946], [106.6717091, 47.81037463], [106.67219035, 47.809733], [106.67268109, 47.80909464], [106.67318125, 47.80845961], [106.67369079, 47.80782798], [106.67420966, 47.8071998], [106.67473781, 47.80657515], [106.67527517, 47.80595408], [106.67582171, 47.80533665], [106.67637736, 47.80472293], [106.67694208, 47.80411297], [106.67751579, 47.80350685], [106.67809845, 47.80290461], [106.67868999, 47.80230632], [106.67929037, 47.80171204], [106.67989951, 47.80112183], [106.68051735, 47.80053574], [106.68114384, 47.79995384], [106.68177892, 47.79937617], [106.68242251, 47.79880281], [106.68307455, 47.79823381], [106.68373499, 47.79766921], [106.68440374, 47.79710909], [106.68508076, 47.79655349], [106.68576596, 47.79600247], [106.68645928, 47.79545609], [106.68716065, 47.7949144], [106.68787001, 47.79437745], [106.68858727, 47.7938453], [106.68931237, 47.793318], [106.69004524, 47.7927956], [106.69078579, 47.79227815], [106.69153397, 47.79176572], [106.69228969, 47.79125833], [106.69305289, 47.79075606], [106.69382347, 47.79025894], [106.69460137, 47.78976703], [106.6953865, 47.78928038], [106.6961788, 47.78879903], [106.69697818, 47.78832303], [106.69778455, 47.78785243], [106.69859785, 47.78738728], [106.69941799, 47.78692762], [106.70024489, 47.7864735], [106.70107846, 47.78602496], [106.70191862, 47.78558205], [106.70276529, 47.78514481], [106.70361839, 47.78471329], [106.70447782, 47.78428752], [106.70534351, 47.78386756], [106.70621536, 47.78345344], [106.7070933, 47.7830452], [106.70797723, 47.78264289], [106.70886706, 47.78224654], [106.70976271, 47.78185619], [106.71066409, 47.78147189], [106.7115711, 47.78109367], [106.71248366, 47.78072157], [106.71340168, 47.78035562], [106.71432506, 47.77999586], [106.71525371, 47.77964234], [106.71618755, 47.77929507], [106.71712647, 47.7789541], [106.71807038, 47.77861946], [106.7190192, 47.77829119], [106.71997282, 47.77796931], [106.72093115, 47.77765387], [106.7218941, 47.77734488], [106.72286157, 47.77704239], [106.72383345, 47.77674641], [106.72480967, 47.77645699], [106.72579012, 47.77617414], [106.72677469, 47.77589791], [106.7277633, 47.7756283], [106.72875585, 47.77536536], [106.72975223, 47.77510911], [106.73075236, 47.77485957], [106.73175612, 47.77461677], [106.73276341, 47.77438073], [106.73377415, 47.77415148], [106.73478822, 47.77392903], [106.73580554, 47.77371342], [106.73682598, 47.77350465], [106.73784946, 47.77330276], [106.73887588, 47.77310777], [106.73990512, 47.77291968], [106.74093709, 47.77273853], [106.74197169, 47.77256432], [106.74300881, 47.77239708], [106.74404835, 47.77223683], [106.74509021, 47.77208357], [106.74613428, 47.77193733], [106.74718046, 47.77179811], [106.74822864, 47.77166594], [106.74927873, 47.77154082], [106.75033061, 47.77142277], [106.75138418, 47.7713118], [106.75243934, 47.77120792], [106.75349598, 47.77111115], [106.754554, 47.77102148], [106.7556133, 47.77093893], [106.75667375, 47.77086351], [106.75773527, 47.77079522], [106.75879775, 47.77073408], [106.75986108, 47.77068008], [106.76092515, 47.77063324], [106.76198986, 47.77059356], [106.7630551, 47.77056103], [106.76412077, 47.77053568], [106.76518677, 47.77051749], [106.76625297, 47.77050647], [106.76731929, 47.77050262], [106.76838561, 47.77050594], [106.76945183, 47.77051643], [106.77051784, 47.77053409], [106.77158354, 47.77055892], [106.77264882, 47.77059092], [106.77371357, 47.77063007], [106.77477768, 47.77067639], [106.77584107, 47.77072986], [106.7769036, 47.77079047], [106.77796519, 47.77085823], [106.77902573, 47.77093313], [106.7800851, 47.77101515], [106.78114321, 47.77110429], [106.78219995, 47.77120055], [106.78325522, 47.7713039], [106.7843089, 47.77141435], [106.7853609, 47.77153187], [106.78641111, 47.77165647], [106.78745943, 47.77178812], [106.78850575, 47.77192681], [106.78954997, 47.77207254], [106.79059198, 47.77222528], [106.79163169, 47.77238502], [106.79266898, 47.77255174], [106.79370375, 47.77272543], [106.79473591, 47.77290606], [106.79576534, 47.77309364], [106.79679195, 47.77328812], [106.79781564, 47.7734895], [106.7988363, 47.77369775], [106.79985383, 47.77391286], [106.80086813, 47.77413479], [106.8018791, 47.77436354], [106.80288664, 47.77459907], [106.80389065, 47.77484137], [106.80489102, 47.77509041], [106.80588767, 47.77534616], [106.80688048, 47.7756086], [106.80786937, 47.77587771], [106.80885423, 47.77615345], [106.80983497, 47.7764358], [106.81081148, 47.77672473], [106.81178367, 47.77702021], [106.81275145, 47.77732222], [106.81371471, 47.77763072], [106.81467337, 47.77794568], [106.81562732, 47.77826707], [106.81657647, 47.77859486], [106.81752073, 47.77892902], [106.81846, 47.77926951], [106.8193942, 47.7796163], [106.82032321, 47.77996936], [106.82124697, 47.78032864], [106.82216536, 47.78069412], [106.82307831, 47.78106575], [106.82398571, 47.78144351], [106.82488749, 47.78182735], [106.82578354, 47.78221724], [106.82667378, 47.78261313], [106.82755813, 47.78301499], [106.82843649, 47.78342277], [106.82930877, 47.78383644], [106.8301749, 47.78425596], [106.83103478, 47.78468128], [106.83188832, 47.78511236], [106.83273545, 47.78554916], [106.83357608, 47.78599163], [106.83441012, 47.78643973], [106.83523749, 47.78689342], [106.83605811, 47.78735265], [106.83687189, 47.78781738], [106.83767877, 47.78828756], [106.83847864, 47.78876314], [106.83927145, 47.78924407], [106.84005709, 47.78973031], [106.84083551, 47.79022181], [106.84160662, 47.79071852], [106.84237034, 47.79122039], [106.8431266, 47.79172737], [106.84387532, 47.79223941], [106.84461643, 47.79275646], [106.84534985, 47.79327847], [106.84607551, 47.79380538], [106.84679334, 47.79433715], [106.84750326, 47.79487372], [106.84820521, 47.79541503], [106.84889912, 47.79596104], [106.84958491, 47.79651169], [106.85026251, 47.79706692], [106.85093187, 47.79762668], [106.85159291, 47.79819091], [106.85224557, 47.79875956], [106.85288977, 47.79933257], [106.85352547, 47.79990989], [106.85415258, 47.80049145], [106.85477106, 47.8010772], [106.85538084, 47.80166707], [106.85598185, 47.80226102], [106.85657405, 47.80285898], [106.85715736, 47.8034609], [106.85773173, 47.8040667], [106.8582971, 47.80467634], [106.85885342, 47.80528975], [106.85940063, 47.80590687], [106.85993868, 47.80652763], [106.86046751, 47.80715199], [106.86098706, 47.80777987], [106.8614973, 47.80841121], [106.86199815, 47.80904595], [106.86248959, 47.80968403], [106.86297154, 47.81032538], [106.86344398, 47.81096994], [106.86390685, 47.81161764], [106.8643601, 47.81226843], [106.86480369, 47.81292223], [106.86523757, 47.81357898], [106.8656617, 47.81423861], [106.86607604, 47.81490107], [106.86648055, 47.81556627], [106.86687518, 47.81623417], [106.86725989, 47.81690468], [106.86763466, 47.81757775], [106.86799943, 47.8182533], [106.86835417, 47.81893128], [106.86869886, 47.8196116], [106.86903344, 47.82029421], [106.86935789, 47.82097903], [106.86967217, 47.82166601], [106.86997626, 47.82235506], [106.87027013, 47.82304612], [106.87055373, 47.82373912], [106.87082705, 47.824434], [106.87109006, 47.82513068], [106.87134273, 47.82582909], [106.87158503, 47.82652916], [106.87181694, 47.82723083], [106.87203844, 47.82793403], [106.87224951, 47.82863868], [106.87245011, 47.82934471], [106.87264024, 47.83005206], [106.87281987, 47.83076065], [106.87298899, 47.83147041], [106.87314757, 47.83218128], [106.8732956, 47.83289317], [106.87343307, 47.83360603], [106.87355996, 47.83431977], [106.87367626, 47.83503433], [106.87378196, 47.83574964], [106.87387704, 47.83646562], [106.8739615, 47.83718221], [106.87403532, 47.83789933], [106.8740985, 47.83861691], [106.87415104, 47.83933488], [106.87419292, 47.84005316], [106.87422414, 47.84077169]]]}, "geometry_name": "geom", "properties": {"guid": 3241573, "id": 3241573, "object_no": null, "object_name": "Б бүс", "layer_type_id": 163, "valid_to": null, "address_no": null, "border_type": "solid", "border_width": null, "border_color": "#999999", "border_opacity": null, "border_wellknown": "shape://horizline", "fill_type": "wellknown", "fill_color": "#999999", "fill_opacity": 0.5, "fill_wellknown": "shape://slash", "fill_shape_color": "#999999", "fill_shape_width": null, "fill_shape_size": 10, "fill_img_url": null, "marker_img_url": null}},{"type": "Feature", "id": "layer_data_map.fid--27e80436_1a098c1eed1_-5476", "geometry": {"type": "Polygon", "coordinates": [[[106.75160533, 47.85240946], [106.78032328, 47.83084199], [106.80257807, 47.80804455], [106.82925812, 47.78068181], [106.89140278, 47.71681082], [106.93893392, 47.74544533], [106.85173588, 47.7942348], [106.81431534, 47.81512414], [106.78310861, 47.83252254], [106.75439088, 47.8540907], [106.73209527, 47.87687861], [106.7053142, 47.90421827], [106.64271694, 47.96798593], [106.59514587, 47.93922985], [106.68282732, 47.89063686], [106.72035527, 47.86979069], [106.75160533, 47.85240946]]]}, "geometry_name": "geom", "properties": {"guid": 3241574, "id": 3241574, "object_no": null, "object_name": "Агаарын хөлгийн ойртолтын гадаргуугийн бүс", "layer_type_id": 163, "valid_to": null, "address_no": null, "border_type": "solid", "border_width": null, "border_color": "#999999", "border_opacity": null, "border_wellknown": "shape://horizline", "fill_type": "wellknown", "fill_color": "#999999", "fill_opacity": 0.5, "fill_wellknown": "shape://slash", "fill_shape_color": "#999999", "fill_shape_width": null, "fill_shape_size": 10, "fill_img_url": null, "marker_img_url": null}}]}