{"type":"FeatureCollection","features":[{"type": "Feature", "id": "layer_data_map.fid--27e80436_1a098c1eed1_1da8", "geometry": {"type": "Point", "coordinates": [106.94051112, 47.92821173]}, "geometry_name": "geom", "properties": {"guid": 7059, "id": 7059, "object_no": null, "object_name": null, "layer_type_id": 227, "valid_to": null, "address_no": null, "border_type": "solid", "border_width": null, "border_color": null, "border_opacity": null, "border_wellknown": "shape://horizline", "fill_type": "img", "fill_color": null, "fill_opacity": null, "fill_wellknown": null, "fill_shape_color": null, "fill_shape_width": null, "fill_shape_size": null, "fill_img_url": null, "marker_img_url": "marker_img_url/6396c1cbee345.png"}},{"type": "Feature", "id": "layer_data_map.fid--27e80436_1a098c1eed1_1da9", "geometry": {"type": "Point", "coordinates": [106.93989185, 47.91912571]}, "geometry_name": "geom", "properties": {"guid": 7060, "id": 7060, "object_no": null, "object_name": null, "layer_type_id": 227, "valid_to": null, "address_no": null, "border_type": "solid", "border_width": null, "border_color": null, "border_opacity": null, "border_wellknown": "shape://horizline", "fill_type": "img", "fill_color": null, "fill_opacity": null, "fill_wellknown": null, "fill_shape_color": null, "fill_shape_width": null, "fill_shape_size": null, "fill_img_url": null, "marker_img_url": "marker_img_url/6396c1cbee345.png"}},{"type": "Feature", "id": "layer_data_map.fid--27e80436_1a098c1eed1_1daa", "geometry": {"type": "Point", "coordinates": [106.87687528, 47.91647562]}, "geometry_name": "geom", "properties": {"guid": 7061, "id": 7061, "object_no": null, "object_name": null, "layer_type_id": 227, "valid_to": null, "address_no": null, "border_type": "solid", "border_width": null, "border_color": null, "border_opacity": null, "border_wellknown": "shape://horizline", "fill_type": "img", "fill_color": null, "fill_opacity": null, "fill_wellknown": null, "fill_shape_color": null, "fill_shape_width": null, "fill_shape_size": null, "fill_img_url": null, "marker_img_url": "marker_img_url/6396c1cbee345.png"}},{"type": "Feature", "id": "layer_data_map.fid--27e80436_1a098c1eed1_1dab", "geometry": {"type": "Point", "coordinates": [106.91625763, 47.91566043]}, "geometry_name": "geom", "properties": {"guid": 7062, "id": 7062, "object_no": null, "object_name": null, "layer_type_id": 227, "valid_to": null, "address_no": null, "border_type": "solid", "border_width": null, "border_color": null, "border_opacity": null, "border_wellknown": "shape://horizline", "fill_type": "img", "fill_color": null, "fill_opacity": null, "fill_wellknown": null, "fill_shape_color": null, "fill_shape_width": null, "fill_shape_size": null, "fill_img_url": null, "marker_img_url": "marker_img_url/6396c1cbee345.png"}},{"type": "Feature", "id": "layer_data_map.fid--27e80436_1a098c1eed1_1dac", "geometry": {"type": "Point", "coordinates": [106.90277662, 47.91291721]}, "geometry_name": "geom", "properties": {"guid": 7063, "id": 7063, "object_no": null, "object_name": null, "layer_type_id": 227, "valid_to": null, "address_no": null, "border_type": "solid", "border_width": null, "border_color": null, "border_opacity": null, "border_wellknown": "shape://horizline", "fill_type": "img", "fill_color": null, "fill_opacity": null, "fill_wellknown": null, "fill_shape_color": null, "fill_shape_width": null, "fill_shape_size": null, "fill_img_url": null, "marker_img_url": "marker_img_url/6396c1cbee345.png"}},{"type": "Feature", "id": "layer_data_map.fid--27e80436_1a098c1eed1_1dad", "geometry": {"type": "Point", "coordinates": [106.91404708, 47.9121768]}, "geometry_name": "geom", "properties": {"guid": 7064, "id": 7064, "object_no": null, "object_name": null, "layer_type_id": 227, "valid_to": null, "address_no": null, "border_type": "solid", "border_width": null, "border_color": null, "border_opacity": null, "border_wellknown": "shape://horizline", "fill_type": "img", "fill_color": null, "fill_opacity": null, "fill_wellknown": null, "fill_shape_color": null, "fill_shape_width": null, "fill_shape_size": null, "fill_img_url": null, "marker_img_url": "marker_img_url/6396c1cbee345.png"}},{"type": "Feature", "id": "layer_data_map.fid--27e80436_1a098c1eed1_1dae", "geometry": {"type": "Point", "coordinates": [106.89066885, 47.91733298]}, "geometry_name": "geom", "properties": {"guid": 7065, "id": 7065, "object_no": null, "object_name": null, "layer_type_id": 227, "valid_to": null, "address_no": null, "border_type": "solid", "border_width": null, "border_color": null, "border_opacity": null, "border_wellknown": "shape://horizline", "fill_type": "img", "fill_color": null, "fill_opacity": null, "fill_wellknown": null, "fill_shape_color": null, "fill_shape_width": null, "fill_shape_size": null, "fill_img_url": null, "marker_img_url": "marker_img_url/6396c1cbee345.png"}},{"type": "Feature", "id": "layer_data_map.fid--27e80436_1a098c1eed1_1daf", "geometry": {"type": "Point", "coordinates": [106.90666369, 47.92357153]}, "geometry_name": "geom", "properties": {"guid": 7066, "id": 7066, "object_no": null, "object_name": null, "layer_type_id": 227, "valid_to": null, "address_no": null, "border_type": "solid", "border_width": null, "border_color": null, "border_opacity": null, "border_wellknown": "shape://horizline", "fill_type": "img", "fill_color": null, "fill_opacity": null, "fill_wellknown": null, "fill_shape_color": null, "fill_shape_width": null, "fill_shape_size": null, "fill_img_url": null, "marker_img_url": "marker_img_url/6396c1cbee345.png"}},{"type": "Feature", "id": "layer_data_map.fid--27e80436_1a098c1eed1_1db0", "geometry": {"type": "Point", "coordinates": [106.7622613, 47.85291673]}, "geometry_name": "geom", "properties": {"guid": 7067, "id": 7067, "object_no": null, "object_name": null, "layer_type_id": 227, "valid_to": null, "address_no": null, "border_type": "solid", "border_width": null, "border_color": null, "border_opacity": null, "border_wellknown": "shape://horizline", "fill_type": "img", "fill_color": null, "fill_opacity": null, "fill_wellknown": null, "fill_shape_color": null, "fill_shape_width": null, "fill_shape_size": null, "fill_img_url": null, "marker_img_url": "marker_img_url/6396c1cbee345.png"}},{"type": "Feature", "id": "layer_data_map.fid--27e80436_1a098c1eed1_1db1", "geometry": {"type": "Point", "coordinates": [106.89090779, 47.9229322]}, "geometry_name": "geom", "properties": {"guid": 7068, "id": 7068, "object_no": null, "object_name": null, "layer_type_id": 227, "valid_to": null, "address_no": null, "border_type": "solid", "border_width": null, "border_color": null, "border_opacity": null, "border_wellknown": "shape://horizline", "fill_type": "img", "fill_color": null, "fill_opacity": null, "fill_wellknown": null, "fill_shape_color": null, "fill_shape_width": null, "fill_shape_size": null, "fill_img_url": null, "marker_img_url": "marker_img_url/6396c1cbee345.png"}},{"type": "Feature", "id": "layer_data_map.fid--27e80436_1a098c1eed1_1db2", "geometry": {"type": "Point", "coordinates": [106.90270494, 47.91934328]}, "geometry_name": "geom", "properties": {"guid": 7069, "id": 7069, "object_no": null, "object_name": null, "layer_type_id": 227, "valid_to": null, "address_no": null, "border_type": "solid", "border_width": null, "border_color": null, "border_opacity": null, "border_wellknown": "shape://horizline", "fill_type": "img", "fill_color": null, "fill_opacity": null, "fill_wellknown": null, "fill_shape_color": null, "fill_shape_width": null, "fill_shape_size": null, "fill_img_url": null, "marker_img_url": "marker_img_url/6396c1cbee345.png"}},{"type": "Feature", "id": "layer_data_map.fid--27e80436_1a098c1eed1_1db3", "geometry": {"type": "Point", "coordinates": [106.91335718, 47.92614378]}, "geometry_name": "geom", "properties": {"guid": 7070, "id": 7070, "object_no": null, "object_name": null, "layer_type_id": 227, "valid_to": null, "address_no": null, "border_type": "solid", "border_width": null, "border_color": null, "border_opacity": null, "border_wellknown": "shape://horizline", "fill_type": "img", "fill_color": null, "fill_opacity": null, "fill_wellknown": null, "fill_shape_color": null, "fill_shape_width": null, "fill_shape_size": null, "fill_img_url": null, "marker_img_url": "marker_img_url/6396c1cbee345.png"}},{"type": "Feature", "id": "layer_data_map.fid--27e80436_1a098c1eed1_1db4", "geometry": {"type": "Point", "coordinates": [106.92217952, 47.92040347]}, "geometry_name": "geom", "properties": {"guid": 7071, "id": 7071, "object_no": null, "object_name": null, "layer_type_id": 227, "valid_to": null, "address_no": null, "border_type": "solid", "border_width": null, "border_color": null, "border_opacity": null, "border_wellknown": "shape://horizline", "fill_type": "img", "fill_color": null, "fill_opacity": null, "fill_wellknown": null, "fill_shape_color": null, "fill_shape_width": null, "fill_shape_size": null, "fill_img_url": null, "marker_img_url": "marker_img_url/6396c1cbee345.png"}},{"type": "Feature", "id": "layer_data_map.fid--27e80436_1a098c1eed1_1db5", "geometry": {"type": "Point", "coordinates": [106.90617657, 47.91174455]}, "geometry_name": "geom", "properties": {"guid": 7072, "id": 7072, "object_no": null, "object_name": null, "layer_type_id": 227, "valid_to": null, "address_no": null, "border_type": "solid", "border_width": null, "border_color": null, "border_opacity": null, "border_wellknown": "shape://horizline", "fill_type": "img", "fill_color": null, "fill_opacity": null, "fill_wellknown": null, "fill_shape_color": null, "fill_shape_width": null, "fill_shape_size": null, "fill_img_url": null, "marker_img_url": "marker_img_url/6396c1cbee345.png"}},{"type": "Feature", "id": "layer_data_map.fid--27e80436_1a098c1eed1_1db6", "geometry": {"type": "Point", "coordinates": [106.92302325, 47.91883254]}, "geometry_name": "geom", "properties": {"guid": 7073, "id": 7073, "object_no": null, "object_name": null, "layer_type_id": 227, "valid_to": null, "address_no": null, "border_type": "solid", "border_width": null, "border_color": null, "border_opacity": null, "border_wellknown": "shape://horizline", "fill_type": "img", "fill_color": null, "fill_opacity": null, "fill_wellknown": null, "fill_shape_color": null, "fill_shape_width": null, "fill_shape_size": null, "fill_img_url": null, "marker_img_url": "marker_img_url/6396c1cbee345.png"}},{"type": "Feature", "id": "layer_data_map.fid--27e80436_1a098c1eed1_1db7", "geometry": {"type": "Point", "coordinates": [106.9157997, 47.91951079]}, "geometry_name": "geom", "properties": {"guid": 7074, "id": 7074, "object_no": null, "object_name": null, "layer_type_id": 227, "valid_to": null, "address_no": null, "border_type": "solid", "border_width": null, "border_color": null, "border_opacity": null, "border_wellknown": "shape://horizline", "fill_type": "img", "fill_color": null, "fill_opacity": null, "fill_wellknown": null, "fill_shape_color": null, "fill_shape_width": null, "fill_shape_size": null, "fill_img_url": null, "marker_img_url": "marker_img_url/6396c1cbee345.png"}},{"type": "Feature", "id": "layer_data_map.fid--27e80436_1a098c1eed1_1db8", "geometry": {"type": "Point", "coordinates": [106.89742588, 47.91330964]}, "geometry_name": "geom", "properties": {"guid": 7075, "id": 7075, "object_no": null, "object_name": null, "layer_type_id": 227, "valid_to": null, "address_no": null, "border_type": "solid", "border_width": null, "border_color": null, "border_opacity": null, "border_wellknown": "shape://horizline", "fill_type": "img", "fill_color": null, "fill_opacity": null, "fill_wellknown": null, "fill_shape_color": null, "fill_shape_width": null, "fill_shape_size": null, "fill_img_url": null, "marker_img_url": "marker_img_url/6396c1cbee345.png"}},{"type": "Feature", "id": "layer_data_map.fid--27e80436_1a098c1eed1_1db9", "geometry": {"type": "Point", "coordinates": [106.91039578, 47.89883916]}, "geometry_name": "geom", "properties": {"guid": 7076, "id": 7076, "object_no": null, "object_name": null, "layer_type_id": 227, "valid_to": null, "address_no": null, "border_type": "solid", "border_width": null, "border_color": null, "border_opacity": null, "border_wellknown": "shape://horizline", "fill_type": "img", "fill_color": null, "fill_opacity": null, "fill_wellknown": null, "fill_shape_color": null, "fill_shape_width": null, "fill_shape_size": null, "fill_img_url": null, "marker_img_url": "marker_img_url/6396c1cbee345.png"}},{"type": "Feature", "id": "layer_data_map.fid--27e80436_1a098c1eed1_1dba", "geometry": {"type": "Point", "coordinates": [106.91557859, 47.92294811]}, "geometry_name": "geom", "properties": {"guid": 7077, "id": 7077, "object_no": null, "object_name": null, "layer_type_id": 227, "valid_to": null, "address_no": null, "border_type": "solid", "border_width": null, "border_color": null, "border_opacity": null, "border_wellknown": "shape://horizline", "fill_type": "img", "fill_color": null, "fill_opacity": null, "fill_wellknown": null, "fill_shape_color": null, "fill_shape_width": null, "fill_shape_size": null, "fill_img_url": null, "marker_img_url": "marker_img_url/6396c1cbee345.png"}},{"type": "Feature", "id": "layer_data_map.fid--27e80436_1a098c1eed1_1dbb", "geometry": {"type": "Point", "coordinates": [106.91576137, 47.92578558]}, "geometry_name": "geom", "properties": {"guid": 7078, "id": 7078, "object_no": null, "object_name": null, "layer_type_id": 227, "valid_to": null, "address_no": null, "border_type": "solid", "border_width": null, "border_color": null, "border_opacity": null, "border_wellknown": "shape://horizline", "fill_type": "img", "fill_color": null, "fill_opacity": null, "fill_wellknown": null, "fill_shape_color": null, "fill_shape_width": null, "fill_shape_size": null, "fill_img_url": null, "marker_img_url": "marker_img_url/6396c1cbee345.png"}},{"type": "Feature", "id": "layer_data_map.fid--27e80436_1a098c1eed1_1dbc", "geometry": {"type": "Point", "coordinates": [106.94350652, 47.91989544]}, "geometry_name": "geom", "properties": {"guid": 7079, "id": 7079, "object_no": null, "object_name": null, "layer_type_id": 227, "valid_to": null, "address_no": null, "border_type": "solid", "border_width": null, "border_color": null, "border_opacity": null, "border_wellknown": "shape://horizline", "fill_type": "img", "fill_color": null, "fill_opacity": null, "fill_wellknown": null, "fill_shape_color": null, "fill_shape_width": null, "fill_shape_size": null, "fill_img_url": null, "marker_img_url": "marker_img_url/6396c1cbee345.png"}},{"type": "Feature", "id": "layer_data_map.fid--27e80436_1a098c1eed1_1dbd", "geometry": {"type": "Point", "coordinates": [106.90624409, 47.91952379]}, "geometry_name": "geom", "properties": {"guid": 7080, "id": 7080, "object_no": null, "object_name": null, "layer_type_id": 227, "valid_to": null, "address_no": null, "border_type": "solid", "border_width": null, "border_color": null, "border_opacity": null, "border_wellknown": "shape://horizline", "fill_type": "img", "fill_color": null, "fill_opacity": null, "fill_wellknown": null, "fill_shape_color": null, "fill_shape_width": null, "fill_shape_size": null, "fill_img_url": null, "marker_img_url": "marker_img_url/6396c1cbee345.png"}},{"type": "Feature", "id": "layer_data_map.fid--27e80436_1a098c1eed1_1dbe", "geometry": {"type": "Point", "coordinates": [106.89871836, 47.91714217]}, "geometry_name": "geom", "properties": {"guid": 7081, "id": 7081, "object_no": null, "object_name": null, "layer_type_id": 227, "valid_to": null, "address_no": null, "border_type": "solid", "border_width": null, "border_color": null, "border_opacity": null, "border_wellknown": "shape://horizline", "fill_type": "img", "fill_color": null, "fill_opacity": null, "fill_wellknown": null, "fill_shape_color": null, "fill_shape_width": null, "fill_shape_size": null, "fill_img_url": null, "marker_img_url": "marker_img_url/6396c1cbee345.png"}},{"type": "Feature", "id": "layer_data_map.fid--27e80436_1a098c1eed1_1dbf", "geometry": {"type": "Point", "coordinates": [106.93525398, 47.92168794]}, "geometry_name": "geom", "properties": {"guid": 7082, "id": 7082, "object_no": null, "object_name": null, "layer_type_id": 227, "valid_to": null, "address_no": null, "border_type": "solid", "border_width": null, "border_color": null, "border_opacity": null, "border_wellknown": "shape://horizline", "fill_type": "img", "fill_color": null, "fill_opacity": null, "fill_wellknown": null, "fill_shape_color": null, "fill_shape_width": null, "fill_shape_size": null, "fill_img_url": null, "marker_img_url": "marker_img_url/6396c1cbee345.png"}},{"type": "Feature", "id": "layer_data_map.fid--27e80436_1a098c1eed1_1dc0", "geometry": {"type": "Point", "coordinates": [106.87537869, 47.92470574]}, "geometry_name": "geom", "properties": {"guid": 7083, "id": 7083, "object_no": null, "object_name": null, "layer_type_id": 227, "valid_to": null, "address_no": null, "border_type": "solid", "border_width": null, "border_color": null, "border_opacity": null, "border_wellknown": "shape://horizline", "fill_type": "img", "fill_color": null, "fill_opacity": null, "fill_wellknown": null, "fill_shape_color": null, "fill_shape_width": null, "fill_shape_size": null, "fill_img_url": null, "marker_img_url": "marker_img_url/6396c1cbee345.png"}},{"type": "Feature", "id": "layer_data_map.fid--27e80436_1a098c1eed1_1dc1", "geometry": {"type": "Point", "coordinates": [106.91388211, 47.91521396]}, "geometry_name": "geom", "properties": {"guid": 7084, "id": 7084, "object_no": null, "object_name": null, "layer_type_id": 227, "valid_to": null, "address_no": null, "border_type": "solid", "border_width": null, "border_color": null, "border_opacity": null, "border_wellknown": "shape://horizline", "fill_type": "img", "fill_color": null, "fill_opacity": null, "fill_wellknown": null, "fill_shape_color": null, "fill_shape_width": null, "fill_shape_size": null, "fill_img_url": null, "marker_img_url": "marker_img_url/6396c1cbee345.png"}},{"type": "Feature", "id": "layer_data_map.fid--27e80436_1a098c1eed1_1dc2", "geometry": {"type": "Point", "coordinates": [106.87619531, 47.92387234]}, "geometry_name": "geom", "properties": {"guid": 7085, "id": 7085, "object_no": null, "object_name": null, "layer_type_id": 227, "valid_to": null, "address_no": null, "border_type": "solid", "border_width": null, "border_color": null, "border_opacity": null, "border_wellknown": "shape://horizline", "fill_type": "img", "fill_color": null, "fill_opacity": null, "fill_wellknown": null, "fill_shape_color": null, "fill_shape_width": null, "fill_shape_size": null, "fill_img_url": null, "marker_img_url": "marker_img_url/6396c1cbee345.png"}},{"type": "Feature", "id": "layer_data_map.fid--27e80436_1a098c1eed1_1dc3", "geometry": {"type": "Point", "coordinates": [106.87881539, 47.9231322]}, "geometry_name": "geom", "properties": {"guid": 7086, "id": 7086, "object_no": null, "object_name": null, "layer_type_id": 227, "valid_to": null, "address_no": null, "border_type": "solid", "border_width": null, "border_color": null, "border_opacity": null, "border_wellknown": "shape://horizline", "fill_type": "img", "fill_color": null, "fill_opacity": null, "fill_wellknown": null, "fill_shape_color": null, "fill_shape_width": null, "fill_shape_size": null, "fill_img_url": null, "marker_img_url": "marker_img_url/6396c1cbee345.png"}},{"type": "Feature", "id": "layer_data_map.fid--27e80436_1a098c1eed1_1dc4", "geometry": {"type": "Point", "coordinates": [106.94437599, 47.91514908]}, "geometry_name": "geom", "properties": {"guid": 7087, "id": 7087, "object_no": null, "object_name": null, "layer_type_id": 227, "valid_to": null, "address_no": null, "border_type": "solid", "border_width": null, "border_color": null, "border_opacity": null, "border_wellknown": "shape://horizline", "fill_type": "img", "fill_color": null, "fill_opacity": null, "fill_wellknown": null, "fill_shape_color": null, "fill_shape_width": null, "fill_shape_size": null, "fill_img_url": null, "marker_img_url": "marker_img_url/6396c1cbee345.png"}},{"type": "Feature", "id": "layer_data_map.fid--27e80436_1a098c1eed1_1dc5", "geometry": {"type": "Point", "coordinates": [106.85554486, 47.91354606]}, "geometry_name": "geom", "properties": {"guid": 7088, "id": 7088, "object_no": null, "object_name": null, "layer_type_id": 227, "valid_to": null, "address_no": null, "border_type": "solid", "border_width": null, "border_color": null, "border_opacity": null, "border_wellknown": "shape://horizline", "fill_type": "img", "fill_color": null, "fill_opacity": null, "fill_wellknown": null, "fill_shape_color": null, "fill_shape_width": null, "fill_shape_size": null, "fill_img_url": null, "marker_img_url": "marker_img_url/6396c1cbee345.png"}},{"type": "Feature", "id": "layer_data_map.fid--27e80436_1a098c1eed1_1dc6", "geometry": {"type": "Point", "coordinates": [106.91763971, 47.91546215]}, "geometry_name": "geom", "properties": {"guid": 7089, "id": 7089, "object_no": null, "object_name": null, "layer_type_id": 227, "valid_to": null, "address_no": null, "border_type": "solid", "border_width": null, "border_color": null, "border_opacity": null, "border_wellknown": "shape://horizline", "fill_type": "img", "fill_color": null, "fill_opacity": null, "fill_wellknown": null, "fill_shape_color": null, "fill_shape_width": null, "fill_shape_size": null, "fill_img_url": null, "marker_img_url": "marker_img_url/6396c1cbee345.png"}},{"type": "Feature", "id": "layer_data_map.fid--27e80436_1a098c1eed1_1dc7", "geometry": {"type": "Point", "coordinates": [106.91832581, 47.92600721]}, "geometry_name": "geom", "properties": {"guid": 7090, "id": 7090, "object_no": null, "object_name": null, "layer_type_id": 227, "valid_to": null, "address_no": null, "border_type": "solid", "border_width": null, "border_color": null, "border_opacity": null, "border_wellknown": "shape://horizline", "fill_type": "img", "fill_color": null, "fill_opacity": null, "fill_wellknown": null, "fill_shape_color": null, "fill_shape_width": null, "fill_shape_size": null, "fill_img_url": null, "marker_img_url": "marker_img_url/6396c1cbee345.png"}},{"type": "Feature", "id": "layer_data_map.fid--27e80436_1a098c1eed1_1dc8", "geometry": {"type": "Point", "coordinates": [106.9093126, 47.90087573]}, "geometry_name": "geom", "properties": {"guid": 7091, "id": 7091, "object_no": null, "object_name": null, "layer_type_id": 227, "valid_to": null, "address_no": null, "border_type": "solid", "border_width": null, "border_color": null, "border_opacity": null, "border_wellknown": "shape://horizline", "fill_type": "img", "fill_color": null, "fill_opacity": null, "fill_wellknown": null, "fill_shape_color": null, "fill_shape_width": null, "fill_shape_size": null, "fill_img_url": null, "marker_img_url": "marker_img_url/6396c1cbee345.png"}},{"type": "Feature", "id": "layer_data_map.fid--27e80436_1a098c1eed1_1dc9", "geometry": {"type": "Point", "coordinates": [106.90833936, 47.91350436]}, "geometry_name": "geom", "properties": {"guid": 7092, "id": 7092, "object_no": null, "object_name": null, "layer_type_id": 227, "valid_to": null, "address_no": null, "border_type": "solid", "border_width": null, "border_color": null, "border_opacity": null, "border_wellknown": "shape://horizline", "fill_type": "img", "fill_color": null, "fill_opacity": null, "fill_wellknown": null, "fill_shape_color": null, "fill_shape_width": null, "fill_shape_size": null, "fill_img_url": null, "marker_img_url": "marker_img_url/6396c1cbee345.png"}},{"type": "Feature", "id": "layer_data_map.fid--27e80436_1a098c1eed1_1dca", "geometry": {"type": "Point", "coordinates": [106.91405985, 47.91265852]}, "geometry_name": "geom", "properties": {"guid": 7093, "id": 7093, "object_no": null, "object_name": null, "layer_type_id": 227, "valid_to": null, "address_no": null, "border_type": "solid", "border_width": null, "border_color": null, "border_opacity": null, "border_wellknown": "shape://horizline", "fill_type": "img", "fill_color": null, "fill_opacity": null, "fill_wellknown": null, "fill_shape_color": null, "fill_shape_width": null, "fill_shape_size": null, "fill_img_url": null, "marker_img_url": "marker_img_url/6396c1cbee345.png"}},{"type": "Feature", "id": "layer_data_map.fid--27e80436_1a098c1eed1_1dcb", "geometry": {"type": "Point", "coordinates": [106.90243032, 47.91546454]}, "geometry_name": "geom", "properties": {"guid": 7094, "id": 7094, "object_no": null, "object_name": null, "layer_type_id": 227, "valid_to": null, "address_no": null, "border_type": "solid", "border_width": null, "border_color": null, "border_opacity": null, "border_wellknown": "shape://horizline", "fill_type": "img", "fill_color": null, "fill_opacity": null, "fill_wellknown": null, "fill_shape_color": null, "fill_shape_width": null, "fill_shape_size": null, "fill_img_url": null, "marker_img_url": "marker_img_url/6396c1cbee345.png"}},{"type": "Feature", "id": "layer_data_map.fid--27e80436_1a098c1eed1_1dcc", "geometry": {"type": "Point", "coordinates": [106.93275595, 47.92215527]}, "geometry_name": "geom", "properties": {"guid": 7095, "id": 7095, "object_no": null, "object_name": null, "layer_type_id": 227, "valid_to": null, "address_no": null, "border_type": "solid", "border_width": null, "border_color": null, "border_opacity": null, "border_wellknown": "shape://horizline", "fill_type": "img", "fill_color": null, "fill_opacity": null, "fill_wellknown": null, "fill_shape_color": null, "fill_shape_width": null, "fill_shape_size": null, "fill_img_url": null, "marker_img_url": "marker_img_url/6396c1cbee345.png"}},{"type": "Feature", "id": "layer_data_map.fid--27e80436_1a098c1eed1_1dcd", "geometry": {"type": "Point", "coordinates": [106.94353697, 47.91996148]}, "geometry_name": "geom", "properties": {"guid": 7096, "id": 7096, "object_no": null, "object_name": null, "layer_type_id": 227, "valid_to": null, "address_no": null, "border_type": "solid", "border_width": null, "border_color": null, "border_opacity": null, "border_wellknown": "shape://horizline", "fill_type": "img", "fill_color": null, "fill_opacity": null, "fill_wellknown": null, "fill_shape_color": null, "fill_shape_width": null, "fill_shape_size": null, "fill_img_url": null, "marker_img_url": "marker_img_url/6396c1cbee345.png"}},{"type": "Feature", "id": "layer_data_map.fid--27e80436_1a098c1eed1_1dce", "geometry": {"type": "Point", "coordinates": [106.93414775, 47.9287545]}, "geometry_name": "geom", "properties": {"guid": 7097, "id": 7097, "object_no": null, "object_name": null, "layer_type_id": 227, "valid_to": null, "address_no": null, "border_type": "solid", "border_width": null, "border_color": null, "border_opacity": null, "border_wellknown": "shape://horizline", "fill_type": "img", "fill_color": null, "fill_opacity": null, "fill_wellknown": null, "fill_shape_color": null, "fill_shape_width": null, "fill_shape_size": null, "fill_img_url": null, "marker_img_url": "marker_img_url/6396c1cbee345.png"}},{"type": "Feature", "id": "layer_data_map.fid--27e80436_1a098c1eed1_1dcf", "geometry": {"type": "Point", "coordinates": [106.94487941, 47.91721146]}, "geometry_name": "geom", "properties": {"guid": 7098, "id": 7098, "object_no": null, "object_name": null, "layer_type_id": 227, "valid_to": null, "address_no": null, "border_type": "solid", "border_width": null, "border_color": null, "border_opacity": null, "border_wellknown": "shape://horizline", "fill_type": "img", "fill_color": null, "fill_opacity": null, "fill_wellknown": null, "fill_shape_color": null, "fill_shape_width": null, "fill_shape_size": null, "fill_img_url": null, "marker_img_url": "marker_img_url/6396c1cbee345.png"}},{"type": "Feature", "id": "layer_data_map.fid--27e80436_1a098c1eed1_1dd0", "geometry": {"type": "Point", "coordinates": [106.97332579, 47.91297549]}, "geometry_name": "geom", "properties": {"guid": 7099, "id": 7099, "object_no": null, "object_name": null, "layer_type_id": 227, "valid_to": null, "address_no": null, "border_type": "solid", "border_width": null, "border_color": null, "border_opacity": null, "border_wellknown": "shape://horizline", "fill_type": "img", "fill_color": null, "fill_opacity": null, "fill_wellknown": null, "fill_shape_color": null, "fill_shape_width": null, "fill_shape_size": null, "fill_img_url": null, "marker_img_url": "marker_img_url/6396c1cbee345.png"}},{"type": "Feature", "id": "layer_data_map.fid--27e80436_1a098c1eed1_1dd1", "geometry": {"type": "Point", "coordinates": [106.9213418, 47.92035174]}, "geometry_name": "geom", "properties": {"guid": 7100, "id": 7100, "object_no": null, "object_name": null, "layer_type_id": 227, "valid_to": null, "address_no": null, "border_type": "solid", "border_width": null, "border_color": null, "border_opacity": null, "border_wellknown": "shape://horizline", "fill_type": "img", "fill_color": null, "fill_opacity": null, "fill_wellknown": null, "fill_shape_color": null, "fill_shape_width": null, "fill_shape_size": null, "fill_img_url": null, "marker_img_url": "marker_img_url/6396c1cbee345.png"}},{"type": "Feature", "id": "layer_data_map.fid--27e80436_1a098c1eed1_1dd2", "geometry": {"type": "Point", "coordinates": [106.90000194, 47.91281483]}, "geometry_name": "geom", "properties": {"guid": 7101, "id": 7101, "object_no": null, "object_name": null, "layer_type_id": 227, "valid_to": null, "address_no": null, "border_type": "solid", "border_width": null, "border_color": null, "border_opacity": null, "border_wellknown": "shape://horizline", "fill_type": "img", "fill_color": null, "fill_opacity": null, "fill_wellknown": null, "fill_shape_color": null, "fill_shape_width": null, "fill_shape_size": null, "fill_img_url": null, "marker_img_url": "marker_img_url/6396c1cbee345.png"}},{"type": "Feature", "id": "layer_data_map.fid--27e80436_1a098c1eed1_1dd3", "geometry": {"type": "Point", "coordinates": [106.89341623, 47.91368117]}, "geometry_name": "geom", "properties": {"guid": 7102, "id": 7102, "object_no": null, "object_name": null, "layer_type_id": 227, "valid_to": null, "address_no": null, "border_type": "solid", "border_width": null, "border_color": null, "border_opacity": null, "border_wellknown": "shape://horizline", "fill_type": "img", "fill_color": null, "fill_opacity": null, "fill_wellknown": null, "fill_shape_color": null, "fill_shape_width": null, "fill_shape_size": null, "fill_img_url": null, "marker_img_url": "marker_img_url/6396c1cbee345.png"}},{"type": "Feature", "id": "layer_data_map.fid--27e80436_1a098c1eed1_1dd4", "geometry": {"type": "Point", "coordinates": [106.89368279, 47.91312585]}, "geometry_name": "geom", "properties": {"guid": 7103, "id": 7103, "object_no": null, "object_name": null, "layer_type_id": 227, "valid_to": null, "address_no": null, "border_type": "solid", "border_width": null, "border_color": null, "border_opacity": null, "border_wellknown": "shape://horizline", "fill_type": "img", "fill_color": null, "fill_opacity": null, "fill_wellknown": null, "fill_shape_color": null, "fill_shape_width": null, "fill_shape_size": null, "fill_img_url": null, "marker_img_url": "marker_img_url/6396c1cbee345.png"}},{"type": "Feature", "id": "layer_data_map.fid--27e80436_1a098c1eed1_1dd5", "geometry": {"type": "Point", "coordinates": [106.88953675, 47.91235399]}, "geometry_name": "geom", "properties": {"guid": 7104, "id": 7104, "object_no": null, "object_name": null, "layer_type_id": 227, "valid_to": null, "address_no": null, "border_type": "solid", "border_width": null, "border_color": null, "border_opacity": null, "border_wellknown": "shape://horizline", "fill_type": "img", "fill_color": null, "fill_opacity": null, "fill_wellknown": null, "fill_shape_color": null, "fill_shape_width": null, "fill_shape_size": null, "fill_img_url": null, "marker_img_url": "marker_img_url/6396c1cbee345.png"}},{"type": "Feature", "id": "layer_data_map.fid--27e80436_1a098c1eed1_1dd6", "geometry": {"type": "Point", "coordinates": [106.86498647, 47.91416389]}, "geometry_name": "geom", "properties": {"guid": 7105, "id": 7105, "object_no": null, "object_name": null, "layer_type_id": 227, "valid_to": null, "address_no": null, "border_type": "solid", "border_width": null, "border_color": null, "border_opacity": null, "border_wellknown": "shape://horizline", "fill_type": "img", "fill_color": null, "fill_opacity": null, "fill_wellknown": null, "fill_shape_color": null, "fill_shape_width": null, "fill_shape_size": null, "fill_img_url": null, "marker_img_url": "marker_img_url/6396c1cbee345.png"}},{"type": "Feature", "id": "layer_data_map.fid--27e80436_1a098c1eed1_1dd7", "geometry": {"type": "Point", "coordinates": [106.93474836, 47.91829981]}, "geometry_name": "geom", "properties": {"guid": 7106, "id": 7106, "object_no": null, "object_name": null, "layer_type_id": 227, "valid_to": null, "address_no": null, "border_type": "solid", "border_width": null, "border_color": null, "border_opacity": null, "border_wellknown": "shape://horizline", "fill_type": "img", "fill_color": null, "fill_opacity": null, "fill_wellknown": null, "fill_shape_color": null, "fill_shape_width": null, "fill_shape_size": null, "fill_img_url": null, "marker_img_url": "marker_img_url/6396c1cbee345.png"}},{"type": "Feature", "id": "layer_data_map.fid--27e80436_1a098c1eed1_1dd8", "geometry": {"type": "Point", "coordinates": [106.91153249, 47.92115612]}, "geometry_name": "geom", "properties": {"guid": 7107, "id": 7107, "object_no": null, "object_name": null, "layer_type_id": 227, "valid_to": null, "address_no": null, "border_type": "solid", "border_width": null, "border_color": null, "border_opacity": null, "border_wellknown": "shape://horizline", "fill_type": "img", "fill_color": null, "fill_opacity": null, "fill_wellknown": null, "fill_shape_color": null, "fill_shape_width": null, "fill_shape_size": null, "fill_img_url": null, "marker_img_url": "marker_img_url/6396c1cbee345.png"}},{"type": "Feature", "id": "layer_data_map.fid--27e80436_1a098c1eed1_1dd9", "geometry": {"type": "Point", "coordinates": [106.91128212, 47.92352988]}, "geometry_name": "geom", "properties": {"guid": 7108, "id": 7108, "object_no": null, "object_name": null, "layer_type_id": 227, "valid_to": null, "address_no": null, "border_type": "solid", "border_width": null, "border_color": null, "border_opacity": null, "border_wellknown": "shape://horizline", "fill_type": "img", "fill_color": null, "fill_opacity": null, "fill_wellknown": null, "fill_shape_color": null, "fill_shape_width": null, "fill_shape_size": null, "fill_img_url": null, "marker_img_url": "marker_img_url/6396c1cbee345.png"}},{"type": "Feature", "id": "layer_data_map.fid--27e80436_1a098c1eed1_1dda", "geometry": {"type": "Point", "coordinates": [106.89752706, 47.91344465]}, "geometry_name": "geom", "properties": {"guid": 7109, "id": 7109, "object_no": null, "object_name": null, "layer_type_id": 227, "valid_to": null, "address_no": null, "border_type": "solid", "border_width": null, "border_color": null, "border_opacity": null, "border_wellknown": "shape://horizline", "fill_type": "img", "fill_color": null, "fill_opacity": null, "fill_wellknown": null, "fill_shape_color": null, "fill_shape_width": null, "fill_shape_size": null, "fill_img_url": null, "marker_img_url": "marker_img_url/6396c1cbee345.png"}},{"type": "Feature", "id": "layer_data_map.fid--27e80436_1a098c1eed1_1ddb", "geometry": {"type": "Point", "coordinates": [106.90906457, 47.91668568]}, "geometry_name": "geom", "properties": {"guid": 7110, "id": 7110, "object_no": null, "object_name": null, "layer_type_id": 227, "valid_to": null, "address_no": null, "border_type": "solid", "border_width": null, "border_color": null, "border_opacity": null, "border_wellknown": "shape://horizline", "fill_type": "img", "fill_color": null, "fill_opacity": null, "fill_wellknown": null, "fill_shape_color": null, "fill_shape_width": null, "fill_shape_size": null, "fill_img_url": null, "marker_img_url": "marker_img_url/6396c1cbee345.png"}},{"type": "Feature", "id": "layer_data_map.fid--27e80436_1a098c1eed1_1ddc", "geometry": {"type": "Point", "coordinates": [106.88402062, 47.92261606]}, "geometry_name": "geom", "properties": {"guid": 7111, "id": 7111, "object_no": null, "object_name": null, "layer_type_id": 227, "valid_to": null, "address_no": null, "border_type": "solid", "border_width": null, "border_color": null, "border_opacity": null, "border_wellknown": "shape://horizline", "fill_type": "img", "fill_color": null, "fill_opacity": null, "fill_wellknown": null, "fill_shape_color": null, "fill_shape_width": null, "fill_shape_size": null, "fill_img_url": null, "marker_img_url": "marker_img_url/6396c1cbee345.png"}},{"type": "Feature", "id": "layer_data_map.fid--27e80436_1a098c1eed1_1ddd", "geometry": {"type": "Point", "coordinates": [106.91800072, 47.92576452]}, "geometry_name": "geom", "properties": {"guid": 7112, "id": 7112, "object_no": null, "object_name": null, "layer_type_id": 227, "valid_to": null, "address_no": null, "border_type": "solid", "border_width": null, "border_color": null, "border_opacity": null, "border_wellknown": "shape://horizline", "fill_type": "img", "fill_color": null, "fill_opacity": null, "fill_wellknown": null, "fill_shape_color": null, "fill_shape_width": null, "fill_shape_size": null, "fill_img_url": null, "marker_img_url": "marker_img_url/6396c1cbee345.png"}},{"type": "Feature", "id": "layer_data_map.fid--27e80436_1a098c1eed1_1dde", "geometry": {"type": "Point", "coordinates": [106.91224046, 47.91002206]}, "geometry_name": "geom", "properties": {"guid": 7113, "id": 7113, "object_no": null, "object_name": null, "layer_type_id": 227, "valid_to": null, "address_no": null, "border_type": "solid", "border_width": null, "border_color": null, "border_opacity": null, "border_wellknown": "shape://horizline", "fill_type": "img", "fill_color": null, "fill_opacity": null, "fill_wellknown": null, "fill_shape_color": null, "fill_shape_width": null, "fill_shape_size": null, "fill_img_url": null, "marker_img_url": "marker_img_url/6396c1cbee345.png"}},{"type": "Feature", "id": "layer_data_map.fid--27e80436_1a098c1eed1_1ddf", "geometry": {"type": "Point", "coordinates": [106.9153355, 47.92452753]}, "geometry_name": "geom", "properties": {"guid": 7114, "id": 7114, "object_no": null, "object_name": null, "layer_type_id": 227, "valid_to": null, "address_no": null, "border_type": "solid", "border_width": null, "border_color": null, "border_opacity": null, "border_wellknown": "shape://horizline", "fill_type": "img", "fill_color": null, "fill_opacity": null, "fill_wellknown": null, "fill_shape_color": null, "fill_shape_width": null, "fill_shape_size": null, "fill_img_url": null, "marker_img_url": "marker_img_url/6396c1cbee345.png"}},{"type": "Feature", "id": "layer_data_map.fid--27e80436_1a098c1eed1_1de0", "geometry": {"type": "Point", "coordinates": [106.90531046, 47.91161248]}, "geometry_name": "geom", "properties": {"guid": 7115, "id": 7115, "object_no": null, "object_name": null, "layer_type_id": 227, "valid_to": null, "address_no": null, "border_type": "solid", "border_width": null, "border_color": null, "border_opacity": null, "border_wellknown": "shape://horizline", "fill_type": "img", "fill_color": null, "fill_opacity": null, "fill_wellknown": null, "fill_shape_color": null, "fill_shape_width": null, "fill_shape_size": null, "fill_img_url": null, "marker_img_url": "marker_img_url/6396c1cbee345.png"}},{"type": "Feature", "id": "layer_data_map.fid--27e80436_1a098c1eed1_1de1", "geometry": {"type": "Point", "coordinates": [106.95947319, 47.91754359]}, "geometry_name": "geom", "properties": {"guid": 7116, "id": 7116, "object_no": null, "object_name": null, "layer_type_id": 227, "valid_to": null, "address_no": null, "border_type": "solid", "border_width": null, "border_color": null, "border_opacity": null, "border_wellknown": "shape://horizline", "fill_type": "img", "fill_color": null, "fill_opacity": null, "fill_wellknown": null, "fill_shape_color": null, "fill_shape_width": null, "fill_shape_size": null, "fill_img_url": null, "marker_img_url": "marker_img_url/6396c1cbee345.png"}},{"type": "Feature", "id": "layer_data_map.fid--27e80436_1a098c1eed1_1de2", "geometry": {"type": "Point", "coordinates": [106.91157751, 47.90550252]}, "geometry_name": "geom", "properties": {"guid": 7117, "id": 7117, "object_no": null, "object_name": null, "layer_type_id": 227, "valid_to": null, "address_no": null, "border_type": "solid", "border_width": null, "border_color": null, "border_opacity": null, "border_wellknown": "shape://horizline", "fill_type": "img", "fill_color": null, "fill_opacity": null, "fill_wellknown": null, "fill_shape_color": null, "fill_shape_width": null, "fill_shape_size": null, "fill_img_url": null, "marker_img_url": "marker_img_url/6396c1cbee345.png"}},{"type": "Feature", "id": "layer_data_map.fid--27e80436_1a098c1eed1_1de3", "geometry": {"type": "Point", "coordinates": [106.90723533, 47.91438911]}, "geometry_name": "geom", "properties": {"guid": 7118, "id": 7118, "object_no": null, "object_name": null, "layer_type_id": 227, "valid_to": null, "address_no": null, "border_type": "solid", "border_width": null, "border_color": null, "border_opacity": null, "border_wellknown": "shape://horizline", "fill_type": "img", "fill_color": null, "fill_opacity": null, "fill_wellknown": null, "fill_shape_color": null, "fill_shape_width": null, "fill_shape_size": null, "fill_img_url": null, "marker_img_url": "marker_img_url/6396c1cbee345.png"}},{"type": "Feature", "id": "layer_data_map.fid--27e80436_1a098c1eed1_1de4", "geometry": {"type": "Point", "coordinates": [106.87678435, 47.91619038]}, "geometry_name": "geom", "properties": {"guid": 7119, "id": 7119, "object_no": null, "object_name": null, "layer_type_id": 227, "valid_to": null, "address_no": null, "border_type": "solid", "border_width": null, "border_color": null, "border_opacity": null, "border_wellknown": "shape://horizline", "fill_type": "img", "fill_color": null, "fill_opacity": null, "fill_wellknown": null, "fill_shape_color": null, "fill_shape_width": null, "fill_shape_size": null, "fill_img_url": null, "marker_img_url": "marker_img_url/6396c1cbee345.png"}},{"type": "Feature", "id": "layer_data_map.fid--27e80436_1a098c1eed1_1de5", "geometry": {"type": "Point", "coordinates": [106.91111041, 47.91946077]}, "geometry_name": "geom", "properties": {"guid": 7120, "id": 7120, "object_no": null, "object_name": null, "layer_type_id": 227, "valid_to": null, "address_no": null, "border_type": "solid", "border_width": null, "border_color": null, "border_opacity": null, "border_wellknown": "shape://horizline", "fill_type": "img", "fill_color": null, "fill_opacity": null, "fill_wellknown": null, "fill_shape_color": null, "fill_shape_width": null, "fill_shape_size": null, "fill_img_url": null, "marker_img_url": "marker_img_url/6396c1cbee345.png"}},{"type": "Feature", "id": "layer_data_map.fid--27e80436_1a098c1eed1_1e37", "geometry": {"type": "Point", "coordinates": [106.90234383, 47.91300092]}, "geometry_name": "geom", "properties": {"guid": 7121, "id": 7121, "object_no": null, "object_name": null, "layer_type_id": 227, "valid_to": null, "address_no": null, "border_type": "solid", "border_width": null, "border_color": null, "border_opacity": null, "border_wellknown": "shape://horizline", "fill_type": "img", "fill_color": null, "fill_opacity": null, "fill_wellknown": null, "fill_shape_color": null, "fill_shape_width": null, "fill_shape_size": null, "fill_img_url": null, "marker_img_url": "marker_img_url/6396c1cbee345.png"}},{"type": "Feature", "id": "layer_data_map.fid--27e80436_1a098c1eed1_1e38", "geometry": {"type": "Point", "coordinates": [106.9443673, 47.91435426]}, "geometry_name": "geom", "properties": {"guid": 7122, "id": 7122, "object_no": null, "object_name": null, "layer_type_id": 227, "valid_to": null, "address_no": null, "border_type": "solid", "border_width": null, "border_color": null, "border_opacity": null, "border_wellknown": "shape://horizline", "fill_type": "img", "fill_color": null, "fill_opacity": null, "fill_wellknown": null, "fill_shape_color": null, "fill_shape_width": null, "fill_shape_size": null, "fill_img_url": null, "marker_img_url": "marker_img_url/6396c1cbee345.png"}},{"type": "Feature", "id": "layer_data_map.fid--27e80436_1a098c1eed1_1e39", "geometry": {"type": "Point", "coordinates": [106.90661408, 47.92037191]}, "geometry_name": "geom", "properties": {"guid": 7123, "id": 7123, "object_no": null, "object_name": null, "layer_type_id": 227, "valid_to": null, "address_no": null, "border_type": "solid", "border_width": null, "border_color": null, "border_opacity": null, "border_wellknown": "shape://horizline", "fill_type": "img", "fill_color": null, "fill_opacity": null, "fill_wellknown": null, "fill_shape_color": null, "fill_shape_width": null, "fill_shape_size": null, "fill_img_url": null, "marker_img_url": "marker_img_url/6396c1cbee345.png"}},{"type": "Feature", "id": "layer_data_map.fid--27e80436_1a098c1eed1_1e45", "geometry": {"type": "Point", "coordinates": [106.88369736, 47.92267588]}, "geometry_name": "geom", "properties": {"guid": 7124, "id": 7124, "object_no": null, "object_name": null, "layer_type_id": 227, "valid_to": null, "address_no": null, "border_type": "solid", "border_width": null, "border_color": null, "border_opacity": null, "border_wellknown": "shape://horizline", "fill_type": "img", "fill_color": null, "fill_opacity": null, "fill_wellknown": null, "fill_shape_color": null, "fill_shape_width": null, "fill_shape_size": null, "fill_img_url": null, "marker_img_url": "marker_img_url/6396c1cbee345.png"}},{"type": "Feature", "id": "layer_data_map.fid--27e80436_1a098c1eed1_1e46", "geometry": {"type": "Point", "coordinates": [106.89021448, 47.91833787]}, "geometry_name": "geom", "properties": {"guid": 7125, "id": 7125, "object_no": null, "object_name": null, "layer_type_id": 227, "valid_to": null, "address_no": null, "border_type": "solid", "border_width": null, "border_color": null, "border_opacity": null, "border_wellknown": "shape://horizline", "fill_type": "img", "fill_color": null, "fill_opacity": null, "fill_wellknown": null, "fill_shape_color": null, "fill_shape_width": null, "fill_shape_size": null, "fill_img_url": null, "marker_img_url": "marker_img_url/6396c1cbee345.png"}},{"type": "Feature", "id": "layer_data_map.fid--27e80436_1a098c1eed1_1e47", "geometry": {"type": "Point", "coordinates": [106.88843629, 47.91701929]}, "geometry_name": "geom", "properties": {"guid": 7126, "id": 7126, "object_no": null, "object_name": null, "layer_type_id": 227, "valid_to": null, "address_no": null, "border_type": "solid", "border_width": null, "border_color": null, "border_opacity": null, "border_wellknown": "shape://horizline", "fill_type": "img", "fill_color": null, "fill_opacity": null, "fill_wellknown": null, "fill_shape_color": null, "fill_shape_width": null, "fill_shape_size": null, "fill_img_url": null, "marker_img_url": "marker_img_url/6396c1cbee345.png"}},{"type": "Feature", "id": "layer_data_map.fid--27e80436_1a098c1eed1_1e57", "geometry": {"type": "Point", "coordinates": [106.91887738, 47.92166987]}, "geometry_name": "geom", "properties": {"guid": 7128, "id": 7128, "object_no": null, "object_name": null, "layer_type_id": 227, "valid_to": null, "address_no": null, "border_type": "solid", "border_width": null, "border_color": null, "border_opacity": null, "border_wellknown": "shape://horizline", "fill_type": "img", "fill_color": null, "fill_opacity": null, "fill_wellknown": null, "fill_shape_color": null, "fill_shape_width": null, "fill_shape_size": null, "fill_img_url": null, "marker_img_url": "marker_img_url/6396c1cbee345.png"}},{"type": "Feature", "id": "layer_data_map.fid--27e80436_1a098c1eed1_1e58", "geometry": {"type": "Point", "coordinates": [106.91601108, 47.92578268]}, "geometry_name": "geom", "properties": {"guid": 7129, "id": 7129, "object_no": null, "object_name": null, "layer_type_id": 227, "valid_to": null, "address_no": null, "border_type": "solid", "border_width": null, "border_color": null, "border_opacity": null, "border_wellknown": "shape://horizline", "fill_type": "img", "fill_color": null, "fill_opacity": null, "fill_wellknown": null, "fill_shape_color": null, "fill_shape_width": null, "fill_shape_size": null, "fill_img_url": null, "marker_img_url": "marker_img_url/6396c1cbee345.png"}},{"type": "Feature", "id": "layer_data_map.fid--27e80436_1a098c1eed1_1e59", "geometry": {"type": "Point", "coordinates": [106.90081587, 47.91480067]}, "geometry_name": "geom", "properties": {"guid": 7130, "id": 7130, "object_no": null, "object_name": null, "layer_type_id": 227, "valid_to": null, "address_no": null, "border_type": "solid", "border_width": null, "border_color": null, "border_opacity": null, "border_wellknown": "shape://horizline", "fill_type": "img", "fill_color": null, "fill_opacity": null, "fill_wellknown": null, "fill_shape_color": null, "fill_shape_width": null, "fill_shape_size": null, "fill_img_url": null, "marker_img_url": "marker_img_url/6396c1cbee345.png"}},{"type": "Feature", "id": "layer_data_map.fid--27e80436_1a098c1eed1_1e5a", "geometry": {"type": "Point", "coordinates": [106.9193363, 47.92588803]}, "geometry_name": "geom", "properties": {"guid": 7131, "id": 7131, "object_no": null, "object_name": null, "layer_type_id": 227, "valid_to": null, "address_no": null, "border_type": "solid", "border_width": null, "border_color": null, "border_opacity": null, "border_wellknown": "shape://horizline", "fill_type": "img", "fill_color": null, "fill_opacity": null, "fill_wellknown": null, "fill_shape_color": null, "fill_shape_width": null, "fill_shape_size": null, "fill_img_url": null, "marker_img_url": "marker_img_url/6396c1cbee345.png"}},{"type": "Feature", "id": "layer_data_map.fid--27e80436_1a098c1eed1_1e5b", "geometry": {"type": "Point", "coordinates": [106.90351414, 47.91295237]}, "geometry_name": "geom", "properties": {"guid": 7132, "id": 7132, "object_no": null, "object_name": null, "layer_type_id": 227, "valid_to": null, "address_no": null, "border_type": "solid", "border_width": null, "border_color": null, "border_opacity": null, "border_wellknown": "shape://horizline", "fill_type": "img", "fill_color": null, "fill_opacity": null, "fill_wellknown": null, "fill_shape_color": null, "fill_shape_width": null, "fill_shape_size": null, "fill_img_url": null, "marker_img_url": "marker_img_url/6396c1cbee345.png"}},{"type": "Feature", "id": "layer_data_map.fid--27e80436_1a098c1eed1_1e5c", "geometry": {"type": "Point", "coordinates": [106.91984475, 47.92627661]}, "geometry_name": "geom", "properties": {"guid": 7133, "id": 7133, "object_no": null, "object_name": null, "layer_type_id": 227, "valid_to": null, "address_no": null, "border_type": "solid", "border_width": null, "border_color": null, "border_opacity": null, "border_wellknown": "shape://horizline", "fill_type": "img", "fill_color": null, "fill_opacity": null, "fill_wellknown": null, "fill_shape_color": null, "fill_shape_width": null, "fill_shape_size": null, "fill_img_url": null, "marker_img_url": "marker_img_url/6396c1cbee345.png"}},{"type": "Feature", "id": "layer_data_map.fid--27e80436_1a098c1eed1_1e5d", "geometry": {"type": "Point", "coordinates": [106.91124699, 47.88161125]}, "geometry_name": "geom", "properties": {"guid": 7134, "id": 7134, "object_no": null, "object_name": null, "layer_type_id": 227, "valid_to": null, "address_no": null, "border_type": "solid", "border_width": null, "border_color": null, "border_opacity": null, "border_wellknown": "shape://horizline", "fill_type": "img", "fill_color": null, "fill_opacity": null, "fill_wellknown": null, "fill_shape_color": null, "fill_shape_width": null, "fill_shape_size": null, "fill_img_url": null, "marker_img_url": "marker_img_url/6396c1cbee345.png"}}]}