{"type":"FeatureCollection","features":[{"type": "Feature", "id": "layer_data_map.fid--27e80436_1a098c1eed1_-5713", "geometry": {"type": "Polygon", "coordinates": [[[106.56287652, 47.82362003], [106.56287466, 47.81856257], [106.56481513, 47.81853814], [106.56740088, 47.83057335], [106.56747746, 47.83161303], [106.56746842, 47.83255407], [106.56738012, 47.83350608], [106.5669452, 47.8354901], [106.56645008, 47.83683147], [106.56592622, 47.83791078], [106.5654681, 47.838702], [106.56504494, 47.83934478], [106.56465685, 47.83993428], [106.56303581, 47.84172808], [106.5609086, 47.84363904], [106.55759049, 47.84652282], [106.55078502, 47.84293611], [106.55567006, 47.82356071], [106.56287652, 47.82362003]]]}, "geometry_name": "geom", "properties": {"guid": 3241263, "id": 3241263, "object_no": null, "object_name": "Төлөвлөлтийн хил хязгаар", "layer_type_id": 976, "valid_to": null, "address_no": null, "border_type": "solid", "border_width": 1, "border_color": "#16537e", "border_opacity": 1, "border_wellknown": "shape://horizline", "fill_type": "color", "fill_color": "#9fc5e8", "fill_opacity": 0.36, "fill_wellknown": null, "fill_shape_color": null, "fill_shape_width": null, "fill_shape_size": null, "fill_img_url": null, "marker_img_url": null}},{"type": "Feature", "id": "layer_data_map.fid--27e80436_1a098c1eed1_-5712", "geometry": {"type": "Polygon", "coordinates": [[[106.59425961, 47.8502321], [106.59078183, 47.85002398], [106.59068824, 47.8487119], [106.58981236, 47.846727], [106.58798242, 47.84325301], [106.58742884, 47.84219018], [106.58701543, 47.84134131], [106.58670443, 47.8399063], [106.58616591, 47.83889723], [106.58376808, 47.83430655], [106.58145633, 47.83077613], [106.58028222, 47.82950592], [106.57873804, 47.82704435], [106.57833446, 47.82651016], [106.57802297, 47.82548893], [106.58085642, 47.8255399], [106.58117414, 47.82632489], [106.58765499, 47.8381075], [106.59425961, 47.8502321]]]}, "geometry_name": "geom", "properties": {"guid": 3241265, "id": 3241265, "object_no": null, "object_name": "Төлөвлөлтийн хил хязгаар", "layer_type_id": 976, "valid_to": null, "address_no": null, "border_type": "solid", "border_width": 1, "border_color": "#16537e", "border_opacity": 1, "border_wellknown": "shape://horizline", "fill_type": "color", "fill_color": "#9fc5e8", "fill_opacity": 0.36, "fill_wellknown": null, "fill_shape_color": null, "fill_shape_width": null, "fill_shape_size": null, "fill_img_url": null, "marker_img_url": null}},{"type": "Feature", "id": "layer_data_map.fid--27e80436_1a098c1eed1_-5711", "geometry": {"type": "Polygon", "coordinates": [[[106.55885302, 47.84718818], [106.56234929, 47.84414889], [106.56377237, 47.8428963], [106.56448454, 47.84221067], [106.56550599, 47.84109241], [106.56630175, 47.84007484], [106.56670847, 47.8394881], [106.56715326, 47.83877505], [106.56761218, 47.8379367], [106.56771594, 47.83772698], [106.56781606, 47.83752], [106.56791256, 47.83730636], [106.56819157, 47.83663851], [106.56843183, 47.83596869], [106.56865713, 47.83521036], [106.56887872, 47.83422121], [106.56898512, 47.83353673], [106.56905892, 47.83276367], [106.56907933, 47.83232784], [106.56906815, 47.83130795], [106.56922947, 47.83040593], [106.56869783, 47.82881823], [106.56804918, 47.82586681], [106.56808115, 47.8254888], [106.57691552, 47.82546881], [106.5775051, 47.82676823], [106.57901104, 47.82910182], [106.57960486, 47.83002199], [106.5809925, 47.83165706], [106.58977161, 47.84880149], [106.58989615, 47.84998697], [106.57694711, 47.84938909], [106.5766125, 47.84888378], [106.57771875, 47.84888378], [106.57771875, 47.84210039], [106.56551253, 47.84210039], [106.56551147, 47.84888411], [106.56156256, 47.84861612], [106.55885302, 47.84718818]]]}, "geometry_name": "geom", "properties": {"guid": 3241267, "id": 3241267, "object_no": null, "object_name": "Төлөвлөлтийн хил хязгаар", "layer_type_id": 976, "valid_to": null, "address_no": null, "border_type": "solid", "border_width": 1, "border_color": "#16537e", "border_opacity": 1, "border_wellknown": "shape://horizline", "fill_type": "color", "fill_color": "#9fc5e8", "fill_opacity": 0.36, "fill_wellknown": null, "fill_shape_color": null, "fill_shape_width": null, "fill_shape_size": null, "fill_img_url": null, "marker_img_url": null}},{"type": "Feature", "id": "layer_data_map.fid--27e80436_1a098c1eed1_-5710", "geometry": {"type": "Polygon", "coordinates": [[[107.47906633, 47.35100399], [107.47694375, 47.3504639], [107.47694375, 47.3504639], [107.47081849, 47.34854808], [107.47678225, 47.34198406], [107.48463505, 47.34507635], [107.47906633, 47.35100399]]]}, "geometry_name": "geom", "properties": {"guid": 3246439, "id": 3246439, "object_no": null, "object_name": "Төлөвлөлтийн хил хязгаар", "layer_type_id": 976, "valid_to": null, "address_no": null, "border_type": "solid", "border_width": 1, "border_color": "#16537e", "border_opacity": 1, "border_wellknown": "shape://horizline", "fill_type": "color", "fill_color": "#9fc5e8", "fill_opacity": 0.36, "fill_wellknown": null, "fill_shape_color": null, "fill_shape_width": null, "fill_shape_size": null, "fill_img_url": null, "marker_img_url": null}},{"type": "Feature", "id": "layer_data_map.fid--27e80436_1a098c1eed1_-570f", "geometry": {"type": "Polygon", "coordinates": [[[107.2677003, 47.72774717], [107.28935463, 47.72769479], [107.28926345, 47.73103011], [107.28926347, 47.73436344], [107.27593423, 47.73438073], [107.26763664, 47.73438088], [107.2677003, 47.72774717]]]}, "geometry_name": "geom", "properties": {"guid": 3248770, "id": 3248770, "object_no": null, "object_name": "Төлөвлөлтийн хил хязгаар", "layer_type_id": 976, "valid_to": null, "address_no": null, "border_type": "solid", "border_width": 1, "border_color": "#16537e", "border_opacity": 1, "border_wellknown": "shape://horizline", "fill_type": "color", "fill_color": "#9fc5e8", "fill_opacity": 0.36, "fill_wellknown": null, "fill_shape_color": null, "fill_shape_width": null, "fill_shape_size": null, "fill_img_url": null, "marker_img_url": null}},{"type": "Feature", "id": "layer_data_map.fid--27e80436_1a098c1eed1_-570e", "geometry": {"type": "Polygon", "coordinates": [[[107.25723564, 47.71754695], [107.27001872, 47.71731045], [107.27018331, 47.72130479], [107.27390398, 47.72123116], [107.27419889, 47.72773113], [107.26770012, 47.7277468], [107.26769054, 47.72873356], [107.25761677, 47.7266208], [107.25752499, 47.72659696], [107.25723564, 47.71754695]]]}, "geometry_name": "geom", "properties": {"guid": 3248870, "id": 3248870, "object_no": null, "object_name": "Төлөвлөлтийн хил хязгаар", "layer_type_id": 976, "valid_to": null, "address_no": null, "border_type": "solid", "border_width": 1, "border_color": "#16537e", "border_opacity": 1, "border_wellknown": "shape://horizline", "fill_type": "color", "fill_color": "#9fc5e8", "fill_opacity": 0.36, "fill_wellknown": null, "fill_shape_color": null, "fill_shape_width": null, "fill_shape_size": null, "fill_img_url": null, "marker_img_url": null}},{"type": "Feature", "id": "layer_data_map.fid--27e80436_1a098c1eed1_-570d", "geometry": {"type": "Polygon", "coordinates": [[[108.3292958, 47.71439017], [108.32921358, 47.71225039], [108.33124238, 47.71221116], [108.33582426, 47.71014496], [108.33749722, 47.7118428], [108.33904291, 47.71516728], [108.33192402, 47.71739883], [108.3292958, 47.71439017]]]}, "geometry_name": "geom", "properties": {"guid": 3248890, "id": 3248890, "object_no": null, "object_name": "Төлөвлөлтийн хил хязгаар", "layer_type_id": 976, "valid_to": null, "address_no": null, "border_type": "solid", "border_width": 1, "border_color": "#16537e", "border_opacity": 1, "border_wellknown": "shape://horizline", "fill_type": "color", "fill_color": "#9fc5e8", "fill_opacity": 0.36, "fill_wellknown": null, "fill_shape_color": null, "fill_shape_width": null, "fill_shape_size": null, "fill_img_url": null, "marker_img_url": null}},{"type": "Feature", "id": "layer_data_map.fid--27e80436_1a098c1eed1_-570c", "geometry": {"type": "Polygon", "coordinates": [[[108.32033513, 47.69473244], [108.33309181, 47.7073988], [108.32661226, 47.71032926], [108.31420398, 47.6975537], [108.32033513, 47.69473244]]]}, "geometry_name": "geom", "properties": {"guid": 3248891, "id": 3248891, "object_no": null, "object_name": "Төлөвлөлтийн хил хязгаар", "layer_type_id": 976, "valid_to": null, "address_no": null, "border_type": "solid", "border_width": 1, "border_color": "#16537e", "border_opacity": 1, "border_wellknown": "shape://horizline", "fill_type": "color", "fill_color": "#9fc5e8", "fill_opacity": 0.36, "fill_wellknown": null, "fill_shape_color": null, "fill_shape_width": null, "fill_shape_size": null, "fill_img_url": null, "marker_img_url": null}},{"type": "Feature", "id": "layer_data_map.fid--27e80436_1a098c1eed1_-570b", "geometry": {"type": "Polygon", "coordinates": [[[108.36837978, 47.76215573], [108.36975629, 47.7616586], [108.37007211, 47.7620373], [108.37039694, 47.76240218], [108.37169344, 47.76373985], [108.371984, 47.76409886], [108.37098398, 47.76445769], [108.36983989, 47.76486818], [108.36708497, 47.76585898], [108.3670425, 47.76581653], [108.36690274, 47.76566084], [108.36684994, 47.76560205], [108.36638992, 47.76578973], [108.36584023, 47.76512734], [108.36708031, 47.76469233], [108.36648026, 47.76400995], [108.3669863, 47.76376687], [108.3668209, 47.76353539], [108.36737247, 47.7633371], [108.36707989, 47.76294556], [108.36775088, 47.76269655], [108.3679581, 47.76292754], [108.36818827, 47.76283507], [108.36799762, 47.76261024], [108.36839143, 47.76245952], [108.36846087, 47.76231976], [108.36846957, 47.76228213], [108.36837978, 47.76215573]]]}, "geometry_name": "geom", "properties": {"guid": 3248922, "id": 3248922, "object_no": null, "object_name": "Төлөвлөлтийн хил хязгаар", "layer_type_id": 976, "valid_to": null, "address_no": null, "border_type": "solid", "border_width": 1, "border_color": "#16537e", "border_opacity": 1, "border_wellknown": "shape://horizline", "fill_type": "color", "fill_color": "#9fc5e8", "fill_opacity": 0.36, "fill_wellknown": null, "fill_shape_color": null, "fill_shape_width": null, "fill_shape_size": null, "fill_img_url": null, "marker_img_url": null}},{"type": "Feature", "id": "layer_data_map.fid--27e80436_1a098c1eed1_-570a", "geometry": {"type": "Polygon", "coordinates": [[[108.37309274, 47.75183138], [108.37220375, 47.75211814], [108.37273132, 47.75284166], [108.36831528, 47.75432659], [108.36441472, 47.74945255], [108.36487471, 47.74929534], [108.36490785, 47.7493715], [108.36554744, 47.7492449], [108.36547983, 47.74908851], [108.37128477, 47.7471092], [108.37080306, 47.74650528], [108.37226366, 47.74604471], [108.3711048, 47.74461294], [108.36856657, 47.74552292], [108.36695603, 47.74344832], [108.37146061, 47.74188172], [108.37201626, 47.74266317], [108.3760855, 47.74127832], [108.3770811, 47.74673826], [108.37996615, 47.75040776], [108.38124318, 47.75203281], [108.37890504, 47.75286215], [108.37767346, 47.75117844], [108.37355468, 47.75256278], [108.37309274, 47.75183138]]]}, "geometry_name": "geom", "properties": {"guid": 3248930, "id": 3248930, "object_no": null, "object_name": "Төлөвлөлтийн хил хязгаар", "layer_type_id": 976, "valid_to": null, "address_no": null, "border_type": "solid", "border_width": 1, "border_color": "#16537e", "border_opacity": 1, "border_wellknown": "shape://horizline", "fill_type": "color", "fill_color": "#9fc5e8", "fill_opacity": 0.36, "fill_wellknown": null, "fill_shape_color": null, "fill_shape_width": null, "fill_shape_size": null, "fill_img_url": null, "marker_img_url": null}},{"type": "Feature", "id": "layer_data_map.fid--27e80436_1a098c1eed1_-5709", "geometry": {"type": "Polygon", "coordinates": [[[108.38255376, 47.74976442], [108.38359091, 47.75115731], [108.38240989, 47.75159693], [108.37837441, 47.74646355], [108.37775698, 47.7430779], [108.38261531, 47.74951771], [108.38274687, 47.74969917], [108.38255376, 47.74976442]]]}, "geometry_name": "geom", "properties": {"guid": 3248931, "id": 3248931, "object_no": null, "object_name": "Төлөвлөлтийн хил хязгаар", "layer_type_id": 976, "valid_to": null, "address_no": null, "border_type": "solid", "border_width": 1, "border_color": "#16537e", "border_opacity": 1, "border_wellknown": "shape://horizline", "fill_type": "color", "fill_color": "#9fc5e8", "fill_opacity": 0.36, "fill_wellknown": null, "fill_shape_color": null, "fill_shape_width": null, "fill_shape_size": null, "fill_img_url": null, "marker_img_url": null}},{"type": "Feature", "id": "layer_data_map.fid--27e80436_1a098c1eed1_-5708", "geometry": {"type": "Polygon", "coordinates": [[[108.40301979, 47.75707448], [108.40415165, 47.75652974], [108.40555294, 47.75576468], [108.40683543, 47.75498199], [108.40972143, 47.75869497], [108.40341234, 47.7609677], [108.40297725, 47.76112444], [108.39453798, 47.76416354], [108.39220478, 47.76114941], [108.40057798, 47.75802632], [108.40101535, 47.75787163], [108.40190837, 47.75754331], [108.40301979, 47.75707448]]]}, "geometry_name": "geom", "properties": {"guid": 3248965, "id": 3248965, "object_no": null, "object_name": "Төлөвлөлтийн хил хязгаар", "layer_type_id": 976, "valid_to": null, "address_no": null, "border_type": "solid", "border_width": 1, "border_color": "#16537e", "border_opacity": 1, "border_wellknown": "shape://horizline", "fill_type": "color", "fill_color": "#9fc5e8", "fill_opacity": 0.36, "fill_wellknown": null, "fill_shape_color": null, "fill_shape_width": null, "fill_shape_size": null, "fill_img_url": null, "marker_img_url": null}},{"type": "Feature", "id": "layer_data_map.fid--27e80436_1a098c1eed1_-5707", "geometry": {"type": "Polygon", "coordinates": [[[108.34142478, 47.77032241], [108.33987974, 47.76834457], [108.34429189, 47.76681621], [108.34161913, 47.76335793], [108.34153021, 47.7621747], [108.35710026, 47.75677913], [108.36204674, 47.76317658], [108.35140771, 47.76686395], [108.34142478, 47.77032241]]]}, "geometry_name": "geom", "properties": {"guid": 3248988, "id": 3248988, "object_no": null, "object_name": "Төлөвлөлтийн хил хязгаар", "layer_type_id": 976, "valid_to": null, "address_no": null, "border_type": "solid", "border_width": 1, "border_color": "#16537e", "border_opacity": 1, "border_wellknown": "shape://horizline", "fill_type": "color", "fill_color": "#9fc5e8", "fill_opacity": 0.36, "fill_wellknown": null, "fill_shape_color": null, "fill_shape_width": null, "fill_shape_size": null, "fill_img_url": null, "marker_img_url": null}}]}