{"type":"FeatureCollection","features":[{"type": "Feature", "id": "layer_data_map.fid--27e80436_1a098c1eed1_-2fc", "geometry": {"type": "Point", "coordinates": [107.11048194, 47.9415752]}, "geometry_name": "geom", "properties": {"guid": 5424, "id": 5424, "object_no": null, "object_name": null, "layer_type_id": 221, "valid_to": null, "address_no": null, "border_type": "solid", "border_width": null, "border_color": "#274e13", "border_opacity": null, "border_wellknown": "horizline", "fill_type": "color", "fill_color": "#274e13", "fill_opacity": 1, "fill_wellknown": "horizline", "fill_shape_color": "#274e13", "fill_shape_width": null, "fill_shape_size": null, "fill_img_url": null, "marker_img_url": null}},{"type": "Feature", "id": "layer_data_map.fid--27e80436_1a098c1eed1_-2fb", "geometry": {"type": "Point", "coordinates": [107.11074431, 47.91061928]}, "geometry_name": "geom", "properties": {"guid": 5425, "id": 5425, "object_no": null, "object_name": null, "layer_type_id": 221, "valid_to": null, "address_no": null, "border_type": "solid", "border_width": null, "border_color": "#274e13", "border_opacity": null, "border_wellknown": "horizline", "fill_type": "color", "fill_color": "#274e13", "fill_opacity": 1, "fill_wellknown": "horizline", "fill_shape_color": "#274e13", "fill_shape_width": null, "fill_shape_size": null, "fill_img_url": null, "marker_img_url": null}},{"type": "Feature", "id": "layer_data_map.fid--27e80436_1a098c1eed1_-2fa", "geometry": {"type": "Point", "coordinates": [107.14032055, 47.92411934]}, "geometry_name": "geom", "properties": {"guid": 5426, "id": 5426, "object_no": null, "object_name": null, "layer_type_id": 221, "valid_to": null, "address_no": null, "border_type": "solid", "border_width": null, "border_color": "#274e13", "border_opacity": null, "border_wellknown": "horizline", "fill_type": "color", "fill_color": "#274e13", "fill_opacity": 1, "fill_wellknown": "horizline", "fill_shape_color": "#274e13", "fill_shape_width": null, "fill_shape_size": null, "fill_img_url": null, "marker_img_url": null}},{"type": "Feature", "id": "layer_data_map.fid--27e80436_1a098c1eed1_-2f9", "geometry": {"type": "Point", "coordinates": [107.02658443, 47.97845545]}, "geometry_name": "geom", "properties": {"guid": 5427, "id": 5427, "object_no": null, "object_name": null, "layer_type_id": 221, "valid_to": null, "address_no": null, "border_type": "solid", "border_width": null, "border_color": "#274e13", "border_opacity": null, "border_wellknown": "horizline", "fill_type": "color", "fill_color": "#274e13", "fill_opacity": 1, "fill_wellknown": "horizline", "fill_shape_color": "#274e13", "fill_shape_width": null, "fill_shape_size": null, "fill_img_url": null, "marker_img_url": null}},{"type": "Feature", "id": "layer_data_map.fid--27e80436_1a098c1eed1_-2f8", "geometry": {"type": "Point", "coordinates": [106.71612494, 47.98390074]}, "geometry_name": "geom", "properties": {"guid": 5428, "id": 5428, "object_no": null, "object_name": null, "layer_type_id": 221, "valid_to": null, "address_no": null, "border_type": "solid", "border_width": null, "border_color": "#274e13", "border_opacity": null, "border_wellknown": "horizline", "fill_type": "color", "fill_color": "#274e13", "fill_opacity": 1, "fill_wellknown": "horizline", "fill_shape_color": "#274e13", "fill_shape_width": null, "fill_shape_size": null, "fill_img_url": null, "marker_img_url": null}},{"type": "Feature", "id": "layer_data_map.fid--27e80436_1a098c1eed1_-2f7", "geometry": {"type": "Point", "coordinates": [106.79034487, 48.01062097]}, "geometry_name": "geom", "properties": {"guid": 5429, "id": 5429, "object_no": null, "object_name": null, "layer_type_id": 221, "valid_to": null, "address_no": null, "border_type": "solid", "border_width": null, "border_color": "#274e13", "border_opacity": null, "border_wellknown": "horizline", "fill_type": "color", "fill_color": "#274e13", "fill_opacity": 1, "fill_wellknown": "horizline", "fill_shape_color": "#274e13", "fill_shape_width": null, "fill_shape_size": null, "fill_img_url": null, "marker_img_url": null}},{"type": "Feature", "id": "layer_data_map.fid--27e80436_1a098c1eed1_-2f6", "geometry": {"type": "Point", "coordinates": [106.79981832, 47.8829116]}, "geometry_name": "geom", "properties": {"guid": 5430, "id": 5430, "object_no": null, "object_name": null, "layer_type_id": 221, "valid_to": null, "address_no": null, "border_type": "solid", "border_width": null, "border_color": "#274e13", "border_opacity": null, "border_wellknown": "horizline", "fill_type": "color", "fill_color": "#274e13", "fill_opacity": 1, "fill_wellknown": "horizline", "fill_shape_color": "#274e13", "fill_shape_width": null, "fill_shape_size": null, "fill_img_url": null, "marker_img_url": null}},{"type": "Feature", "id": "layer_data_map.fid--27e80436_1a098c1eed1_-2f5", "geometry": {"type": "Point", "coordinates": [106.96541206, 47.99330565]}, "geometry_name": "geom", "properties": {"guid": 5431, "id": 5431, "object_no": null, "object_name": null, "layer_type_id": 221, "valid_to": null, "address_no": null, "border_type": "solid", "border_width": null, "border_color": "#274e13", "border_opacity": null, "border_wellknown": "horizline", "fill_type": "color", "fill_color": "#274e13", "fill_opacity": 1, "fill_wellknown": "horizline", "fill_shape_color": "#274e13", "fill_shape_width": null, "fill_shape_size": null, "fill_img_url": null, "marker_img_url": null}},{"type": "Feature", "id": "layer_data_map.fid--27e80436_1a098c1eed1_-2f4", "geometry": {"type": "Point", "coordinates": [106.95030688, 47.98399296]}, "geometry_name": "geom", "properties": {"guid": 5432, "id": 5432, "object_no": null, "object_name": null, "layer_type_id": 221, "valid_to": null, "address_no": null, "border_type": "solid", "border_width": null, "border_color": "#274e13", "border_opacity": null, "border_wellknown": "horizline", "fill_type": "color", "fill_color": "#274e13", "fill_opacity": 1, "fill_wellknown": "horizline", "fill_shape_color": "#274e13", "fill_shape_width": null, "fill_shape_size": null, "fill_img_url": null, "marker_img_url": null}},{"type": "Feature", "id": "layer_data_map.fid--27e80436_1a098c1eed1_-2f3", "geometry": {"type": "Point", "coordinates": [106.91056692, 48.11383401]}, "geometry_name": "geom", "properties": {"guid": 5433, "id": 5433, "object_no": null, "object_name": null, "layer_type_id": 221, "valid_to": null, "address_no": null, "border_type": "solid", "border_width": null, "border_color": "#274e13", "border_opacity": null, "border_wellknown": "horizline", "fill_type": "color", "fill_color": "#274e13", "fill_opacity": 1, "fill_wellknown": "horizline", "fill_shape_color": "#274e13", "fill_shape_width": null, "fill_shape_size": null, "fill_img_url": null, "marker_img_url": null}},{"type": "Feature", "id": "layer_data_map.fid--27e80436_1a098c1eed1_-2f2", "geometry": {"type": "Point", "coordinates": [106.90363089, 48.11661542]}, "geometry_name": "geom", "properties": {"guid": 5434, "id": 5434, "object_no": null, "object_name": null, "layer_type_id": 221, "valid_to": null, "address_no": null, "border_type": "solid", "border_width": null, "border_color": "#274e13", "border_opacity": null, "border_wellknown": "horizline", "fill_type": "color", "fill_color": "#274e13", "fill_opacity": 1, "fill_wellknown": "horizline", "fill_shape_color": "#274e13", "fill_shape_width": null, "fill_shape_size": null, "fill_img_url": null, "marker_img_url": null}},{"type": "Feature", "id": "layer_data_map.fid--27e80436_1a098c1eed1_-2f1", "geometry": {"type": "Point", "coordinates": [106.93177071, 48.00932308]}, "geometry_name": "geom", "properties": {"guid": 5435, "id": 5435, "object_no": null, "object_name": null, "layer_type_id": 221, "valid_to": null, "address_no": null, "border_type": "solid", "border_width": null, "border_color": "#274e13", "border_opacity": null, "border_wellknown": "horizline", "fill_type": "color", "fill_color": "#274e13", "fill_opacity": 1, "fill_wellknown": "horizline", "fill_shape_color": "#274e13", "fill_shape_width": null, "fill_shape_size": null, "fill_img_url": null, "marker_img_url": null}},{"type": "Feature", "id": "layer_data_map.fid--27e80436_1a098c1eed1_-2f0", "geometry": {"type": "Point", "coordinates": [106.5281514, 47.99580655]}, "geometry_name": "geom", "properties": {"guid": 5436, "id": 5436, "object_no": null, "object_name": null, "layer_type_id": 221, "valid_to": null, "address_no": null, "border_type": "solid", "border_width": null, "border_color": "#274e13", "border_opacity": null, "border_wellknown": "horizline", "fill_type": "color", "fill_color": "#274e13", "fill_opacity": 1, "fill_wellknown": "horizline", "fill_shape_color": "#274e13", "fill_shape_width": null, "fill_shape_size": null, "fill_img_url": null, "marker_img_url": null}},{"type": "Feature", "id": "layer_data_map.fid--27e80436_1a098c1eed1_-2ef", "geometry": {"type": "Point", "coordinates": [106.52481213, 47.92819393]}, "geometry_name": "geom", "properties": {"guid": 5437, "id": 5437, "object_no": null, "object_name": null, "layer_type_id": 221, "valid_to": null, "address_no": null, "border_type": "solid", "border_width": null, "border_color": "#274e13", "border_opacity": null, "border_wellknown": "horizline", "fill_type": "color", "fill_color": "#274e13", "fill_opacity": 1, "fill_wellknown": "horizline", "fill_shape_color": "#274e13", "fill_shape_width": null, "fill_shape_size": null, "fill_img_url": null, "marker_img_url": null}},{"type": "Feature", "id": "layer_data_map.fid--27e80436_1a098c1eed1_-2ee", "geometry": {"type": "Point", "coordinates": [106.83730666, 48.08477295]}, "geometry_name": "geom", "properties": {"guid": 5438, "id": 5438, "object_no": null, "object_name": null, "layer_type_id": 221, "valid_to": null, "address_no": null, "border_type": "solid", "border_width": null, "border_color": "#274e13", "border_opacity": null, "border_wellknown": "horizline", "fill_type": "color", "fill_color": "#274e13", "fill_opacity": 1, "fill_wellknown": "horizline", "fill_shape_color": "#274e13", "fill_shape_width": null, "fill_shape_size": null, "fill_img_url": null, "marker_img_url": null}},{"type": "Feature", "id": "layer_data_map.fid--27e80436_1a098c1eed1_-2ed", "geometry": {"type": "Point", "coordinates": [106.8467551, 48.08269572]}, "geometry_name": "geom", "properties": {"guid": 5439, "id": 5439, "object_no": null, "object_name": null, "layer_type_id": 221, "valid_to": null, "address_no": null, "border_type": "solid", "border_width": null, "border_color": "#274e13", "border_opacity": null, "border_wellknown": "horizline", "fill_type": "color", "fill_color": "#274e13", "fill_opacity": 1, "fill_wellknown": "horizline", "fill_shape_color": "#274e13", "fill_shape_width": null, "fill_shape_size": null, "fill_img_url": null, "marker_img_url": null}},{"type": "Feature", "id": "layer_data_map.fid--27e80436_1a098c1eed1_-2ec", "geometry": {"type": "Point", "coordinates": [106.90555765, 47.98670873]}, "geometry_name": "geom", "properties": {"guid": 5440, "id": 5440, "object_no": null, "object_name": null, "layer_type_id": 221, "valid_to": null, "address_no": null, "border_type": "solid", "border_width": null, "border_color": "#274e13", "border_opacity": null, "border_wellknown": "horizline", "fill_type": "color", "fill_color": "#274e13", "fill_opacity": 1, "fill_wellknown": "horizline", "fill_shape_color": "#274e13", "fill_shape_width": null, "fill_shape_size": null, "fill_img_url": null, "marker_img_url": null}},{"type": "Feature", "id": "layer_data_map.fid--27e80436_1a098c1eed1_-2eb", "geometry": {"type": "Point", "coordinates": [106.88126789, 48.12306186]}, "geometry_name": "geom", "properties": {"guid": 5441, "id": 5441, "object_no": null, "object_name": null, "layer_type_id": 221, "valid_to": null, "address_no": null, "border_type": "solid", "border_width": null, "border_color": "#274e13", "border_opacity": null, "border_wellknown": "horizline", "fill_type": "color", "fill_color": "#274e13", "fill_opacity": 1, "fill_wellknown": "horizline", "fill_shape_color": "#274e13", "fill_shape_width": null, "fill_shape_size": null, "fill_img_url": null, "marker_img_url": null}},{"type": "Feature", "id": "layer_data_map.fid--27e80436_1a098c1eed1_-2ea", "geometry": {"type": "Point", "coordinates": [106.68348877, 47.77823357]}, "geometry_name": "geom", "properties": {"guid": 5442, "id": 5442, "object_no": null, "object_name": null, "layer_type_id": 221, "valid_to": null, "address_no": null, "border_type": "solid", "border_width": null, "border_color": "#274e13", "border_opacity": null, "border_wellknown": "horizline", "fill_type": "color", "fill_color": "#274e13", "fill_opacity": 1, "fill_wellknown": "horizline", "fill_shape_color": "#274e13", "fill_shape_width": null, "fill_shape_size": null, "fill_img_url": null, "marker_img_url": null}},{"type": "Feature", "id": "layer_data_map.fid--27e80436_1a098c1eed1_-2e9", "geometry": {"type": "Point", "coordinates": [106.81623359, 47.85117286]}, "geometry_name": "geom", "properties": {"guid": 5443, "id": 5443, "object_no": null, "object_name": null, "layer_type_id": 221, "valid_to": null, "address_no": null, "border_type": "solid", "border_width": null, "border_color": "#274e13", "border_opacity": null, "border_wellknown": "horizline", "fill_type": "color", "fill_color": "#274e13", "fill_opacity": 1, "fill_wellknown": "horizline", "fill_shape_color": "#274e13", "fill_shape_width": null, "fill_shape_size": null, "fill_img_url": null, "marker_img_url": null}},{"type": "Feature", "id": "layer_data_map.fid--27e80436_1a098c1eed1_-2e8", "geometry": {"type": "Point", "coordinates": [108.32040967, 47.79432895]}, "geometry_name": "geom", "properties": {"guid": 5444, "id": 5444, "object_no": null, "object_name": null, "layer_type_id": 221, "valid_to": null, "address_no": null, "border_type": "solid", "border_width": null, "border_color": "#274e13", "border_opacity": null, "border_wellknown": "horizline", "fill_type": "color", "fill_color": "#274e13", "fill_opacity": 1, "fill_wellknown": "horizline", "fill_shape_color": "#274e13", "fill_shape_width": null, "fill_shape_size": null, "fill_img_url": null, "marker_img_url": null}},{"type": "Feature", "id": "layer_data_map.fid--27e80436_1a098c1eed1_-2e7", "geometry": {"type": "Point", "coordinates": [108.42146842, 47.77552406]}, "geometry_name": "geom", "properties": {"guid": 5445, "id": 5445, "object_no": null, "object_name": null, "layer_type_id": 221, "valid_to": null, "address_no": null, "border_type": "solid", "border_width": null, "border_color": "#274e13", "border_opacity": null, "border_wellknown": "horizline", "fill_type": "color", "fill_color": "#274e13", "fill_opacity": 1, "fill_wellknown": "horizline", "fill_shape_color": "#274e13", "fill_shape_width": null, "fill_shape_size": null, "fill_img_url": null, "marker_img_url": null}},{"type": "Feature", "id": "layer_data_map.fid--27e80436_1a098c1eed1_-2e6", "geometry": {"type": "Point", "coordinates": [108.39560046, 47.73582793]}, "geometry_name": "geom", "properties": {"guid": 5446, "id": 5446, "object_no": null, "object_name": null, "layer_type_id": 221, "valid_to": null, "address_no": null, "border_type": "solid", "border_width": null, "border_color": "#274e13", "border_opacity": null, "border_wellknown": "horizline", "fill_type": "color", "fill_color": "#274e13", "fill_opacity": 1, "fill_wellknown": "horizline", "fill_shape_color": "#274e13", "fill_shape_width": null, "fill_shape_size": null, "fill_img_url": null, "marker_img_url": null}},{"type": "Feature", "id": "layer_data_map.fid--27e80436_1a098c1eed1_-2e5", "geometry": {"type": "Point", "coordinates": [107.42892177, 47.36274829]}, "geometry_name": "geom", "properties": {"guid": 5447, "id": 5447, "object_no": null, "object_name": null, "layer_type_id": 221, "valid_to": null, "address_no": null, "border_type": "solid", "border_width": null, "border_color": "#274e13", "border_opacity": null, "border_wellknown": "horizline", "fill_type": "color", "fill_color": "#274e13", "fill_opacity": 1, "fill_wellknown": "horizline", "fill_shape_color": "#274e13", "fill_shape_width": null, "fill_shape_size": null, "fill_img_url": null, "marker_img_url": null}},{"type": "Feature", "id": "layer_data_map.fid--27e80436_1a098c1eed1_-2e4", "geometry": {"type": "Point", "coordinates": [107.43623376, 47.34197591]}, "geometry_name": "geom", "properties": {"guid": 5448, "id": 5448, "object_no": null, "object_name": null, "layer_type_id": 221, "valid_to": null, "address_no": null, "border_type": "solid", "border_width": null, "border_color": "#274e13", "border_opacity": null, "border_wellknown": "horizline", "fill_type": "color", "fill_color": "#274e13", "fill_opacity": 1, "fill_wellknown": "horizline", "fill_shape_color": "#274e13", "fill_shape_width": null, "fill_shape_size": null, "fill_img_url": null, "marker_img_url": null}},{"type": "Feature", "id": "layer_data_map.fid--27e80436_1a098c1eed1_-2e3", "geometry": {"type": "Point", "coordinates": [107.45472188, 47.36485508]}, "geometry_name": "geom", "properties": {"guid": 5449, "id": 5449, "object_no": null, "object_name": null, "layer_type_id": 221, "valid_to": null, "address_no": null, "border_type": "solid", "border_width": null, "border_color": "#274e13", "border_opacity": null, "border_wellknown": "horizline", "fill_type": "color", "fill_color": "#274e13", "fill_opacity": 1, "fill_wellknown": "horizline", "fill_shape_color": "#274e13", "fill_shape_width": null, "fill_shape_size": null, "fill_img_url": null, "marker_img_url": null}},{"type": "Feature", "id": "layer_data_map.fid--27e80436_1a098c1eed1_-2e2", "geometry": {"type": "Point", "coordinates": [107.49768639, 47.35077156]}, "geometry_name": "geom", "properties": {"guid": 5450, "id": 5450, "object_no": null, "object_name": null, "layer_type_id": 221, "valid_to": null, "address_no": null, "border_type": "solid", "border_width": null, "border_color": "#274e13", "border_opacity": null, "border_wellknown": "horizline", "fill_type": "color", "fill_color": "#274e13", "fill_opacity": 1, "fill_wellknown": "horizline", "fill_shape_color": "#274e13", "fill_shape_width": null, "fill_shape_size": null, "fill_img_url": null, "marker_img_url": null}},{"type": "Feature", "id": "layer_data_map.fid--27e80436_1a098c1eed1_-2e1", "geometry": {"type": "Point", "coordinates": [107.21509015, 47.75101866]}, "geometry_name": "geom", "properties": {"guid": 5451, "id": 5451, "object_no": null, "object_name": null, "layer_type_id": 221, "valid_to": null, "address_no": null, "border_type": "solid", "border_width": null, "border_color": "#274e13", "border_opacity": null, "border_wellknown": "horizline", "fill_type": "color", "fill_color": "#274e13", "fill_opacity": 1, "fill_wellknown": "horizline", "fill_shape_color": "#274e13", "fill_shape_width": null, "fill_shape_size": null, "fill_img_url": null, "marker_img_url": null}},{"type": "Feature", "id": "layer_data_map.fid--27e80436_1a098c1eed1_-2e0", "geometry": {"type": "Point", "coordinates": [107.33574486, 47.77298329]}, "geometry_name": "geom", "properties": {"guid": 5452, "id": 5452, "object_no": null, "object_name": null, "layer_type_id": 221, "valid_to": null, "address_no": null, "border_type": "solid", "border_width": null, "border_color": "#274e13", "border_opacity": null, "border_wellknown": "horizline", "fill_type": "color", "fill_color": "#274e13", "fill_opacity": 1, "fill_wellknown": "horizline", "fill_shape_color": "#274e13", "fill_shape_width": null, "fill_shape_size": null, "fill_img_url": null, "marker_img_url": null}},{"type": "Feature", "id": "layer_data_map.fid--27e80436_1a098c1eed1_-2df", "geometry": {"type": "Point", "coordinates": [107.23988177, 47.78173978]}, "geometry_name": "geom", "properties": {"guid": 5453, "id": 5453, "object_no": null, "object_name": null, "layer_type_id": 221, "valid_to": null, "address_no": null, "border_type": "solid", "border_width": null, "border_color": "#274e13", "border_opacity": null, "border_wellknown": "horizline", "fill_type": "color", "fill_color": "#274e13", "fill_opacity": 1, "fill_wellknown": "horizline", "fill_shape_color": "#274e13", "fill_shape_width": null, "fill_shape_size": null, "fill_img_url": null, "marker_img_url": null}},{"type": "Feature", "id": "layer_data_map.fid--27e80436_1a098c1eed1_-2de", "geometry": {"type": "Point", "coordinates": [107.38045384, 47.75629142]}, "geometry_name": "geom", "properties": {"guid": 5454, "id": 5454, "object_no": null, "object_name": null, "layer_type_id": 221, "valid_to": null, "address_no": null, "border_type": "solid", "border_width": null, "border_color": "#274e13", "border_opacity": null, "border_wellknown": "horizline", "fill_type": "color", "fill_color": "#274e13", "fill_opacity": 1, "fill_wellknown": "horizline", "fill_shape_color": "#274e13", "fill_shape_width": null, "fill_shape_size": null, "fill_img_url": null, "marker_img_url": null}},{"type": "Feature", "id": "layer_data_map.fid--27e80436_1a098c1eed1_-2dd", "geometry": {"type": "Point", "coordinates": [107.34218949, 47.78475586]}, "geometry_name": "geom", "properties": {"guid": 5455, "id": 5455, "object_no": null, "object_name": null, "layer_type_id": 221, "valid_to": null, "address_no": null, "border_type": "solid", "border_width": null, "border_color": "#274e13", "border_opacity": null, "border_wellknown": "horizline", "fill_type": "color", "fill_color": "#274e13", "fill_opacity": 1, "fill_wellknown": "horizline", "fill_shape_color": "#274e13", "fill_shape_width": null, "fill_shape_size": null, "fill_img_url": null, "marker_img_url": null}}]}