{"type":"FeatureCollection","features":[{"type": "Feature", "id": "layer_data_map.fid--27e80436_1a098b908f8_7d6f", "geometry": {"type": "Point", "coordinates": [106.91082185, 47.89958857]}, "geometry_name": "geom", "properties": {"guid": 11505, "id": 11505, "object_no": null, "object_name": null, "layer_type_id": 205, "valid_to": null, "address_no": null, "border_type": "solid", "border_width": null, "border_color": null, "border_opacity": null, "border_wellknown": "horizline", "fill_type": "color", "fill_color": "#d5a6bd", "fill_opacity": 1, "fill_wellknown": "horizline", "fill_shape_color": null, "fill_shape_width": null, "fill_shape_size": null, "fill_img_url": null, "marker_img_url": null}},{"type": "Feature", "id": "layer_data_map.fid--27e80436_1a098b908f8_7d70", "geometry": {"type": "Point", "coordinates": [106.92429508, 47.92033392]}, "geometry_name": "geom", "properties": {"guid": 11506, "id": 11506, "object_no": null, "object_name": null, "layer_type_id": 205, "valid_to": null, "address_no": null, "border_type": "solid", "border_width": null, "border_color": null, "border_opacity": null, "border_wellknown": "horizline", "fill_type": "color", "fill_color": "#d5a6bd", "fill_opacity": 1, "fill_wellknown": "horizline", "fill_shape_color": null, "fill_shape_width": null, "fill_shape_size": null, "fill_img_url": null, "marker_img_url": null}},{"type": "Feature", "id": "layer_data_map.fid--27e80436_1a098b908f8_7d71", "geometry": {"type": "Point", "coordinates": [106.92968002, 47.92152166]}, "geometry_name": "geom", "properties": {"guid": 11507, "id": 11507, "object_no": null, "object_name": null, "layer_type_id": 205, "valid_to": null, "address_no": null, "border_type": "solid", "border_width": null, "border_color": null, "border_opacity": null, "border_wellknown": "horizline", "fill_type": "color", "fill_color": "#d5a6bd", "fill_opacity": 1, "fill_wellknown": "horizline", "fill_shape_color": null, "fill_shape_width": null, "fill_shape_size": null, "fill_img_url": null, "marker_img_url": null}},{"type": "Feature", "id": "layer_data_map.fid--27e80436_1a098b908f8_7d72", "geometry": {"type": "Point", "coordinates": [106.78403521, 47.85448322]}, "geometry_name": "geom", "properties": {"guid": 11508, "id": 11508, "object_no": null, "object_name": null, "layer_type_id": 205, "valid_to": null, "address_no": null, "border_type": "solid", "border_width": null, "border_color": null, "border_opacity": null, "border_wellknown": "horizline", "fill_type": "color", "fill_color": "#d5a6bd", "fill_opacity": 1, "fill_wellknown": "horizline", "fill_shape_color": null, "fill_shape_width": null, "fill_shape_size": null, "fill_img_url": null, "marker_img_url": null}},{"type": "Feature", "id": "layer_data_map.fid--27e80436_1a098b908f8_7d73", "geometry": {"type": "Point", "coordinates": [106.93525469, 47.91783605]}, "geometry_name": "geom", "properties": {"guid": 11509, "id": 11509, "object_no": null, "object_name": null, "layer_type_id": 205, "valid_to": null, "address_no": null, "border_type": "solid", "border_width": null, "border_color": null, "border_opacity": null, "border_wellknown": "horizline", "fill_type": "color", "fill_color": "#d5a6bd", "fill_opacity": 1, "fill_wellknown": "horizline", "fill_shape_color": null, "fill_shape_width": null, "fill_shape_size": null, "fill_img_url": null, "marker_img_url": null}},{"type": "Feature", "id": "layer_data_map.fid--27e80436_1a098b908f8_7d74", "geometry": {"type": "Point", "coordinates": [106.9117185, 47.92162705]}, "geometry_name": "geom", "properties": {"guid": 11510, "id": 11510, "object_no": null, "object_name": null, "layer_type_id": 205, "valid_to": null, "address_no": null, "border_type": "solid", "border_width": null, "border_color": null, "border_opacity": null, "border_wellknown": "horizline", "fill_type": "color", "fill_color": "#d5a6bd", "fill_opacity": 1, "fill_wellknown": "horizline", "fill_shape_color": null, "fill_shape_width": null, "fill_shape_size": null, "fill_img_url": null, "marker_img_url": null}},{"type": "Feature", "id": "layer_data_map.fid--27e80436_1a098b908f8_7d75", "geometry": {"type": "Point", "coordinates": [106.92949184, 47.92681772]}, "geometry_name": "geom", "properties": {"guid": 11511, "id": 11511, "object_no": null, "object_name": null, "layer_type_id": 205, "valid_to": null, "address_no": null, "border_type": "solid", "border_width": null, "border_color": null, "border_opacity": null, "border_wellknown": "horizline", "fill_type": "color", "fill_color": "#d5a6bd", "fill_opacity": 1, "fill_wellknown": "horizline", "fill_shape_color": null, "fill_shape_width": null, "fill_shape_size": null, "fill_img_url": null, "marker_img_url": null}},{"type": "Feature", "id": "layer_data_map.fid--27e80436_1a098b908f8_7d76", "geometry": {"type": "Point", "coordinates": [106.90331396, 47.91960887]}, "geometry_name": "geom", "properties": {"guid": 11512, "id": 11512, "object_no": null, "object_name": null, "layer_type_id": 205, "valid_to": null, "address_no": null, "border_type": "solid", "border_width": null, "border_color": null, "border_opacity": null, "border_wellknown": "horizline", "fill_type": "color", "fill_color": "#d5a6bd", "fill_opacity": 1, "fill_wellknown": "horizline", "fill_shape_color": null, "fill_shape_width": null, "fill_shape_size": null, "fill_img_url": null, "marker_img_url": null}},{"type": "Feature", "id": "layer_data_map.fid--27e80436_1a098b908f8_7d77", "geometry": {"type": "Point", "coordinates": [106.8936792, 47.89687041]}, "geometry_name": "geom", "properties": {"guid": 11513, "id": 11513, "object_no": null, "object_name": null, "layer_type_id": 205, "valid_to": null, "address_no": null, "border_type": "solid", "border_width": null, "border_color": null, "border_opacity": null, "border_wellknown": "horizline", "fill_type": "color", "fill_color": "#d5a6bd", "fill_opacity": 1, "fill_wellknown": "horizline", "fill_shape_color": null, "fill_shape_width": null, "fill_shape_size": null, "fill_img_url": null, "marker_img_url": null}},{"type": "Feature", "id": "layer_data_map.fid--27e80436_1a098b908f8_7d78", "geometry": {"type": "Point", "coordinates": [106.94273303, 47.92341922]}, "geometry_name": "geom", "properties": {"guid": 11514, "id": 11514, "object_no": null, "object_name": null, "layer_type_id": 205, "valid_to": null, "address_no": null, "border_type": "solid", "border_width": null, "border_color": null, "border_opacity": null, "border_wellknown": "horizline", "fill_type": "color", "fill_color": "#d5a6bd", "fill_opacity": 1, "fill_wellknown": "horizline", "fill_shape_color": null, "fill_shape_width": null, "fill_shape_size": null, "fill_img_url": null, "marker_img_url": null}},{"type": "Feature", "id": "layer_data_map.fid--27e80436_1a098b908f8_7d79", "geometry": {"type": "Point", "coordinates": [106.92500903, 47.92061652]}, "geometry_name": "geom", "properties": {"guid": 11515, "id": 11515, "object_no": null, "object_name": null, "layer_type_id": 205, "valid_to": null, "address_no": null, "border_type": "solid", "border_width": null, "border_color": null, "border_opacity": null, "border_wellknown": "horizline", "fill_type": "color", "fill_color": "#d5a6bd", "fill_opacity": 1, "fill_wellknown": "horizline", "fill_shape_color": null, "fill_shape_width": null, "fill_shape_size": null, "fill_img_url": null, "marker_img_url": null}},{"type": "Feature", "id": "layer_data_map.fid--27e80436_1a098b908f8_7d7a", "geometry": {"type": "Point", "coordinates": [106.87837008, 47.91985011]}, "geometry_name": "geom", "properties": {"guid": 11516, "id": 11516, "object_no": null, "object_name": null, "layer_type_id": 205, "valid_to": null, "address_no": null, "border_type": "solid", "border_width": null, "border_color": null, "border_opacity": null, "border_wellknown": "horizline", "fill_type": "color", "fill_color": "#d5a6bd", "fill_opacity": 1, "fill_wellknown": "horizline", "fill_shape_color": null, "fill_shape_width": null, "fill_shape_size": null, "fill_img_url": null, "marker_img_url": null}},{"type": "Feature", "id": "layer_data_map.fid--27e80436_1a098b908f8_7d7b", "geometry": {"type": "Point", "coordinates": [106.75248633, 47.9200944]}, "geometry_name": "geom", "properties": {"guid": 11517, "id": 11517, "object_no": null, "object_name": null, "layer_type_id": 205, "valid_to": null, "address_no": null, "border_type": "solid", "border_width": null, "border_color": null, "border_opacity": null, "border_wellknown": "horizline", "fill_type": "color", "fill_color": "#d5a6bd", "fill_opacity": 1, "fill_wellknown": "horizline", "fill_shape_color": null, "fill_shape_width": null, "fill_shape_size": null, "fill_img_url": null, "marker_img_url": null}},{"type": "Feature", "id": "layer_data_map.fid--27e80436_1a098b908f8_7d7c", "geometry": {"type": "Point", "coordinates": [106.91482808, 47.89985973]}, "geometry_name": "geom", "properties": {"guid": 11518, "id": 11518, "object_no": null, "object_name": null, "layer_type_id": 205, "valid_to": null, "address_no": null, "border_type": "solid", "border_width": null, "border_color": null, "border_opacity": null, "border_wellknown": "horizline", "fill_type": "color", "fill_color": "#d5a6bd", "fill_opacity": 1, "fill_wellknown": "horizline", "fill_shape_color": null, "fill_shape_width": null, "fill_shape_size": null, "fill_img_url": null, "marker_img_url": null}},{"type": "Feature", "id": "layer_data_map.fid--27e80436_1a098b908f8_7d7d", "geometry": {"type": "Point", "coordinates": [106.91382131, 47.90009802]}, "geometry_name": "geom", "properties": {"guid": 11519, "id": 11519, "object_no": null, "object_name": null, "layer_type_id": 205, "valid_to": null, "address_no": null, "border_type": "solid", "border_width": null, "border_color": null, "border_opacity": null, "border_wellknown": "horizline", "fill_type": "color", "fill_color": "#d5a6bd", "fill_opacity": 1, "fill_wellknown": "horizline", "fill_shape_color": null, "fill_shape_width": null, "fill_shape_size": null, "fill_img_url": null, "marker_img_url": null}},{"type": "Feature", "id": "layer_data_map.fid--27e80436_1a098b908f8_7d7e", "geometry": {"type": "Point", "coordinates": [106.91620023, 47.90221022]}, "geometry_name": "geom", "properties": {"guid": 11520, "id": 11520, "object_no": null, "object_name": null, "layer_type_id": 205, "valid_to": null, "address_no": null, "border_type": "solid", "border_width": null, "border_color": null, "border_opacity": null, "border_wellknown": "horizline", "fill_type": "color", "fill_color": "#d5a6bd", "fill_opacity": 1, "fill_wellknown": "horizline", "fill_shape_color": null, "fill_shape_width": null, "fill_shape_size": null, "fill_img_url": null, "marker_img_url": null}},{"type": "Feature", "id": "layer_data_map.fid--27e80436_1a098b908f8_7d7f", "geometry": {"type": "Point", "coordinates": [106.93164907, 47.9152308]}, "geometry_name": "geom", "properties": {"guid": 11521, "id": 11521, "object_no": null, "object_name": null, "layer_type_id": 205, "valid_to": null, "address_no": null, "border_type": "solid", "border_width": null, "border_color": null, "border_opacity": null, "border_wellknown": "horizline", "fill_type": "color", "fill_color": "#d5a6bd", "fill_opacity": 1, "fill_wellknown": "horizline", "fill_shape_color": null, "fill_shape_width": null, "fill_shape_size": null, "fill_img_url": null, "marker_img_url": null}},{"type": "Feature", "id": "layer_data_map.fid--27e80436_1a098b908f8_7d80", "geometry": {"type": "Point", "coordinates": [106.86368886, 47.91930566]}, "geometry_name": "geom", "properties": {"guid": 11522, "id": 11522, "object_no": null, "object_name": null, "layer_type_id": 205, "valid_to": null, "address_no": null, "border_type": "solid", "border_width": null, "border_color": null, "border_opacity": null, "border_wellknown": "horizline", "fill_type": "color", "fill_color": "#d5a6bd", "fill_opacity": 1, "fill_wellknown": "horizline", "fill_shape_color": null, "fill_shape_width": null, "fill_shape_size": null, "fill_img_url": null, "marker_img_url": null}},{"type": "Feature", "id": "layer_data_map.fid--27e80436_1a098b908f8_7d81", "geometry": {"type": "Point", "coordinates": [106.83220169, 47.91264676]}, "geometry_name": "geom", "properties": {"guid": 11523, "id": 11523, "object_no": null, "object_name": null, "layer_type_id": 205, "valid_to": null, "address_no": null, "border_type": "solid", "border_width": null, "border_color": null, "border_opacity": null, "border_wellknown": "horizline", "fill_type": "color", "fill_color": "#d5a6bd", "fill_opacity": 1, "fill_wellknown": "horizline", "fill_shape_color": null, "fill_shape_width": null, "fill_shape_size": null, "fill_img_url": null, "marker_img_url": null}},{"type": "Feature", "id": "layer_data_map.fid--27e80436_1a098b908f8_7d82", "geometry": {"type": "Point", "coordinates": [108.37201702, 47.77741448]}, "geometry_name": "geom", "properties": {"guid": 11524, "id": 11524, "object_no": null, "object_name": null, "layer_type_id": 205, "valid_to": null, "address_no": null, "border_type": "solid", "border_width": null, "border_color": null, "border_opacity": null, "border_wellknown": "horizline", "fill_type": "color", "fill_color": "#d5a6bd", "fill_opacity": 1, "fill_wellknown": "horizline", "fill_shape_color": null, "fill_shape_width": null, "fill_shape_size": null, "fill_img_url": null, "marker_img_url": null}},{"type": "Feature", "id": "layer_data_map.fid--27e80436_1a098b908f8_7d83", "geometry": {"type": "Point", "coordinates": [108.37480368, 47.78508605]}, "geometry_name": "geom", "properties": {"guid": 11525, "id": 11525, "object_no": null, "object_name": null, "layer_type_id": 205, "valid_to": null, "address_no": null, "border_type": "solid", "border_width": null, "border_color": null, "border_opacity": null, "border_wellknown": "horizline", "fill_type": "color", "fill_color": "#d5a6bd", "fill_opacity": 1, "fill_wellknown": "horizline", "fill_shape_color": null, "fill_shape_width": null, "fill_shape_size": null, "fill_img_url": null, "marker_img_url": null}},{"type": "Feature", "id": "layer_data_map.fid--27e80436_1a098b908f8_7d84", "geometry": {"type": "Point", "coordinates": [106.9726648, 47.91762305]}, "geometry_name": "geom", "properties": {"guid": 11526, "id": 11526, "object_no": null, "object_name": null, "layer_type_id": 205, "valid_to": null, "address_no": null, "border_type": "solid", "border_width": null, "border_color": null, "border_opacity": null, "border_wellknown": "horizline", "fill_type": "color", "fill_color": "#d5a6bd", "fill_opacity": 1, "fill_wellknown": "horizline", "fill_shape_color": null, "fill_shape_width": null, "fill_shape_size": null, "fill_img_url": null, "marker_img_url": null}},{"type": "Feature", "id": "layer_data_map.fid--27e80436_1a098b908f8_7d85", "geometry": {"type": "Point", "coordinates": [106.95099459, 47.92287877]}, "geometry_name": "geom", "properties": {"guid": 11527, "id": 11527, "object_no": null, "object_name": null, "layer_type_id": 205, "valid_to": null, "address_no": null, "border_type": "solid", "border_width": null, "border_color": null, "border_opacity": null, "border_wellknown": "horizline", "fill_type": "color", "fill_color": "#d5a6bd", "fill_opacity": 1, "fill_wellknown": "horizline", "fill_shape_color": null, "fill_shape_width": null, "fill_shape_size": null, "fill_img_url": null, "marker_img_url": null}},{"type": "Feature", "id": "layer_data_map.fid--27e80436_1a098b908f8_7d86", "geometry": {"type": "Point", "coordinates": [106.91087734, 47.89955918]}, "geometry_name": "geom", "properties": {"guid": 11528, "id": 11528, "object_no": null, "object_name": null, "layer_type_id": 205, "valid_to": null, "address_no": null, "border_type": "solid", "border_width": null, "border_color": null, "border_opacity": null, "border_wellknown": "horizline", "fill_type": "color", "fill_color": "#d5a6bd", "fill_opacity": 1, "fill_wellknown": "horizline", "fill_shape_color": null, "fill_shape_width": null, "fill_shape_size": null, "fill_img_url": null, "marker_img_url": null}},{"type": "Feature", "id": "layer_data_map.fid--27e80436_1a098b908f8_7d87", "geometry": {"type": "Point", "coordinates": [106.92432811, 47.92019664]}, "geometry_name": "geom", "properties": {"guid": 11529, "id": 11529, "object_no": null, "object_name": null, "layer_type_id": 205, "valid_to": null, "address_no": null, "border_type": "solid", "border_width": null, "border_color": null, "border_opacity": null, "border_wellknown": "horizline", "fill_type": "color", "fill_color": "#d5a6bd", "fill_opacity": 1, "fill_wellknown": "horizline", "fill_shape_color": null, "fill_shape_width": null, "fill_shape_size": null, "fill_img_url": null, "marker_img_url": null}},{"type": "Feature", "id": "layer_data_map.fid--27e80436_1a098b908f8_7d88", "geometry": {"type": "Point", "coordinates": [106.90861702, 47.92317708]}, "geometry_name": "geom", "properties": {"guid": 11530, "id": 11530, "object_no": null, "object_name": null, "layer_type_id": 205, "valid_to": null, "address_no": null, "border_type": "solid", "border_width": null, "border_color": null, "border_opacity": null, "border_wellknown": "horizline", "fill_type": "color", "fill_color": "#d5a6bd", "fill_opacity": 1, "fill_wellknown": "horizline", "fill_shape_color": null, "fill_shape_width": null, "fill_shape_size": null, "fill_img_url": null, "marker_img_url": null}},{"type": "Feature", "id": "layer_data_map.fid--27e80436_1a098b908f8_7d89", "geometry": {"type": "Point", "coordinates": [106.92771327, 47.92230623]}, "geometry_name": "geom", "properties": {"guid": 11531, "id": 11531, "object_no": null, "object_name": null, "layer_type_id": 205, "valid_to": null, "address_no": null, "border_type": "solid", "border_width": null, "border_color": null, "border_opacity": null, "border_wellknown": "horizline", "fill_type": "color", "fill_color": "#d5a6bd", "fill_opacity": 1, "fill_wellknown": "horizline", "fill_shape_color": null, "fill_shape_width": null, "fill_shape_size": null, "fill_img_url": null, "marker_img_url": null}},{"type": "Feature", "id": "layer_data_map.fid--27e80436_1a098b908f8_7d8a", "geometry": {"type": "Point", "coordinates": [106.89135095, 47.89631148]}, "geometry_name": "geom", "properties": {"guid": 11532, "id": 11532, "object_no": null, "object_name": null, "layer_type_id": 205, "valid_to": null, "address_no": null, "border_type": "solid", "border_width": null, "border_color": null, "border_opacity": null, "border_wellknown": "horizline", "fill_type": "color", "fill_color": "#d5a6bd", "fill_opacity": 1, "fill_wellknown": "horizline", "fill_shape_color": null, "fill_shape_width": null, "fill_shape_size": null, "fill_img_url": null, "marker_img_url": null}},{"type": "Feature", "id": "layer_data_map.fid--27e80436_1a098b908f8_7d8b", "geometry": {"type": "Point", "coordinates": [106.88994419, 47.91739592]}, "geometry_name": "geom", "properties": {"guid": 11533, "id": 11533, "object_no": null, "object_name": null, "layer_type_id": 205, "valid_to": null, "address_no": null, "border_type": "solid", "border_width": null, "border_color": null, "border_opacity": null, "border_wellknown": "horizline", "fill_type": "color", "fill_color": "#d5a6bd", "fill_opacity": 1, "fill_wellknown": "horizline", "fill_shape_color": null, "fill_shape_width": null, "fill_shape_size": null, "fill_img_url": null, "marker_img_url": null}},{"type": "Feature", "id": "layer_data_map.fid--27e80436_1a098b908f8_7d8c", "geometry": {"type": "Point", "coordinates": [106.88617625, 47.91740076]}, "geometry_name": "geom", "properties": {"guid": 11534, "id": 11534, "object_no": null, "object_name": null, "layer_type_id": 205, "valid_to": null, "address_no": null, "border_type": "solid", "border_width": null, "border_color": null, "border_opacity": null, "border_wellknown": "horizline", "fill_type": "color", "fill_color": "#d5a6bd", "fill_opacity": 1, "fill_wellknown": "horizline", "fill_shape_color": null, "fill_shape_width": null, "fill_shape_size": null, "fill_img_url": null, "marker_img_url": null}},{"type": "Feature", "id": "layer_data_map.fid--27e80436_1a098b908f8_7d8d", "geometry": {"type": "Point", "coordinates": [106.92516588, 47.92040888]}, "geometry_name": "geom", "properties": {"guid": 11535, "id": 11535, "object_no": null, "object_name": null, "layer_type_id": 205, "valid_to": null, "address_no": null, "border_type": "solid", "border_width": null, "border_color": null, "border_opacity": null, "border_wellknown": "horizline", "fill_type": "color", "fill_color": "#d5a6bd", "fill_opacity": 1, "fill_wellknown": "horizline", "fill_shape_color": null, "fill_shape_width": null, "fill_shape_size": null, "fill_img_url": null, "marker_img_url": null}},{"type": "Feature", "id": "layer_data_map.fid--27e80436_1a098b908f8_7d8e", "geometry": {"type": "Point", "coordinates": [106.91087685, 47.89951044]}, "geometry_name": "geom", "properties": {"guid": 11536, "id": 11536, "object_no": null, "object_name": null, "layer_type_id": 205, "valid_to": null, "address_no": null, "border_type": "solid", "border_width": null, "border_color": null, "border_opacity": null, "border_wellknown": "horizline", "fill_type": "color", "fill_color": "#d5a6bd", "fill_opacity": 1, "fill_wellknown": "horizline", "fill_shape_color": null, "fill_shape_width": null, "fill_shape_size": null, "fill_img_url": null, "marker_img_url": null}},{"type": "Feature", "id": "layer_data_map.fid--27e80436_1a098b908f8_7d8f", "geometry": {"type": "Point", "coordinates": [106.91088034, 47.89966275]}, "geometry_name": "geom", "properties": {"guid": 11537, "id": 11537, "object_no": null, "object_name": null, "layer_type_id": 205, "valid_to": null, "address_no": null, "border_type": "solid", "border_width": null, "border_color": null, "border_opacity": null, "border_wellknown": "horizline", "fill_type": "color", "fill_color": "#d5a6bd", "fill_opacity": 1, "fill_wellknown": "horizline", "fill_shape_color": null, "fill_shape_width": null, "fill_shape_size": null, "fill_img_url": null, "marker_img_url": null}},{"type": "Feature", "id": "layer_data_map.fid--27e80436_1a098b908f8_7d90", "geometry": {"type": "Point", "coordinates": [106.92425844, 47.92051569]}, "geometry_name": "geom", "properties": {"guid": 11538, "id": 11538, "object_no": null, "object_name": null, "layer_type_id": 205, "valid_to": null, "address_no": null, "border_type": "solid", "border_width": null, "border_color": null, "border_opacity": null, "border_wellknown": "horizline", "fill_type": "color", "fill_color": "#d5a6bd", "fill_opacity": 1, "fill_wellknown": "horizline", "fill_shape_color": null, "fill_shape_width": null, "fill_shape_size": null, "fill_img_url": null, "marker_img_url": null}},{"type": "Feature", "id": "layer_data_map.fid--27e80436_1a098b908f8_7d91", "geometry": {"type": "Point", "coordinates": [106.9108745, 47.8994466]}, "geometry_name": "geom", "properties": {"guid": 11539, "id": 11539, "object_no": null, "object_name": null, "layer_type_id": 205, "valid_to": null, "address_no": null, "border_type": "solid", "border_width": null, "border_color": null, "border_opacity": null, "border_wellknown": "horizline", "fill_type": "color", "fill_color": "#d5a6bd", "fill_opacity": 1, "fill_wellknown": "horizline", "fill_shape_color": null, "fill_shape_width": null, "fill_shape_size": null, "fill_img_url": null, "marker_img_url": null}},{"type": "Feature", "id": "layer_data_map.fid--27e80436_1a098b908f8_7d92", "geometry": {"type": "Point", "coordinates": [106.91088049, 47.89971504]}, "geometry_name": "geom", "properties": {"guid": 11540, "id": 11540, "object_no": null, "object_name": null, "layer_type_id": 205, "valid_to": null, "address_no": null, "border_type": "solid", "border_width": null, "border_color": null, "border_opacity": null, "border_wellknown": "horizline", "fill_type": "color", "fill_color": "#d5a6bd", "fill_opacity": 1, "fill_wellknown": "horizline", "fill_shape_color": null, "fill_shape_width": null, "fill_shape_size": null, "fill_img_url": null, "marker_img_url": null}},{"type": "Feature", "id": "layer_data_map.fid--27e80436_1a098b908f8_7d93", "geometry": {"type": "Point", "coordinates": [106.92422799, 47.92063685]}, "geometry_name": "geom", "properties": {"guid": 11541, "id": 11541, "object_no": null, "object_name": null, "layer_type_id": 205, "valid_to": null, "address_no": null, "border_type": "solid", "border_width": null, "border_color": null, "border_opacity": null, "border_wellknown": "horizline", "fill_type": "color", "fill_color": "#d5a6bd", "fill_opacity": 1, "fill_wellknown": "horizline", "fill_shape_color": null, "fill_shape_width": null, "fill_shape_size": null, "fill_img_url": null, "marker_img_url": null}},{"type": "Feature", "id": "layer_data_map.fid--27e80436_1a098b908f8_7d94", "geometry": {"type": "Point", "coordinates": [106.91087967, 47.89960851]}, "geometry_name": "geom", "properties": {"guid": 11542, "id": 11542, "object_no": null, "object_name": null, "layer_type_id": 205, "valid_to": null, "address_no": null, "border_type": "solid", "border_width": null, "border_color": null, "border_opacity": null, "border_wellknown": "horizline", "fill_type": "color", "fill_color": "#d5a6bd", "fill_opacity": 1, "fill_wellknown": "horizline", "fill_shape_color": null, "fill_shape_width": null, "fill_shape_size": null, "fill_img_url": null, "marker_img_url": null}},{"type": "Feature", "id": "layer_data_map.fid--27e80436_1a098b908f8_7d95", "geometry": {"type": "Point", "coordinates": [106.91087841, 47.89958401]}, "geometry_name": "geom", "properties": {"guid": 11543, "id": 11543, "object_no": null, "object_name": null, "layer_type_id": 205, "valid_to": null, "address_no": null, "border_type": "solid", "border_width": null, "border_color": null, "border_opacity": null, "border_wellknown": "horizline", "fill_type": "color", "fill_color": "#d5a6bd", "fill_opacity": 1, "fill_wellknown": "horizline", "fill_shape_color": null, "fill_shape_width": null, "fill_shape_size": null, "fill_img_url": null, "marker_img_url": null}},{"type": "Feature", "id": "layer_data_map.fid--27e80436_1a098b908f8_7d96", "geometry": {"type": "Point", "coordinates": [106.910876, 47.89947026]}, "geometry_name": "geom", "properties": {"guid": 11544, "id": 11544, "object_no": null, "object_name": null, "layer_type_id": 205, "valid_to": null, "address_no": null, "border_type": "solid", "border_width": null, "border_color": null, "border_opacity": null, "border_wellknown": "horizline", "fill_type": "color", "fill_color": "#d5a6bd", "fill_opacity": 1, "fill_wellknown": "horizline", "fill_shape_color": null, "fill_shape_width": null, "fill_shape_size": null, "fill_img_url": null, "marker_img_url": null}},{"type": "Feature", "id": "layer_data_map.fid--27e80436_1a098b908f8_7d97", "geometry": {"type": "Point", "coordinates": [106.91088083, 47.89968801]}, "geometry_name": "geom", "properties": {"guid": 11545, "id": 11545, "object_no": null, "object_name": null, "layer_type_id": 205, "valid_to": null, "address_no": null, "border_type": "solid", "border_width": null, "border_color": null, "border_opacity": null, "border_wellknown": "horizline", "fill_type": "color", "fill_color": "#d5a6bd", "fill_opacity": 1, "fill_wellknown": "horizline", "fill_shape_color": null, "fill_shape_width": null, "fill_shape_size": null, "fill_img_url": null, "marker_img_url": null}},{"type": "Feature", "id": "layer_data_map.fid--27e80436_1a098b908f8_7d98", "geometry": {"type": "Point", "coordinates": [106.91088135, 47.89963491]}, "geometry_name": "geom", "properties": {"guid": 11546, "id": 11546, "object_no": null, "object_name": null, "layer_type_id": 205, "valid_to": null, "address_no": null, "border_type": "solid", "border_width": null, "border_color": null, "border_opacity": null, "border_wellknown": "horizline", "fill_type": "color", "fill_color": "#d5a6bd", "fill_opacity": 1, "fill_wellknown": "horizline", "fill_shape_color": null, "fill_shape_width": null, "fill_shape_size": null, "fill_img_url": null, "marker_img_url": null}},{"type": "Feature", "id": "layer_data_map.fid--27e80436_1a098b908f8_7d99", "geometry": {"type": "Point", "coordinates": [106.90624465, 47.91835923]}, "geometry_name": "geom", "properties": {"guid": 11547, "id": 11547, "object_no": null, "object_name": null, "layer_type_id": 205, "valid_to": null, "address_no": null, "border_type": "solid", "border_width": null, "border_color": null, "border_opacity": null, "border_wellknown": "horizline", "fill_type": "color", "fill_color": "#d5a6bd", "fill_opacity": 1, "fill_wellknown": "horizline", "fill_shape_color": null, "fill_shape_width": null, "fill_shape_size": null, "fill_img_url": null, "marker_img_url": null}},{"type": "Feature", "id": "layer_data_map.fid--27e80436_1a098b908f8_7d9a", "geometry": {"type": "Point", "coordinates": [106.91087801, 47.89953621]}, "geometry_name": "geom", "properties": {"guid": 11548, "id": 11548, "object_no": null, "object_name": null, "layer_type_id": 205, "valid_to": null, "address_no": null, "border_type": "solid", "border_width": null, "border_color": null, "border_opacity": null, "border_wellknown": "horizline", "fill_type": "color", "fill_color": "#d5a6bd", "fill_opacity": 1, "fill_wellknown": "horizline", "fill_shape_color": null, "fill_shape_width": null, "fill_shape_size": null, "fill_img_url": null, "marker_img_url": null}},{"type": "Feature", "id": "layer_data_map.fid--27e80436_1a098b908f8_7d9b", "geometry": {"type": "Point", "coordinates": [106.92434907, 47.92009929]}, "geometry_name": "geom", "properties": {"guid": 11549, "id": 11549, "object_no": null, "object_name": null, "layer_type_id": 205, "valid_to": null, "address_no": null, "border_type": "solid", "border_width": null, "border_color": null, "border_opacity": null, "border_wellknown": "horizline", "fill_type": "color", "fill_color": "#d5a6bd", "fill_opacity": 1, "fill_wellknown": "horizline", "fill_shape_color": null, "fill_shape_width": null, "fill_shape_size": null, "fill_img_url": null, "marker_img_url": null}},{"type": "Feature", "id": "layer_data_map.fid--27e80436_1a098b908f8_7d9c", "geometry": {"type": "Point", "coordinates": [106.92420177, 47.92073026]}, "geometry_name": "geom", "properties": {"guid": 11550, "id": 11550, "object_no": null, "object_name": null, "layer_type_id": 205, "valid_to": null, "address_no": null, "border_type": "solid", "border_width": null, "border_color": null, "border_opacity": null, "border_wellknown": "horizline", "fill_type": "color", "fill_color": "#d5a6bd", "fill_opacity": 1, "fill_wellknown": "horizline", "fill_shape_color": null, "fill_shape_width": null, "fill_shape_size": null, "fill_img_url": null, "marker_img_url": null}},{"type": "Feature", "id": "layer_data_map.fid--27e80436_1a098b908f8_7d9d", "geometry": {"type": "Point", "coordinates": [106.90847559, 47.92161247]}, "geometry_name": "geom", "properties": {"guid": 11551, "id": 11551, "object_no": null, "object_name": null, "layer_type_id": 205, "valid_to": null, "address_no": null, "border_type": "solid", "border_width": null, "border_color": null, "border_opacity": null, "border_wellknown": "horizline", "fill_type": "color", "fill_color": "#d5a6bd", "fill_opacity": 1, "fill_wellknown": "horizline", "fill_shape_color": null, "fill_shape_width": null, "fill_shape_size": null, "fill_img_url": null, "marker_img_url": null}},{"type": "Feature", "id": "layer_data_map.fid--27e80436_1a098b908f8_7d9e", "geometry": {"type": "Point", "coordinates": [106.92436275, 47.92001157]}, "geometry_name": "geom", "properties": {"guid": 11552, "id": 11552, "object_no": null, "object_name": null, "layer_type_id": 205, "valid_to": null, "address_no": null, "border_type": "solid", "border_width": null, "border_color": null, "border_opacity": null, "border_wellknown": "horizline", "fill_type": "color", "fill_color": "#d5a6bd", "fill_opacity": 1, "fill_wellknown": "horizline", "fill_shape_color": null, "fill_shape_width": null, "fill_shape_size": null, "fill_img_url": null, "marker_img_url": null}},{"type": "Feature", "id": "layer_data_map.fid--27e80436_1a098b908f8_7d9f", "geometry": {"type": "Point", "coordinates": [106.91091604, 47.89953761]}, "geometry_name": "geom", "properties": {"guid": 11553, "id": 11553, "object_no": null, "object_name": null, "layer_type_id": 205, "valid_to": null, "address_no": null, "border_type": "solid", "border_width": null, "border_color": null, "border_opacity": null, "border_wellknown": "horizline", "fill_type": "color", "fill_color": "#d5a6bd", "fill_opacity": 1, "fill_wellknown": "horizline", "fill_shape_color": null, "fill_shape_width": null, "fill_shape_size": null, "fill_img_url": null, "marker_img_url": null}},{"type": "Feature", "id": "layer_data_map.fid--27e80436_1a098b908f8_7da0", "geometry": {"type": "Point", "coordinates": [106.88428979, 47.89340017]}, "geometry_name": "geom", "properties": {"guid": 11554, "id": 11554, "object_no": null, "object_name": null, "layer_type_id": 205, "valid_to": null, "address_no": null, "border_type": "solid", "border_width": null, "border_color": null, "border_opacity": null, "border_wellknown": "horizline", "fill_type": "color", "fill_color": "#d5a6bd", "fill_opacity": 1, "fill_wellknown": "horizline", "fill_shape_color": null, "fill_shape_width": null, "fill_shape_size": null, "fill_img_url": null, "marker_img_url": null}},{"type": "Feature", "id": "layer_data_map.fid--27e80436_1a098b908f8_7da1", "geometry": {"type": "Point", "coordinates": [106.9242724, 47.92043023]}, "geometry_name": "geom", "properties": {"guid": 11555, "id": 11555, "object_no": null, "object_name": null, "layer_type_id": 205, "valid_to": null, "address_no": null, "border_type": "solid", "border_width": null, "border_color": null, "border_opacity": null, "border_wellknown": "horizline", "fill_type": "color", "fill_color": "#d5a6bd", "fill_opacity": 1, "fill_wellknown": "horizline", "fill_shape_color": null, "fill_shape_width": null, "fill_shape_size": null, "fill_img_url": null, "marker_img_url": null}},{"type": "Feature", "id": "layer_data_map.fid--27e80436_1a098b908f8_7da2", "geometry": {"type": "Point", "coordinates": [106.91487108, 47.91732769]}, "geometry_name": "geom", "properties": {"guid": 11556, "id": 11556, "object_no": null, "object_name": null, "layer_type_id": 205, "valid_to": null, "address_no": null, "border_type": "solid", "border_width": null, "border_color": null, "border_opacity": null, "border_wellknown": "horizline", "fill_type": "color", "fill_color": "#d5a6bd", "fill_opacity": 1, "fill_wellknown": "horizline", "fill_shape_color": null, "fill_shape_width": null, "fill_shape_size": null, "fill_img_url": null, "marker_img_url": null}},{"type": "Feature", "id": "layer_data_map.fid--27e80436_1a098b908f8_7da3", "geometry": {"type": "Point", "coordinates": [106.8409571, 47.91429758]}, "geometry_name": "geom", "properties": {"guid": 11557, "id": 11557, "object_no": null, "object_name": null, "layer_type_id": 205, "valid_to": null, "address_no": null, "border_type": "solid", "border_width": null, "border_color": null, "border_opacity": null, "border_wellknown": "horizline", "fill_type": "color", "fill_color": "#d5a6bd", "fill_opacity": 1, "fill_wellknown": "horizline", "fill_shape_color": null, "fill_shape_width": null, "fill_shape_size": null, "fill_img_url": null, "marker_img_url": null}},{"type": "Feature", "id": "layer_data_map.fid--27e80436_1a098b908f8_7da4", "geometry": {"type": "Point", "coordinates": [106.9109148, 47.89968746]}, "geometry_name": "geom", "properties": {"guid": 11558, "id": 11558, "object_no": null, "object_name": null, "layer_type_id": 205, "valid_to": null, "address_no": null, "border_type": "solid", "border_width": null, "border_color": null, "border_opacity": null, "border_wellknown": "horizline", "fill_type": "color", "fill_color": "#d5a6bd", "fill_opacity": 1, "fill_wellknown": "horizline", "fill_shape_color": null, "fill_shape_width": null, "fill_shape_size": null, "fill_img_url": null, "marker_img_url": null}},{"type": "Feature", "id": "layer_data_map.fid--27e80436_1a098b908f8_7da5", "geometry": {"type": "Point", "coordinates": [106.91091893, 47.8997131]}, "geometry_name": "geom", "properties": {"guid": 11559, "id": 11559, "object_no": null, "object_name": null, "layer_type_id": 205, "valid_to": null, "address_no": null, "border_type": "solid", "border_width": null, "border_color": null, "border_opacity": null, "border_wellknown": "horizline", "fill_type": "color", "fill_color": "#d5a6bd", "fill_opacity": 1, "fill_wellknown": "horizline", "fill_shape_color": null, "fill_shape_width": null, "fill_shape_size": null, "fill_img_url": null, "marker_img_url": null}},{"type": "Feature", "id": "layer_data_map.fid--27e80436_1a098b908f8_7da6", "geometry": {"type": "Point", "coordinates": [106.91091501, 47.89958404]}, "geometry_name": "geom", "properties": {"guid": 11560, "id": 11560, "object_no": null, "object_name": null, "layer_type_id": 205, "valid_to": null, "address_no": null, "border_type": "solid", "border_width": null, "border_color": null, "border_opacity": null, "border_wellknown": "horizline", "fill_type": "color", "fill_color": "#d5a6bd", "fill_opacity": 1, "fill_wellknown": "horizline", "fill_shape_color": null, "fill_shape_width": null, "fill_shape_size": null, "fill_img_url": null, "marker_img_url": null}},{"type": "Feature", "id": "layer_data_map.fid--27e80436_1a098b908f8_7da7", "geometry": {"type": "Point", "coordinates": [106.91091878, 47.89973786]}, "geometry_name": "geom", "properties": {"guid": 11561, "id": 11561, "object_no": null, "object_name": null, "layer_type_id": 205, "valid_to": null, "address_no": null, "border_type": "solid", "border_width": null, "border_color": null, "border_opacity": null, "border_wellknown": "horizline", "fill_type": "color", "fill_color": "#d5a6bd", "fill_opacity": 1, "fill_wellknown": "horizline", "fill_shape_color": null, "fill_shape_width": null, "fill_shape_size": null, "fill_img_url": null, "marker_img_url": null}},{"type": "Feature", "id": "layer_data_map.fid--27e80436_1a098b908f8_7da8", "geometry": {"type": "Point", "coordinates": [106.91087318, 47.89942246]}, "geometry_name": "geom", "properties": {"guid": 11562, "id": 11562, "object_no": null, "object_name": null, "layer_type_id": 205, "valid_to": null, "address_no": null, "border_type": "solid", "border_width": null, "border_color": null, "border_opacity": null, "border_wellknown": "horizline", "fill_type": "color", "fill_color": "#d5a6bd", "fill_opacity": 1, "fill_wellknown": "horizline", "fill_shape_color": null, "fill_shape_width": null, "fill_shape_size": null, "fill_img_url": null, "marker_img_url": null}},{"type": "Feature", "id": "layer_data_map.fid--27e80436_1a098b908f8_7da9", "geometry": {"type": "Point", "coordinates": [106.92451099, 47.9201127]}, "geometry_name": "geom", "properties": {"guid": 11563, "id": 11563, "object_no": null, "object_name": null, "layer_type_id": 205, "valid_to": null, "address_no": null, "border_type": "solid", "border_width": null, "border_color": null, "border_opacity": null, "border_wellknown": "horizline", "fill_type": "color", "fill_color": "#d5a6bd", "fill_opacity": 1, "fill_wellknown": "horizline", "fill_shape_color": null, "fill_shape_width": null, "fill_shape_size": null, "fill_img_url": null, "marker_img_url": null}},{"type": "Feature", "id": "layer_data_map.fid--27e80436_1a098b908f8_7daa", "geometry": {"type": "Point", "coordinates": [106.90038876, 47.91272468]}, "geometry_name": "geom", "properties": {"guid": 11564, "id": 11564, "object_no": null, "object_name": null, "layer_type_id": 205, "valid_to": null, "address_no": null, "border_type": "solid", "border_width": null, "border_color": null, "border_opacity": null, "border_wellknown": "horizline", "fill_type": "color", "fill_color": "#d5a6bd", "fill_opacity": 1, "fill_wellknown": "horizline", "fill_shape_color": null, "fill_shape_width": null, "fill_shape_size": null, "fill_img_url": null, "marker_img_url": null}},{"type": "Feature", "id": "layer_data_map.fid--27e80436_1a098b908f8_7dab", "geometry": {"type": "Point", "coordinates": [106.91091374, 47.89942097]}, "geometry_name": "geom", "properties": {"guid": 11565, "id": 11565, "object_no": null, "object_name": null, "layer_type_id": 205, "valid_to": null, "address_no": null, "border_type": "solid", "border_width": null, "border_color": null, "border_opacity": null, "border_wellknown": "horizline", "fill_type": "color", "fill_color": "#d5a6bd", "fill_opacity": 1, "fill_wellknown": "horizline", "fill_shape_color": null, "fill_shape_width": null, "fill_shape_size": null, "fill_img_url": null, "marker_img_url": null}},{"type": "Feature", "id": "layer_data_map.fid--27e80436_1a098b908f8_7dac", "geometry": {"type": "Point", "coordinates": [106.87569671, 47.91889304]}, "geometry_name": "geom", "properties": {"guid": 11566, "id": 11566, "object_no": null, "object_name": null, "layer_type_id": 205, "valid_to": null, "address_no": null, "border_type": "solid", "border_width": null, "border_color": null, "border_opacity": null, "border_wellknown": "horizline", "fill_type": "color", "fill_color": "#d5a6bd", "fill_opacity": 1, "fill_wellknown": "horizline", "fill_shape_color": null, "fill_shape_width": null, "fill_shape_size": null, "fill_img_url": null, "marker_img_url": null}},{"type": "Feature", "id": "layer_data_map.fid--27e80436_1a098b908f8_7dad", "geometry": {"type": "Point", "coordinates": [106.9355932, 47.91226435]}, "geometry_name": "geom", "properties": {"guid": 11567, "id": 11567, "object_no": null, "object_name": null, "layer_type_id": 205, "valid_to": null, "address_no": null, "border_type": "solid", "border_width": null, "border_color": null, "border_opacity": null, "border_wellknown": "horizline", "fill_type": "color", "fill_color": "#d5a6bd", "fill_opacity": 1, "fill_wellknown": "horizline", "fill_shape_color": null, "fill_shape_width": null, "fill_shape_size": null, "fill_img_url": null, "marker_img_url": null}},{"type": "Feature", "id": "layer_data_map.fid--27e80436_1a098b908f8_7dae", "geometry": {"type": "Point", "coordinates": [106.86662318, 47.9131928]}, "geometry_name": "geom", "properties": {"guid": 11568, "id": 11568, "object_no": null, "object_name": null, "layer_type_id": 205, "valid_to": null, "address_no": null, "border_type": "solid", "border_width": null, "border_color": null, "border_opacity": null, "border_wellknown": "horizline", "fill_type": "color", "fill_color": "#d5a6bd", "fill_opacity": 1, "fill_wellknown": "horizline", "fill_shape_color": null, "fill_shape_width": null, "fill_shape_size": null, "fill_img_url": null, "marker_img_url": null}},{"type": "Feature", "id": "layer_data_map.fid--27e80436_1a098b908f8_7daf", "geometry": {"type": "Point", "coordinates": [106.92448849, 47.92019931]}, "geometry_name": "geom", "properties": {"guid": 11569, "id": 11569, "object_no": null, "object_name": null, "layer_type_id": 205, "valid_to": null, "address_no": null, "border_type": "solid", "border_width": null, "border_color": null, "border_opacity": null, "border_wellknown": "horizline", "fill_type": "color", "fill_color": "#d5a6bd", "fill_opacity": 1, "fill_wellknown": "horizline", "fill_shape_color": null, "fill_shape_width": null, "fill_shape_size": null, "fill_img_url": null, "marker_img_url": null}},{"type": "Feature", "id": "layer_data_map.fid--27e80436_1a098b908f8_7db0", "geometry": {"type": "Point", "coordinates": [107.01305647, 47.90561434]}, "geometry_name": "geom", "properties": {"guid": 11570, "id": 11570, "object_no": null, "object_name": null, "layer_type_id": 205, "valid_to": null, "address_no": null, "border_type": "solid", "border_width": null, "border_color": null, "border_opacity": null, "border_wellknown": "horizline", "fill_type": "color", "fill_color": "#d5a6bd", "fill_opacity": 1, "fill_wellknown": "horizline", "fill_shape_color": null, "fill_shape_width": null, "fill_shape_size": null, "fill_img_url": null, "marker_img_url": null}},{"type": "Feature", "id": "layer_data_map.fid--27e80436_1a098b908f8_7db1", "geometry": {"type": "Point", "coordinates": [106.8729194, 47.89169367]}, "geometry_name": "geom", "properties": {"guid": 11571, "id": 11571, "object_no": null, "object_name": null, "layer_type_id": 205, "valid_to": null, "address_no": null, "border_type": "solid", "border_width": null, "border_color": null, "border_opacity": null, "border_wellknown": "horizline", "fill_type": "color", "fill_color": "#d5a6bd", "fill_opacity": 1, "fill_wellknown": "horizline", "fill_shape_color": null, "fill_shape_width": null, "fill_shape_size": null, "fill_img_url": null, "marker_img_url": null}},{"type": "Feature", "id": "layer_data_map.fid--27e80436_1a098b908f8_7db2", "geometry": {"type": "Point", "coordinates": [106.91087663, 47.89948739]}, "geometry_name": "geom", "properties": {"guid": 11572, "id": 11572, "object_no": null, "object_name": null, "layer_type_id": 205, "valid_to": null, "address_no": null, "border_type": "solid", "border_width": null, "border_color": null, "border_opacity": null, "border_wellknown": "horizline", "fill_type": "color", "fill_color": "#d5a6bd", "fill_opacity": 1, "fill_wellknown": "horizline", "fill_shape_color": null, "fill_shape_width": null, "fill_shape_size": null, "fill_img_url": null, "marker_img_url": null}},{"type": "Feature", "id": "layer_data_map.fid--27e80436_1a098b908f8_7db3", "geometry": {"type": "Point", "coordinates": [106.91088089, 47.89973853]}, "geometry_name": "geom", "properties": {"guid": 11573, "id": 11573, "object_no": null, "object_name": null, "layer_type_id": 205, "valid_to": null, "address_no": null, "border_type": "solid", "border_width": null, "border_color": null, "border_opacity": null, "border_wellknown": "horizline", "fill_type": "color", "fill_color": "#d5a6bd", "fill_opacity": 1, "fill_wellknown": "horizline", "fill_shape_color": null, "fill_shape_width": null, "fill_shape_size": null, "fill_img_url": null, "marker_img_url": null}},{"type": "Feature", "id": "layer_data_map.fid--27e80436_1a098b908f8_7db4", "geometry": {"type": "Point", "coordinates": [106.91091513, 47.89944395]}, "geometry_name": "geom", "properties": {"guid": 11574, "id": 11574, "object_no": null, "object_name": null, "layer_type_id": 205, "valid_to": null, "address_no": null, "border_type": "solid", "border_width": null, "border_color": null, "border_opacity": null, "border_wellknown": "horizline", "fill_type": "color", "fill_color": "#d5a6bd", "fill_opacity": 1, "fill_wellknown": "horizline", "fill_shape_color": null, "fill_shape_width": null, "fill_shape_size": null, "fill_img_url": null, "marker_img_url": null}},{"type": "Feature", "id": "layer_data_map.fid--27e80436_1a098b908f8_7db5", "geometry": {"type": "Point", "coordinates": [106.91091642, 47.89947094]}, "geometry_name": "geom", "properties": {"guid": 11575, "id": 11575, "object_no": null, "object_name": null, "layer_type_id": 205, "valid_to": null, "address_no": null, "border_type": "solid", "border_width": null, "border_color": null, "border_opacity": null, "border_wellknown": "horizline", "fill_type": "color", "fill_color": "#d5a6bd", "fill_opacity": 1, "fill_wellknown": "horizline", "fill_shape_color": null, "fill_shape_width": null, "fill_shape_size": null, "fill_img_url": null, "marker_img_url": null}},{"type": "Feature", "id": "layer_data_map.fid--27e80436_1a098b908f8_7db6", "geometry": {"type": "Point", "coordinates": [106.91091553, 47.89948524]}, "geometry_name": "geom", "properties": {"guid": 11576, "id": 11576, "object_no": null, "object_name": null, "layer_type_id": 205, "valid_to": null, "address_no": null, "border_type": "solid", "border_width": null, "border_color": null, "border_opacity": null, "border_wellknown": "horizline", "fill_type": "color", "fill_color": "#d5a6bd", "fill_opacity": 1, "fill_wellknown": "horizline", "fill_shape_color": null, "fill_shape_width": null, "fill_shape_size": null, "fill_img_url": null, "marker_img_url": null}},{"type": "Feature", "id": "layer_data_map.fid--27e80436_1a098b908f8_7db7", "geometry": {"type": "Point", "coordinates": [106.91091637, 47.89950808]}, "geometry_name": "geom", "properties": {"guid": 11577, "id": 11577, "object_no": null, "object_name": null, "layer_type_id": 205, "valid_to": null, "address_no": null, "border_type": "solid", "border_width": null, "border_color": null, "border_opacity": null, "border_wellknown": "horizline", "fill_type": "color", "fill_color": "#d5a6bd", "fill_opacity": 1, "fill_wellknown": "horizline", "fill_shape_color": null, "fill_shape_width": null, "fill_shape_size": null, "fill_img_url": null, "marker_img_url": null}},{"type": "Feature", "id": "layer_data_map.fid--27e80436_1a098b908f8_7db8", "geometry": {"type": "Point", "coordinates": [106.91091472, 47.8995569]}, "geometry_name": "geom", "properties": {"guid": 11578, "id": 11578, "object_no": null, "object_name": null, "layer_type_id": 205, "valid_to": null, "address_no": null, "border_type": "solid", "border_width": null, "border_color": null, "border_opacity": null, "border_wellknown": "horizline", "fill_type": "color", "fill_color": "#d5a6bd", "fill_opacity": 1, "fill_wellknown": "horizline", "fill_shape_color": null, "fill_shape_width": null, "fill_shape_size": null, "fill_img_url": null, "marker_img_url": null}},{"type": "Feature", "id": "layer_data_map.fid--27e80436_1a098b908f8_7db9", "geometry": {"type": "Point", "coordinates": [106.91091505, 47.89960878]}, "geometry_name": "geom", "properties": {"guid": 11579, "id": 11579, "object_no": null, "object_name": null, "layer_type_id": 205, "valid_to": null, "address_no": null, "border_type": "solid", "border_width": null, "border_color": null, "border_opacity": null, "border_wellknown": "horizline", "fill_type": "color", "fill_color": "#d5a6bd", "fill_opacity": 1, "fill_wellknown": "horizline", "fill_shape_color": null, "fill_shape_width": null, "fill_shape_size": null, "fill_img_url": null, "marker_img_url": null}},{"type": "Feature", "id": "layer_data_map.fid--27e80436_1a098b908f8_7dba", "geometry": {"type": "Point", "coordinates": [106.91091672, 47.89963494]}, "geometry_name": "geom", "properties": {"guid": 11580, "id": 11580, "object_no": null, "object_name": null, "layer_type_id": 205, "valid_to": null, "address_no": null, "border_type": "solid", "border_width": null, "border_color": null, "border_opacity": null, "border_wellknown": "horizline", "fill_type": "color", "fill_color": "#d5a6bd", "fill_opacity": 1, "fill_wellknown": "horizline", "fill_shape_color": null, "fill_shape_width": null, "fill_shape_size": null, "fill_img_url": null, "marker_img_url": null}},{"type": "Feature", "id": "layer_data_map.fid--27e80436_1a098b908f8_7dbb", "geometry": {"type": "Point", "coordinates": [106.92452448, 47.92002662]}, "geometry_name": "geom", "properties": {"guid": 11581, "id": 11581, "object_no": null, "object_name": null, "layer_type_id": 205, "valid_to": null, "address_no": null, "border_type": "solid", "border_width": null, "border_color": null, "border_opacity": null, "border_wellknown": "horizline", "fill_type": "color", "fill_color": "#d5a6bd", "fill_opacity": 1, "fill_wellknown": "horizline", "fill_shape_color": null, "fill_shape_width": null, "fill_shape_size": null, "fill_img_url": null, "marker_img_url": null}},{"type": "Feature", "id": "layer_data_map.fid--27e80436_1a098b908f8_7dbc", "geometry": {"type": "Point", "coordinates": [106.91091751, 47.89966199]}, "geometry_name": "geom", "properties": {"guid": 11582, "id": 11582, "object_no": null, "object_name": null, "layer_type_id": 205, "valid_to": null, "address_no": null, "border_type": "solid", "border_width": null, "border_color": null, "border_opacity": null, "border_wellknown": "horizline", "fill_type": "color", "fill_color": "#d5a6bd", "fill_opacity": 1, "fill_wellknown": "horizline", "fill_shape_color": null, "fill_shape_width": null, "fill_shape_size": null, "fill_img_url": null, "marker_img_url": null}},{"type": "Feature", "id": "layer_data_map.fid--27e80436_1a098b908f8_7dbd", "geometry": {"type": "Point", "coordinates": [106.90769281, 47.91759087]}, "geometry_name": "geom", "properties": {"guid": 11583, "id": 11583, "object_no": null, "object_name": null, "layer_type_id": 205, "valid_to": null, "address_no": null, "border_type": "solid", "border_width": null, "border_color": null, "border_opacity": null, "border_wellknown": "horizline", "fill_type": "color", "fill_color": "#d5a6bd", "fill_opacity": 1, "fill_wellknown": "horizline", "fill_shape_color": null, "fill_shape_width": null, "fill_shape_size": null, "fill_img_url": null, "marker_img_url": null}},{"type": "Feature", "id": "layer_data_map.fid--27e80436_1a098b908f8_7dbe", "geometry": {"type": "Point", "coordinates": [106.91095524, 47.89941939]}, "geometry_name": "geom", "properties": {"guid": 11584, "id": 11584, "object_no": null, "object_name": null, "layer_type_id": 205, "valid_to": null, "address_no": null, "border_type": "solid", "border_width": null, "border_color": null, "border_opacity": null, "border_wellknown": "horizline", "fill_type": "color", "fill_color": "#d5a6bd", "fill_opacity": 1, "fill_wellknown": "horizline", "fill_shape_color": null, "fill_shape_width": null, "fill_shape_size": null, "fill_img_url": null, "marker_img_url": null}},{"type": "Feature", "id": "layer_data_map.fid--27e80436_1a098b908f8_7dbf", "geometry": {"type": "Point", "coordinates": [106.91095534, 47.89944129]}, "geometry_name": "geom", "properties": {"guid": 11585, "id": 11585, "object_no": null, "object_name": null, "layer_type_id": 205, "valid_to": null, "address_no": null, "border_type": "solid", "border_width": null, "border_color": null, "border_opacity": null, "border_wellknown": "horizline", "fill_type": "color", "fill_color": "#d5a6bd", "fill_opacity": 1, "fill_wellknown": "horizline", "fill_shape_color": null, "fill_shape_width": null, "fill_shape_size": null, "fill_img_url": null, "marker_img_url": null}},{"type": "Feature", "id": "layer_data_map.fid--27e80436_1a098b908f8_7dc0", "geometry": {"type": "Point", "coordinates": [106.91095568, 47.89946985]}, "geometry_name": "geom", "properties": {"guid": 11586, "id": 11586, "object_no": null, "object_name": null, "layer_type_id": 205, "valid_to": null, "address_no": null, "border_type": "solid", "border_width": null, "border_color": null, "border_opacity": null, "border_wellknown": "horizline", "fill_type": "color", "fill_color": "#d5a6bd", "fill_opacity": 1, "fill_wellknown": "horizline", "fill_shape_color": null, "fill_shape_width": null, "fill_shape_size": null, "fill_img_url": null, "marker_img_url": null}},{"type": "Feature", "id": "layer_data_map.fid--27e80436_1a098b908f8_7dc1", "geometry": {"type": "Point", "coordinates": [106.94824514, 47.9269388]}, "geometry_name": "geom", "properties": {"guid": 11587, "id": 11587, "object_no": null, "object_name": null, "layer_type_id": 205, "valid_to": null, "address_no": null, "border_type": "solid", "border_width": null, "border_color": null, "border_opacity": null, "border_wellknown": "horizline", "fill_type": "color", "fill_color": "#d5a6bd", "fill_opacity": 1, "fill_wellknown": "horizline", "fill_shape_color": null, "fill_shape_width": null, "fill_shape_size": null, "fill_img_url": null, "marker_img_url": null}},{"type": "Feature", "id": "layer_data_map.fid--27e80436_1a098b908f8_7dc2", "geometry": {"type": "Point", "coordinates": [107.43282794, 47.34974782]}, "geometry_name": "geom", "properties": {"guid": 11588, "id": 11588, "object_no": null, "object_name": null, "layer_type_id": 205, "valid_to": null, "address_no": null, "border_type": "solid", "border_width": null, "border_color": null, "border_opacity": null, "border_wellknown": "horizline", "fill_type": "color", "fill_color": "#d5a6bd", "fill_opacity": 1, "fill_wellknown": "horizline", "fill_shape_color": null, "fill_shape_width": null, "fill_shape_size": null, "fill_img_url": null, "marker_img_url": null}},{"type": "Feature", "id": "layer_data_map.fid--27e80436_1a098b908f8_7dc3", "geometry": {"type": "Point", "coordinates": [107.25499182, 47.76715091]}, "geometry_name": "geom", "properties": {"guid": 11589, "id": 11589, "object_no": null, "object_name": null, "layer_type_id": 205, "valid_to": null, "address_no": null, "border_type": "solid", "border_width": null, "border_color": null, "border_opacity": null, "border_wellknown": "horizline", "fill_type": "color", "fill_color": "#d5a6bd", "fill_opacity": 1, "fill_wellknown": "horizline", "fill_shape_color": null, "fill_shape_width": null, "fill_shape_size": null, "fill_img_url": null, "marker_img_url": null}},{"type": "Feature", "id": "layer_data_map.fid--27e80436_1a098b908f8_7dc4", "geometry": {"type": "Point", "coordinates": [106.92400086, 47.92043628]}, "geometry_name": "geom", "properties": {"guid": 11590, "id": 11590, "object_no": null, "object_name": null, "layer_type_id": 205, "valid_to": null, "address_no": null, "border_type": "solid", "border_width": null, "border_color": null, "border_opacity": null, "border_wellknown": "horizline", "fill_type": "color", "fill_color": "#d5a6bd", "fill_opacity": 1, "fill_wellknown": "horizline", "fill_shape_color": null, "fill_shape_width": null, "fill_shape_size": null, "fill_img_url": null, "marker_img_url": null}}]}