{"type":"FeatureCollection","features":[{"type": "Feature", "id": "layer_data_map.fid--27e80436_1a098b908f8_66cf", "geometry": {"type": "Polygon", "coordinates": [[[106.78633783, 47.94219155], [106.7893007, 47.94271168], [106.78963386, 47.9443275], [106.79062247, 47.94547107], [106.7923712, 47.94638088], [106.79392518, 47.94858562], [106.79464781, 47.95042469], [106.78410191, 47.95076461], [106.78279107, 47.94749951], [106.78581952, 47.94392028], [106.78612516, 47.94304705], [106.78634855, 47.94293385], [106.78648271, 47.94263945], [106.78617214, 47.94258069], [106.78633783, 47.94219155]]]}, "geometry_name": "geom", "properties": {"guid": 9178, "id": 9178, "object_no": null, "object_name": null, "layer_type_id": 232, "valid_to": null, "address_no": null, "border_type": "solid", "border_width": 0, "border_color": null, "border_opacity": null, "border_wellknown": "horizline", "fill_type": "color", "fill_color": "#7f6000", "fill_opacity": 0.7, "fill_wellknown": "horizline", "fill_shape_color": null, "fill_shape_width": null, "fill_shape_size": null, "fill_img_url": null, "marker_img_url": null}},{"type": "Feature", "id": "layer_data_map.fid--27e80436_1a098b908f8_66d0", "geometry": {"type": "Polygon", "coordinates": [[[106.79243276, 47.93731852], [106.79250987, 47.93752796], [106.79274838, 47.93752783], [106.79290899, 47.93861101], [106.79443803, 47.93856661], [106.79567843, 47.93813403], [106.79700976, 47.93842152], [106.79929016, 47.93912332], [106.80015648, 47.94122462], [106.79849079, 47.94184677], [106.79783011, 47.94349989], [106.79789317, 47.94406373], [106.79662132, 47.94525684], [106.7966386, 47.94552369], [106.7965827, 47.94585735], [106.79634077, 47.94608851], [106.79412133, 47.94671853], [106.7927575, 47.94692907], [106.7923712, 47.94638088], [106.79062247, 47.94547107], [106.78963386, 47.9443275], [106.7893007, 47.94271168], [106.78864188, 47.94261204], [106.78931244, 47.94095009], [106.78953261, 47.93934804], [106.79135138, 47.9372209], [106.79243276, 47.93731852]]]}, "geometry_name": "geom", "properties": {"guid": 9179, "id": 9179, "object_no": null, "object_name": null, "layer_type_id": 232, "valid_to": null, "address_no": null, "border_type": "solid", "border_width": 0, "border_color": null, "border_opacity": null, "border_wellknown": "horizline", "fill_type": "color", "fill_color": "#7f6000", "fill_opacity": 0.7, "fill_wellknown": "horizline", "fill_shape_color": null, "fill_shape_width": null, "fill_shape_size": null, "fill_img_url": null, "marker_img_url": null}},{"type": "Feature", "id": "layer_data_map.fid--27e80436_1a098b908f8_66d1", "geometry": {"type": "Polygon", "coordinates": [[[106.98602027, 47.95586033], [106.99246316, 47.95902592], [106.99074043, 47.96077055], [106.9860962, 47.95818321], [106.98538852, 47.95882594], [106.98489294, 47.95849732], [106.98555821, 47.95789049], [106.98484975, 47.95755197], [106.98353483, 47.95606546], [106.98602027, 47.95586033]]]}, "geometry_name": "geom", "properties": {"guid": 9180, "id": 9180, "object_no": null, "object_name": null, "layer_type_id": 232, "valid_to": null, "address_no": null, "border_type": "solid", "border_width": 0, "border_color": null, "border_opacity": null, "border_wellknown": "horizline", "fill_type": "color", "fill_color": "#7f6000", "fill_opacity": 0.7, "fill_wellknown": "horizline", "fill_shape_color": null, "fill_shape_width": null, "fill_shape_size": null, "fill_img_url": null, "marker_img_url": null}},{"type": "Feature", "id": "layer_data_map.fid--27e80436_1a098b908f8_66d2", "geometry": {"type": "Polygon", "coordinates": [[[106.68371447, 47.82502423], [106.68515583, 47.82547842], [106.68572373, 47.82663726], [106.68657405, 47.82832522], [106.68648428, 47.82916147], [106.68639191, 47.82946423], [106.6861543, 47.83006638], [106.68553137, 47.83144508], [106.68546904, 47.83150005], [106.68324628, 47.83108862], [106.68313551, 47.83106686], [106.68087035, 47.83063587], [106.6809257, 47.83049682], [106.68371447, 47.82502423]]]}, "geometry_name": "geom", "properties": {"guid": 9181, "id": 9181, "object_no": null, "object_name": null, "layer_type_id": 232, "valid_to": null, "address_no": null, "border_type": "solid", "border_width": 0, "border_color": null, "border_opacity": null, "border_wellknown": "horizline", "fill_type": "color", "fill_color": "#7f6000", "fill_opacity": 0.7, "fill_wellknown": "horizline", "fill_shape_color": null, "fill_shape_width": null, "fill_shape_size": null, "fill_img_url": null, "marker_img_url": null}}]}