{"type":"FeatureCollection","features":[{"type": "Feature", "id": "layer_data_map.fid--27e80436_1a098b908f8_7792", "geometry": {"type": "Point", "coordinates": [106.90231071, 47.93323053]}, "geometry_name": "geom", "properties": {"guid": 1542, "id": 1542, "object_no": null, "object_name": null, "layer_type_id": 209, "valid_to": null, "address_no": null, "border_type": "solid", "border_width": null, "border_color": null, "border_opacity": null, "border_wellknown": "horizline", "fill_type": "color", "fill_color": "#6a329f", "fill_opacity": 1, "fill_wellknown": "horizline", "fill_shape_color": null, "fill_shape_width": null, "fill_shape_size": null, "fill_img_url": null, "marker_img_url": null}},{"type": "Feature", "id": "layer_data_map.fid--27e80436_1a098b908f8_7793", "geometry": {"type": "Point", "coordinates": [106.89379032, 47.91658053]}, "geometry_name": "geom", "properties": {"guid": 1543, "id": 1543, "object_no": null, "object_name": null, "layer_type_id": 209, "valid_to": null, "address_no": null, "border_type": "solid", "border_width": null, "border_color": null, "border_opacity": null, "border_wellknown": "horizline", "fill_type": "color", "fill_color": "#6a329f", "fill_opacity": 1, "fill_wellknown": "horizline", "fill_shape_color": null, "fill_shape_width": null, "fill_shape_size": null, "fill_img_url": null, "marker_img_url": null}},{"type": "Feature", "id": "layer_data_map.fid--27e80436_1a098b908f8_7794", "geometry": {"type": "Point", "coordinates": [106.90534214, 47.92784784]}, "geometry_name": "geom", "properties": {"guid": 1544, "id": 1544, "object_no": null, "object_name": null, "layer_type_id": 209, "valid_to": null, "address_no": null, "border_type": "solid", "border_width": null, "border_color": null, "border_opacity": null, "border_wellknown": "horizline", "fill_type": "color", "fill_color": "#6a329f", "fill_opacity": 1, "fill_wellknown": "horizline", "fill_shape_color": null, "fill_shape_width": null, "fill_shape_size": null, "fill_img_url": null, "marker_img_url": null}},{"type": "Feature", "id": "layer_data_map.fid--27e80436_1a098b908f8_7795", "geometry": {"type": "Point", "coordinates": [106.88990034, 47.93364176]}, "geometry_name": "geom", "properties": {"guid": 1545, "id": 1545, "object_no": null, "object_name": null, "layer_type_id": 209, "valid_to": null, "address_no": null, "border_type": "solid", "border_width": null, "border_color": null, "border_opacity": null, "border_wellknown": "horizline", "fill_type": "color", "fill_color": "#6a329f", "fill_opacity": 1, "fill_wellknown": "horizline", "fill_shape_color": null, "fill_shape_width": null, "fill_shape_size": null, "fill_img_url": null, "marker_img_url": null}},{"type": "Feature", "id": "layer_data_map.fid--27e80436_1a098b908f8_7796", "geometry": {"type": "Point", "coordinates": [106.89820189, 47.94419685]}, "geometry_name": "geom", "properties": {"guid": 1546, "id": 1546, "object_no": null, "object_name": null, "layer_type_id": 209, "valid_to": null, "address_no": null, "border_type": "solid", "border_width": null, "border_color": null, "border_opacity": null, "border_wellknown": "horizline", "fill_type": "color", "fill_color": "#6a329f", "fill_opacity": 1, "fill_wellknown": "horizline", "fill_shape_color": null, "fill_shape_width": null, "fill_shape_size": null, "fill_img_url": null, "marker_img_url": null}},{"type": "Feature", "id": "layer_data_map.fid--27e80436_1a098b908f8_7797", "geometry": {"type": "Point", "coordinates": [106.91022267, 47.94760699]}, "geometry_name": "geom", "properties": {"guid": 1547, "id": 1547, "object_no": null, "object_name": null, "layer_type_id": 209, "valid_to": null, "address_no": null, "border_type": "solid", "border_width": null, "border_color": null, "border_opacity": null, "border_wellknown": "horizline", "fill_type": "color", "fill_color": "#6a329f", "fill_opacity": 1, "fill_wellknown": "horizline", "fill_shape_color": null, "fill_shape_width": null, "fill_shape_size": null, "fill_img_url": null, "marker_img_url": null}},{"type": "Feature", "id": "layer_data_map.fid--27e80436_1a098b908f8_7798", "geometry": {"type": "Point", "coordinates": [106.89271652, 47.94031218]}, "geometry_name": "geom", "properties": {"guid": 1548, "id": 1548, "object_no": null, "object_name": null, "layer_type_id": 209, "valid_to": null, "address_no": null, "border_type": "solid", "border_width": null, "border_color": null, "border_opacity": null, "border_wellknown": "horizline", "fill_type": "color", "fill_color": "#6a329f", "fill_opacity": 1, "fill_wellknown": "horizline", "fill_shape_color": null, "fill_shape_width": null, "fill_shape_size": null, "fill_img_url": null, "marker_img_url": null}},{"type": "Feature", "id": "layer_data_map.fid--27e80436_1a098b908f8_7799", "geometry": {"type": "Point", "coordinates": [106.91265727, 47.92771685]}, "geometry_name": "geom", "properties": {"guid": 1549, "id": 1549, "object_no": null, "object_name": null, "layer_type_id": 209, "valid_to": null, "address_no": null, "border_type": "solid", "border_width": null, "border_color": null, "border_opacity": null, "border_wellknown": "horizline", "fill_type": "color", "fill_color": "#6a329f", "fill_opacity": 1, "fill_wellknown": "horizline", "fill_shape_color": null, "fill_shape_width": null, "fill_shape_size": null, "fill_img_url": null, "marker_img_url": null}},{"type": "Feature", "id": "layer_data_map.fid--27e80436_1a098b908f8_779a", "geometry": {"type": "Point", "coordinates": [106.91448195, 47.92875156]}, "geometry_name": "geom", "properties": {"guid": 1550, "id": 1550, "object_no": null, "object_name": null, "layer_type_id": 209, "valid_to": null, "address_no": null, "border_type": "solid", "border_width": null, "border_color": null, "border_opacity": null, "border_wellknown": "horizline", "fill_type": "color", "fill_color": "#6a329f", "fill_opacity": 1, "fill_wellknown": "horizline", "fill_shape_color": null, "fill_shape_width": null, "fill_shape_size": null, "fill_img_url": null, "marker_img_url": null}},{"type": "Feature", "id": "layer_data_map.fid--27e80436_1a098b908f8_779b", "geometry": {"type": "Point", "coordinates": [106.81957486, 47.92543152]}, "geometry_name": "geom", "properties": {"guid": 1551, "id": 1551, "object_no": null, "object_name": null, "layer_type_id": 209, "valid_to": null, "address_no": null, "border_type": "solid", "border_width": null, "border_color": null, "border_opacity": null, "border_wellknown": "horizline", "fill_type": "color", "fill_color": "#6a329f", "fill_opacity": 1, "fill_wellknown": "horizline", "fill_shape_color": null, "fill_shape_width": null, "fill_shape_size": null, "fill_img_url": null, "marker_img_url": null}},{"type": "Feature", "id": "layer_data_map.fid--27e80436_1a098b908f8_779c", "geometry": {"type": "Point", "coordinates": [106.82679586, 47.92895637]}, "geometry_name": "geom", "properties": {"guid": 1552, "id": 1552, "object_no": null, "object_name": null, "layer_type_id": 209, "valid_to": null, "address_no": null, "border_type": "solid", "border_width": null, "border_color": null, "border_opacity": null, "border_wellknown": "horizline", "fill_type": "color", "fill_color": "#6a329f", "fill_opacity": 1, "fill_wellknown": "horizline", "fill_shape_color": null, "fill_shape_width": null, "fill_shape_size": null, "fill_img_url": null, "marker_img_url": null}},{"type": "Feature", "id": "layer_data_map.fid--27e80436_1a098b908f8_779d", "geometry": {"type": "Point", "coordinates": [106.81395774, 47.92932626]}, "geometry_name": "geom", "properties": {"guid": 1553, "id": 1553, "object_no": null, "object_name": null, "layer_type_id": 209, "valid_to": null, "address_no": null, "border_type": "solid", "border_width": null, "border_color": null, "border_opacity": null, "border_wellknown": "horizline", "fill_type": "color", "fill_color": "#6a329f", "fill_opacity": 1, "fill_wellknown": "horizline", "fill_shape_color": null, "fill_shape_width": null, "fill_shape_size": null, "fill_img_url": null, "marker_img_url": null}},{"type": "Feature", "id": "layer_data_map.fid--27e80436_1a098b908f8_779e", "geometry": {"type": "Point", "coordinates": [106.98364258, 47.94132841]}, "geometry_name": "geom", "properties": {"guid": 1554, "id": 1554, "object_no": null, "object_name": null, "layer_type_id": 209, "valid_to": null, "address_no": null, "border_type": "solid", "border_width": null, "border_color": null, "border_opacity": null, "border_wellknown": "horizline", "fill_type": "color", "fill_color": "#6a329f", "fill_opacity": 1, "fill_wellknown": "horizline", "fill_shape_color": null, "fill_shape_width": null, "fill_shape_size": null, "fill_img_url": null, "marker_img_url": null}},{"type": "Feature", "id": "layer_data_map.fid--27e80436_1a098b908f8_779f", "geometry": {"type": "Point", "coordinates": [106.92337546, 47.94813372]}, "geometry_name": "geom", "properties": {"guid": 1555, "id": 1555, "object_no": null, "object_name": null, "layer_type_id": 209, "valid_to": null, "address_no": null, "border_type": "solid", "border_width": null, "border_color": null, "border_opacity": null, "border_wellknown": "horizline", "fill_type": "color", "fill_color": "#6a329f", "fill_opacity": 1, "fill_wellknown": "horizline", "fill_shape_color": null, "fill_shape_width": null, "fill_shape_size": null, "fill_img_url": null, "marker_img_url": null}},{"type": "Feature", "id": "layer_data_map.fid--27e80436_1a098b908f8_77a0", "geometry": {"type": "Point", "coordinates": [106.87769756, 47.9391415]}, "geometry_name": "geom", "properties": {"guid": 1556, "id": 1556, "object_no": null, "object_name": null, "layer_type_id": 209, "valid_to": null, "address_no": null, "border_type": "solid", "border_width": null, "border_color": null, "border_opacity": null, "border_wellknown": "horizline", "fill_type": "color", "fill_color": "#6a329f", "fill_opacity": 1, "fill_wellknown": "horizline", "fill_shape_color": null, "fill_shape_width": null, "fill_shape_size": null, "fill_img_url": null, "marker_img_url": null}},{"type": "Feature", "id": "layer_data_map.fid--27e80436_1a098b908f8_77a1", "geometry": {"type": "Point", "coordinates": [106.86955412, 47.93730434]}, "geometry_name": "geom", "properties": {"guid": 1557, "id": 1557, "object_no": null, "object_name": null, "layer_type_id": 209, "valid_to": null, "address_no": null, "border_type": "solid", "border_width": null, "border_color": null, "border_opacity": null, "border_wellknown": "horizline", "fill_type": "color", "fill_color": "#6a329f", "fill_opacity": 1, "fill_wellknown": "horizline", "fill_shape_color": null, "fill_shape_width": null, "fill_shape_size": null, "fill_img_url": null, "marker_img_url": null}},{"type": "Feature", "id": "layer_data_map.fid--27e80436_1a098b908f8_77a2", "geometry": {"type": "Point", "coordinates": [106.84406723, 47.93031842]}, "geometry_name": "geom", "properties": {"guid": 1558, "id": 1558, "object_no": null, "object_name": null, "layer_type_id": 209, "valid_to": null, "address_no": null, "border_type": "solid", "border_width": null, "border_color": null, "border_opacity": null, "border_wellknown": "horizline", "fill_type": "color", "fill_color": "#6a329f", "fill_opacity": 1, "fill_wellknown": "horizline", "fill_shape_color": null, "fill_shape_width": null, "fill_shape_size": null, "fill_img_url": null, "marker_img_url": null}},{"type": "Feature", "id": "layer_data_map.fid--27e80436_1a098b908f8_77a3", "geometry": {"type": "Point", "coordinates": [106.91460599, 47.9475241]}, "geometry_name": "geom", "properties": {"guid": 1559, "id": 1559, "object_no": null, "object_name": null, "layer_type_id": 209, "valid_to": null, "address_no": null, "border_type": "solid", "border_width": null, "border_color": null, "border_opacity": null, "border_wellknown": "horizline", "fill_type": "color", "fill_color": "#6a329f", "fill_opacity": 1, "fill_wellknown": "horizline", "fill_shape_color": null, "fill_shape_width": null, "fill_shape_size": null, "fill_img_url": null, "marker_img_url": null}},{"type": "Feature", "id": "layer_data_map.fid--27e80436_1a098b908f8_77a4", "geometry": {"type": "Point", "coordinates": [106.98307751, 47.93198875]}, "geometry_name": "geom", "properties": {"guid": 1560, "id": 1560, "object_no": null, "object_name": null, "layer_type_id": 209, "valid_to": null, "address_no": null, "border_type": "solid", "border_width": null, "border_color": null, "border_opacity": null, "border_wellknown": "horizline", "fill_type": "color", "fill_color": "#6a329f", "fill_opacity": 1, "fill_wellknown": "horizline", "fill_shape_color": null, "fill_shape_width": null, "fill_shape_size": null, "fill_img_url": null, "marker_img_url": null}},{"type": "Feature", "id": "layer_data_map.fid--27e80436_1a098b908f8_77a5", "geometry": {"type": "Point", "coordinates": [106.99997444, 47.94825465]}, "geometry_name": "geom", "properties": {"guid": 1561, "id": 1561, "object_no": null, "object_name": null, "layer_type_id": 209, "valid_to": null, "address_no": null, "border_type": "solid", "border_width": null, "border_color": null, "border_opacity": null, "border_wellknown": "horizline", "fill_type": "color", "fill_color": "#6a329f", "fill_opacity": 1, "fill_wellknown": "horizline", "fill_shape_color": null, "fill_shape_width": null, "fill_shape_size": null, "fill_img_url": null, "marker_img_url": null}},{"type": "Feature", "id": "layer_data_map.fid--27e80436_1a098b908f8_77a6", "geometry": {"type": "Point", "coordinates": [106.98061429, 47.94392555]}, "geometry_name": "geom", "properties": {"guid": 1562, "id": 1562, "object_no": null, "object_name": null, "layer_type_id": 209, "valid_to": null, "address_no": null, "border_type": "solid", "border_width": null, "border_color": null, "border_opacity": null, "border_wellknown": "horizline", "fill_type": "color", "fill_color": "#6a329f", "fill_opacity": 1, "fill_wellknown": "horizline", "fill_shape_color": null, "fill_shape_width": null, "fill_shape_size": null, "fill_img_url": null, "marker_img_url": null}},{"type": "Feature", "id": "layer_data_map.fid--27e80436_1a098b908f8_77a7", "geometry": {"type": "Point", "coordinates": [106.9031288, 47.94566911]}, "geometry_name": "geom", "properties": {"guid": 1563, "id": 1563, "object_no": null, "object_name": null, "layer_type_id": 209, "valid_to": null, "address_no": null, "border_type": "solid", "border_width": null, "border_color": null, "border_opacity": null, "border_wellknown": "horizline", "fill_type": "color", "fill_color": "#6a329f", "fill_opacity": 1, "fill_wellknown": "horizline", "fill_shape_color": null, "fill_shape_width": null, "fill_shape_size": null, "fill_img_url": null, "marker_img_url": null}},{"type": "Feature", "id": "layer_data_map.fid--27e80436_1a098b908f8_77a8", "geometry": {"type": "Point", "coordinates": [106.90419347, 47.94685908]}, "geometry_name": "geom", "properties": {"guid": 1564, "id": 1564, "object_no": null, "object_name": null, "layer_type_id": 209, "valid_to": null, "address_no": null, "border_type": "solid", "border_width": null, "border_color": null, "border_opacity": null, "border_wellknown": "horizline", "fill_type": "color", "fill_color": "#6a329f", "fill_opacity": 1, "fill_wellknown": "horizline", "fill_shape_color": null, "fill_shape_width": null, "fill_shape_size": null, "fill_img_url": null, "marker_img_url": null}},{"type": "Feature", "id": "layer_data_map.fid--27e80436_1a098b908f8_77a9", "geometry": {"type": "Point", "coordinates": [106.90382888, 47.94539362]}, "geometry_name": "geom", "properties": {"guid": 1565, "id": 1565, "object_no": null, "object_name": null, "layer_type_id": 209, "valid_to": null, "address_no": null, "border_type": "solid", "border_width": null, "border_color": null, "border_opacity": null, "border_wellknown": "horizline", "fill_type": "color", "fill_color": "#6a329f", "fill_opacity": 1, "fill_wellknown": "horizline", "fill_shape_color": null, "fill_shape_width": null, "fill_shape_size": null, "fill_img_url": null, "marker_img_url": null}},{"type": "Feature", "id": "layer_data_map.fid--27e80436_1a098b908f8_77aa", "geometry": {"type": "Point", "coordinates": [106.90936562, 47.94702823]}, "geometry_name": "geom", "properties": {"guid": 1566, "id": 1566, "object_no": null, "object_name": null, "layer_type_id": 209, "valid_to": null, "address_no": null, "border_type": "solid", "border_width": null, "border_color": null, "border_opacity": null, "border_wellknown": "horizline", "fill_type": "color", "fill_color": "#6a329f", "fill_opacity": 1, "fill_wellknown": "horizline", "fill_shape_color": null, "fill_shape_width": null, "fill_shape_size": null, "fill_img_url": null, "marker_img_url": null}},{"type": "Feature", "id": "layer_data_map.fid--27e80436_1a098b908f8_77ab", "geometry": {"type": "Point", "coordinates": [106.92820747, 47.92784769]}, "geometry_name": "geom", "properties": {"guid": 1567, "id": 1567, "object_no": null, "object_name": null, "layer_type_id": 209, "valid_to": null, "address_no": null, "border_type": "solid", "border_width": null, "border_color": null, "border_opacity": null, "border_wellknown": "horizline", "fill_type": "color", "fill_color": "#6a329f", "fill_opacity": 1, "fill_wellknown": "horizline", "fill_shape_color": null, "fill_shape_width": null, "fill_shape_size": null, "fill_img_url": null, "marker_img_url": null}},{"type": "Feature", "id": "layer_data_map.fid--27e80436_1a098b908f8_77ac", "geometry": {"type": "Point", "coordinates": [106.9383849, 47.92702009]}, "geometry_name": "geom", "properties": {"guid": 1568, "id": 1568, "object_no": null, "object_name": null, "layer_type_id": 209, "valid_to": null, "address_no": null, "border_type": "solid", "border_width": null, "border_color": null, "border_opacity": null, "border_wellknown": "horizline", "fill_type": "color", "fill_color": "#6a329f", "fill_opacity": 1, "fill_wellknown": "horizline", "fill_shape_color": null, "fill_shape_width": null, "fill_shape_size": null, "fill_img_url": null, "marker_img_url": null}},{"type": "Feature", "id": "layer_data_map.fid--27e80436_1a098b908f8_77ad", "geometry": {"type": "Point", "coordinates": [106.93384674, 47.92744937]}, "geometry_name": "geom", "properties": {"guid": 1569, "id": 1569, "object_no": null, "object_name": null, "layer_type_id": 209, "valid_to": null, "address_no": null, "border_type": "solid", "border_width": null, "border_color": null, "border_opacity": null, "border_wellknown": "horizline", "fill_type": "color", "fill_color": "#6a329f", "fill_opacity": 1, "fill_wellknown": "horizline", "fill_shape_color": null, "fill_shape_width": null, "fill_shape_size": null, "fill_img_url": null, "marker_img_url": null}},{"type": "Feature", "id": "layer_data_map.fid--27e80436_1a098b908f8_77ae", "geometry": {"type": "Point", "coordinates": [106.94584353, 47.93729495]}, "geometry_name": "geom", "properties": {"guid": 1570, "id": 1570, "object_no": null, "object_name": null, "layer_type_id": 209, "valid_to": null, "address_no": null, "border_type": "solid", "border_width": null, "border_color": null, "border_opacity": null, "border_wellknown": "horizline", "fill_type": "color", "fill_color": "#6a329f", "fill_opacity": 1, "fill_wellknown": "horizline", "fill_shape_color": null, "fill_shape_width": null, "fill_shape_size": null, "fill_img_url": null, "marker_img_url": null}},{"type": "Feature", "id": "layer_data_map.fid--27e80436_1a098b908f8_77af", "geometry": {"type": "Point", "coordinates": [106.94354649, 47.94559951]}, "geometry_name": "geom", "properties": {"guid": 1571, "id": 1571, "object_no": null, "object_name": null, "layer_type_id": 209, "valid_to": null, "address_no": null, "border_type": "solid", "border_width": null, "border_color": null, "border_opacity": null, "border_wellknown": "horizline", "fill_type": "color", "fill_color": "#6a329f", "fill_opacity": 1, "fill_wellknown": "horizline", "fill_shape_color": null, "fill_shape_width": null, "fill_shape_size": null, "fill_img_url": null, "marker_img_url": null}},{"type": "Feature", "id": "layer_data_map.fid--27e80436_1a098b908f8_77b0", "geometry": {"type": "Point", "coordinates": [106.93804815, 47.94792752]}, "geometry_name": "geom", "properties": {"guid": 1572, "id": 1572, "object_no": null, "object_name": null, "layer_type_id": 209, "valid_to": null, "address_no": null, "border_type": "solid", "border_width": null, "border_color": null, "border_opacity": null, "border_wellknown": "horizline", "fill_type": "color", "fill_color": "#6a329f", "fill_opacity": 1, "fill_wellknown": "horizline", "fill_shape_color": null, "fill_shape_width": null, "fill_shape_size": null, "fill_img_url": null, "marker_img_url": null}},{"type": "Feature", "id": "layer_data_map.fid--27e80436_1a098b908f8_77b1", "geometry": {"type": "Point", "coordinates": [106.90159118, 47.94639665]}, "geometry_name": "geom", "properties": {"guid": 1573, "id": 1573, "object_no": null, "object_name": null, "layer_type_id": 209, "valid_to": null, "address_no": null, "border_type": "solid", "border_width": null, "border_color": null, "border_opacity": null, "border_wellknown": "horizline", "fill_type": "color", "fill_color": "#6a329f", "fill_opacity": 1, "fill_wellknown": "horizline", "fill_shape_color": null, "fill_shape_width": null, "fill_shape_size": null, "fill_img_url": null, "marker_img_url": null}},{"type": "Feature", "id": "layer_data_map.fid--27e80436_1a098b908f8_77b2", "geometry": {"type": "Point", "coordinates": [106.91530899, 47.92791602]}, "geometry_name": "geom", "properties": {"guid": 1574, "id": 1574, "object_no": null, "object_name": null, "layer_type_id": 209, "valid_to": null, "address_no": null, "border_type": "solid", "border_width": null, "border_color": null, "border_opacity": null, "border_wellknown": "horizline", "fill_type": "color", "fill_color": "#6a329f", "fill_opacity": 1, "fill_wellknown": "horizline", "fill_shape_color": null, "fill_shape_width": null, "fill_shape_size": null, "fill_img_url": null, "marker_img_url": null}},{"type": "Feature", "id": "layer_data_map.fid--27e80436_1a098b908f8_77b3", "geometry": {"type": "Point", "coordinates": [106.91438144, 47.9281336]}, "geometry_name": "geom", "properties": {"guid": 1575, "id": 1575, "object_no": null, "object_name": null, "layer_type_id": 209, "valid_to": null, "address_no": null, "border_type": "solid", "border_width": null, "border_color": null, "border_opacity": null, "border_wellknown": "horizline", "fill_type": "color", "fill_color": "#6a329f", "fill_opacity": 1, "fill_wellknown": "horizline", "fill_shape_color": null, "fill_shape_width": null, "fill_shape_size": null, "fill_img_url": null, "marker_img_url": null}},{"type": "Feature", "id": "layer_data_map.fid--27e80436_1a098b908f8_77b4", "geometry": {"type": "Point", "coordinates": [106.90862341, 47.9292413]}, "geometry_name": "geom", "properties": {"guid": 1576, "id": 1576, "object_no": null, "object_name": null, "layer_type_id": 209, "valid_to": null, "address_no": null, "border_type": "solid", "border_width": null, "border_color": null, "border_opacity": null, "border_wellknown": "horizline", "fill_type": "color", "fill_color": "#6a329f", "fill_opacity": 1, "fill_wellknown": "horizline", "fill_shape_color": null, "fill_shape_width": null, "fill_shape_size": null, "fill_img_url": null, "marker_img_url": null}},{"type": "Feature", "id": "layer_data_map.fid--27e80436_1a098b908f8_77b5", "geometry": {"type": "Point", "coordinates": [106.87454023, 47.93204711]}, "geometry_name": "geom", "properties": {"guid": 1577, "id": 1577, "object_no": null, "object_name": null, "layer_type_id": 209, "valid_to": null, "address_no": null, "border_type": "solid", "border_width": null, "border_color": null, "border_opacity": null, "border_wellknown": "horizline", "fill_type": "color", "fill_color": "#6a329f", "fill_opacity": 1, "fill_wellknown": "horizline", "fill_shape_color": null, "fill_shape_width": null, "fill_shape_size": null, "fill_img_url": null, "marker_img_url": null}},{"type": "Feature", "id": "layer_data_map.fid--27e80436_1a098b908f8_77b6", "geometry": {"type": "Point", "coordinates": [106.87864908, 47.92865352]}, "geometry_name": "geom", "properties": {"guid": 1578, "id": 1578, "object_no": null, "object_name": null, "layer_type_id": 209, "valid_to": null, "address_no": null, "border_type": "solid", "border_width": null, "border_color": null, "border_opacity": null, "border_wellknown": "horizline", "fill_type": "color", "fill_color": "#6a329f", "fill_opacity": 1, "fill_wellknown": "horizline", "fill_shape_color": null, "fill_shape_width": null, "fill_shape_size": null, "fill_img_url": null, "marker_img_url": null}},{"type": "Feature", "id": "layer_data_map.fid--27e80436_1a098b908f8_77b7", "geometry": {"type": "Point", "coordinates": [106.87313476, 47.93341864]}, "geometry_name": "geom", "properties": {"guid": 1579, "id": 1579, "object_no": null, "object_name": null, "layer_type_id": 209, "valid_to": null, "address_no": null, "border_type": "solid", "border_width": null, "border_color": null, "border_opacity": null, "border_wellknown": "horizline", "fill_type": "color", "fill_color": "#6a329f", "fill_opacity": 1, "fill_wellknown": "horizline", "fill_shape_color": null, "fill_shape_width": null, "fill_shape_size": null, "fill_img_url": null, "marker_img_url": null}},{"type": "Feature", "id": "layer_data_map.fid--27e80436_1a098b908f8_77b8", "geometry": {"type": "Point", "coordinates": [106.86055609, 47.93265449]}, "geometry_name": "geom", "properties": {"guid": 1580, "id": 1580, "object_no": null, "object_name": null, "layer_type_id": 209, "valid_to": null, "address_no": null, "border_type": "solid", "border_width": null, "border_color": null, "border_opacity": null, "border_wellknown": "horizline", "fill_type": "color", "fill_color": "#6a329f", "fill_opacity": 1, "fill_wellknown": "horizline", "fill_shape_color": null, "fill_shape_width": null, "fill_shape_size": null, "fill_img_url": null, "marker_img_url": null}},{"type": "Feature", "id": "layer_data_map.fid--27e80436_1a098b908f8_77b9", "geometry": {"type": "Point", "coordinates": [106.85795297, 47.93760525]}, "geometry_name": "geom", "properties": {"guid": 1581, "id": 1581, "object_no": null, "object_name": null, "layer_type_id": 209, "valid_to": null, "address_no": null, "border_type": "solid", "border_width": null, "border_color": null, "border_opacity": null, "border_wellknown": "horizline", "fill_type": "color", "fill_color": "#6a329f", "fill_opacity": 1, "fill_wellknown": "horizline", "fill_shape_color": null, "fill_shape_width": null, "fill_shape_size": null, "fill_img_url": null, "marker_img_url": null}},{"type": "Feature", "id": "layer_data_map.fid--27e80436_1a098b908f8_77ba", "geometry": {"type": "Point", "coordinates": [106.86666785, 47.94191918]}, "geometry_name": "geom", "properties": {"guid": 1582, "id": 1582, "object_no": null, "object_name": null, "layer_type_id": 209, "valid_to": null, "address_no": null, "border_type": "solid", "border_width": null, "border_color": null, "border_opacity": null, "border_wellknown": "horizline", "fill_type": "color", "fill_color": "#6a329f", "fill_opacity": 1, "fill_wellknown": "horizline", "fill_shape_color": null, "fill_shape_width": null, "fill_shape_size": null, "fill_img_url": null, "marker_img_url": null}},{"type": "Feature", "id": "layer_data_map.fid--27e80436_1a098b908f8_77bb", "geometry": {"type": "Point", "coordinates": [106.88784443, 47.9459849]}, "geometry_name": "geom", "properties": {"guid": 1583, "id": 1583, "object_no": null, "object_name": null, "layer_type_id": 209, "valid_to": null, "address_no": null, "border_type": "solid", "border_width": null, "border_color": null, "border_opacity": null, "border_wellknown": "horizline", "fill_type": "color", "fill_color": "#6a329f", "fill_opacity": 1, "fill_wellknown": "horizline", "fill_shape_color": null, "fill_shape_width": null, "fill_shape_size": null, "fill_img_url": null, "marker_img_url": null}},{"type": "Feature", "id": "layer_data_map.fid--27e80436_1a098b908f8_77bc", "geometry": {"type": "Point", "coordinates": [106.89237545, 47.94741582]}, "geometry_name": "geom", "properties": {"guid": 1584, "id": 1584, "object_no": null, "object_name": null, "layer_type_id": 209, "valid_to": null, "address_no": null, "border_type": "solid", "border_width": null, "border_color": null, "border_opacity": null, "border_wellknown": "horizline", "fill_type": "color", "fill_color": "#6a329f", "fill_opacity": 1, "fill_wellknown": "horizline", "fill_shape_color": null, "fill_shape_width": null, "fill_shape_size": null, "fill_img_url": null, "marker_img_url": null}},{"type": "Feature", "id": "layer_data_map.fid--27e80436_1a098b908f8_77bd", "geometry": {"type": "Point", "coordinates": [106.89109019, 47.94310123]}, "geometry_name": "geom", "properties": {"guid": 1585, "id": 1585, "object_no": null, "object_name": null, "layer_type_id": 209, "valid_to": null, "address_no": null, "border_type": "solid", "border_width": null, "border_color": null, "border_opacity": null, "border_wellknown": "horizline", "fill_type": "color", "fill_color": "#6a329f", "fill_opacity": 1, "fill_wellknown": "horizline", "fill_shape_color": null, "fill_shape_width": null, "fill_shape_size": null, "fill_img_url": null, "marker_img_url": null}},{"type": "Feature", "id": "layer_data_map.fid--27e80436_1a098b908f8_77be", "geometry": {"type": "Point", "coordinates": [106.92826149, 47.94923215]}, "geometry_name": "geom", "properties": {"guid": 1586, "id": 1586, "object_no": null, "object_name": null, "layer_type_id": 209, "valid_to": null, "address_no": null, "border_type": "solid", "border_width": null, "border_color": null, "border_opacity": null, "border_wellknown": "horizline", "fill_type": "color", "fill_color": "#6a329f", "fill_opacity": 1, "fill_wellknown": "horizline", "fill_shape_color": null, "fill_shape_width": null, "fill_shape_size": null, "fill_img_url": null, "marker_img_url": null}},{"type": "Feature", "id": "layer_data_map.fid--27e80436_1a098b908f8_77bf", "geometry": {"type": "Point", "coordinates": [106.93644302, 47.94795789]}, "geometry_name": "geom", "properties": {"guid": 1587, "id": 1587, "object_no": null, "object_name": null, "layer_type_id": 209, "valid_to": null, "address_no": null, "border_type": "solid", "border_width": null, "border_color": null, "border_opacity": null, "border_wellknown": "horizline", "fill_type": "color", "fill_color": "#6a329f", "fill_opacity": 1, "fill_wellknown": "horizline", "fill_shape_color": null, "fill_shape_width": null, "fill_shape_size": null, "fill_img_url": null, "marker_img_url": null}},{"type": "Feature", "id": "layer_data_map.fid--27e80436_1a098b908f8_77c0", "geometry": {"type": "Point", "coordinates": [106.93821392, 47.94728255]}, "geometry_name": "geom", "properties": {"guid": 1588, "id": 1588, "object_no": null, "object_name": null, "layer_type_id": 209, "valid_to": null, "address_no": null, "border_type": "solid", "border_width": null, "border_color": null, "border_opacity": null, "border_wellknown": "horizline", "fill_type": "color", "fill_color": "#6a329f", "fill_opacity": 1, "fill_wellknown": "horizline", "fill_shape_color": null, "fill_shape_width": null, "fill_shape_size": null, "fill_img_url": null, "marker_img_url": null}},{"type": "Feature", "id": "layer_data_map.fid--27e80436_1a098b908f8_77c1", "geometry": {"type": "Point", "coordinates": [106.95125431, 47.94335298]}, "geometry_name": "geom", "properties": {"guid": 1589, "id": 1589, "object_no": null, "object_name": null, "layer_type_id": 209, "valid_to": null, "address_no": null, "border_type": "solid", "border_width": null, "border_color": null, "border_opacity": null, "border_wellknown": "horizline", "fill_type": "color", "fill_color": "#6a329f", "fill_opacity": 1, "fill_wellknown": "horizline", "fill_shape_color": null, "fill_shape_width": null, "fill_shape_size": null, "fill_img_url": null, "marker_img_url": null}},{"type": "Feature", "id": "layer_data_map.fid--27e80436_1a098b908f8_77c2", "geometry": {"type": "Point", "coordinates": [106.96664967, 47.94280072]}, "geometry_name": "geom", "properties": {"guid": 1590, "id": 1590, "object_no": null, "object_name": null, "layer_type_id": 209, "valid_to": null, "address_no": null, "border_type": "solid", "border_width": null, "border_color": null, "border_opacity": null, "border_wellknown": "horizline", "fill_type": "color", "fill_color": "#6a329f", "fill_opacity": 1, "fill_wellknown": "horizline", "fill_shape_color": null, "fill_shape_width": null, "fill_shape_size": null, "fill_img_url": null, "marker_img_url": null}},{"type": "Feature", "id": "layer_data_map.fid--27e80436_1a098b908f8_77c3", "geometry": {"type": "Point", "coordinates": [106.98703628, 47.94262611]}, "geometry_name": "geom", "properties": {"guid": 1591, "id": 1591, "object_no": null, "object_name": null, "layer_type_id": 209, "valid_to": null, "address_no": null, "border_type": "solid", "border_width": null, "border_color": null, "border_opacity": null, "border_wellknown": "horizline", "fill_type": "color", "fill_color": "#6a329f", "fill_opacity": 1, "fill_wellknown": "horizline", "fill_shape_color": null, "fill_shape_width": null, "fill_shape_size": null, "fill_img_url": null, "marker_img_url": null}},{"type": "Feature", "id": "layer_data_map.fid--27e80436_1a098b908f8_77c4", "geometry": {"type": "Point", "coordinates": [106.97726475, 47.93518508]}, "geometry_name": "geom", "properties": {"guid": 1592, "id": 1592, "object_no": null, "object_name": null, "layer_type_id": 209, "valid_to": null, "address_no": null, "border_type": "solid", "border_width": null, "border_color": null, "border_opacity": null, "border_wellknown": "horizline", "fill_type": "color", "fill_color": "#6a329f", "fill_opacity": 1, "fill_wellknown": "horizline", "fill_shape_color": null, "fill_shape_width": null, "fill_shape_size": null, "fill_img_url": null, "marker_img_url": null}},{"type": "Feature", "id": "layer_data_map.fid--27e80436_1a098b908f8_77c5", "geometry": {"type": "Point", "coordinates": [106.96532897, 47.93613101]}, "geometry_name": "geom", "properties": {"guid": 1593, "id": 1593, "object_no": null, "object_name": null, "layer_type_id": 209, "valid_to": null, "address_no": null, "border_type": "solid", "border_width": null, "border_color": null, "border_opacity": null, "border_wellknown": "horizline", "fill_type": "color", "fill_color": "#6a329f", "fill_opacity": 1, "fill_wellknown": "horizline", "fill_shape_color": null, "fill_shape_width": null, "fill_shape_size": null, "fill_img_url": null, "marker_img_url": null}},{"type": "Feature", "id": "layer_data_map.fid--27e80436_1a098b908f8_77c6", "geometry": {"type": "Point", "coordinates": [106.94410247, 47.93764506]}, "geometry_name": "geom", "properties": {"guid": 1594, "id": 1594, "object_no": null, "object_name": null, "layer_type_id": 209, "valid_to": null, "address_no": null, "border_type": "solid", "border_width": null, "border_color": null, "border_opacity": null, "border_wellknown": "horizline", "fill_type": "color", "fill_color": "#6a329f", "fill_opacity": 1, "fill_wellknown": "horizline", "fill_shape_color": null, "fill_shape_width": null, "fill_shape_size": null, "fill_img_url": null, "marker_img_url": null}},{"type": "Feature", "id": "layer_data_map.fid--27e80436_1a098b908f8_77c7", "geometry": {"type": "Point", "coordinates": [106.95438753, 47.92724963]}, "geometry_name": "geom", "properties": {"guid": 1595, "id": 1595, "object_no": null, "object_name": null, "layer_type_id": 209, "valid_to": null, "address_no": null, "border_type": "solid", "border_width": null, "border_color": null, "border_opacity": null, "border_wellknown": "horizline", "fill_type": "color", "fill_color": "#6a329f", "fill_opacity": 1, "fill_wellknown": "horizline", "fill_shape_color": null, "fill_shape_width": null, "fill_shape_size": null, "fill_img_url": null, "marker_img_url": null}},{"type": "Feature", "id": "layer_data_map.fid--27e80436_1a098b908f8_77c8", "geometry": {"type": "Point", "coordinates": [106.91306537, 47.92520523]}, "geometry_name": "geom", "properties": {"guid": 1596, "id": 1596, "object_no": null, "object_name": null, "layer_type_id": 209, "valid_to": null, "address_no": null, "border_type": "solid", "border_width": null, "border_color": null, "border_opacity": null, "border_wellknown": "horizline", "fill_type": "color", "fill_color": "#6a329f", "fill_opacity": 1, "fill_wellknown": "horizline", "fill_shape_color": null, "fill_shape_width": null, "fill_shape_size": null, "fill_img_url": null, "marker_img_url": null}},{"type": "Feature", "id": "layer_data_map.fid--27e80436_1a098b908f8_77c9", "geometry": {"type": "Point", "coordinates": [106.88710645, 47.91536705]}, "geometry_name": "geom", "properties": {"guid": 1597, "id": 1597, "object_no": null, "object_name": null, "layer_type_id": 209, "valid_to": null, "address_no": null, "border_type": "solid", "border_width": null, "border_color": null, "border_opacity": null, "border_wellknown": "horizline", "fill_type": "color", "fill_color": "#6a329f", "fill_opacity": 1, "fill_wellknown": "horizline", "fill_shape_color": null, "fill_shape_width": null, "fill_shape_size": null, "fill_img_url": null, "marker_img_url": null}},{"type": "Feature", "id": "layer_data_map.fid--27e80436_1a098b908f8_77ca", "geometry": {"type": "Point", "coordinates": [106.88999214, 47.91677801]}, "geometry_name": "geom", "properties": {"guid": 1598, "id": 1598, "object_no": null, "object_name": null, "layer_type_id": 209, "valid_to": null, "address_no": null, "border_type": "solid", "border_width": null, "border_color": null, "border_opacity": null, "border_wellknown": "horizline", "fill_type": "color", "fill_color": "#6a329f", "fill_opacity": 1, "fill_wellknown": "horizline", "fill_shape_color": null, "fill_shape_width": null, "fill_shape_size": null, "fill_img_url": null, "marker_img_url": null}},{"type": "Feature", "id": "layer_data_map.fid--27e80436_1a098b908f8_77cb", "geometry": {"type": "Point", "coordinates": [106.87765989, 47.93956249]}, "geometry_name": "geom", "properties": {"guid": 1599, "id": 1599, "object_no": null, "object_name": null, "layer_type_id": 209, "valid_to": null, "address_no": null, "border_type": "solid", "border_width": null, "border_color": null, "border_opacity": null, "border_wellknown": "horizline", "fill_type": "color", "fill_color": "#6a329f", "fill_opacity": 1, "fill_wellknown": "horizline", "fill_shape_color": null, "fill_shape_width": null, "fill_shape_size": null, "fill_img_url": null, "marker_img_url": null}},{"type": "Feature", "id": "layer_data_map.fid--27e80436_1a098b908f8_77cc", "geometry": {"type": "Point", "coordinates": [106.93767669, 47.94742167]}, "geometry_name": "geom", "properties": {"guid": 1600, "id": 1600, "object_no": null, "object_name": null, "layer_type_id": 209, "valid_to": null, "address_no": null, "border_type": "solid", "border_width": null, "border_color": null, "border_opacity": null, "border_wellknown": "horizline", "fill_type": "color", "fill_color": "#6a329f", "fill_opacity": 1, "fill_wellknown": "horizline", "fill_shape_color": null, "fill_shape_width": null, "fill_shape_size": null, "fill_img_url": null, "marker_img_url": null}},{"type": "Feature", "id": "layer_data_map.fid--27e80436_1a098b908f8_77cd", "geometry": {"type": "Point", "coordinates": [106.9364859, 47.94920038]}, "geometry_name": "geom", "properties": {"guid": 1601, "id": 1601, "object_no": null, "object_name": null, "layer_type_id": 209, "valid_to": null, "address_no": null, "border_type": "solid", "border_width": null, "border_color": null, "border_opacity": null, "border_wellknown": "horizline", "fill_type": "color", "fill_color": "#6a329f", "fill_opacity": 1, "fill_wellknown": "horizline", "fill_shape_color": null, "fill_shape_width": null, "fill_shape_size": null, "fill_img_url": null, "marker_img_url": null}},{"type": "Feature", "id": "layer_data_map.fid--27e80436_1a098b908f8_77ce", "geometry": {"type": "Point", "coordinates": [106.91712489, 47.95907005]}, "geometry_name": "geom", "properties": {"guid": 1602, "id": 1602, "object_no": null, "object_name": null, "layer_type_id": 209, "valid_to": null, "address_no": null, "border_type": "solid", "border_width": null, "border_color": null, "border_opacity": null, "border_wellknown": "horizline", "fill_type": "color", "fill_color": "#6a329f", "fill_opacity": 1, "fill_wellknown": "horizline", "fill_shape_color": null, "fill_shape_width": null, "fill_shape_size": null, "fill_img_url": null, "marker_img_url": null}},{"type": "Feature", "id": "layer_data_map.fid--27e80436_1a098b908f8_77cf", "geometry": {"type": "Point", "coordinates": [106.91653295, 47.96136568]}, "geometry_name": "geom", "properties": {"guid": 1603, "id": 1603, "object_no": null, "object_name": null, "layer_type_id": 209, "valid_to": null, "address_no": null, "border_type": "solid", "border_width": null, "border_color": null, "border_opacity": null, "border_wellknown": "horizline", "fill_type": "color", "fill_color": "#6a329f", "fill_opacity": 1, "fill_wellknown": "horizline", "fill_shape_color": null, "fill_shape_width": null, "fill_shape_size": null, "fill_img_url": null, "marker_img_url": null}},{"type": "Feature", "id": "layer_data_map.fid--27e80436_1a098b908f8_77d0", "geometry": {"type": "Point", "coordinates": [106.91507475, 47.96871416]}, "geometry_name": "geom", "properties": {"guid": 1604, "id": 1604, "object_no": null, "object_name": null, "layer_type_id": 209, "valid_to": null, "address_no": null, "border_type": "solid", "border_width": null, "border_color": null, "border_opacity": null, "border_wellknown": "horizline", "fill_type": "color", "fill_color": "#6a329f", "fill_opacity": 1, "fill_wellknown": "horizline", "fill_shape_color": null, "fill_shape_width": null, "fill_shape_size": null, "fill_img_url": null, "marker_img_url": null}},{"type": "Feature", "id": "layer_data_map.fid--27e80436_1a098b908f8_77d1", "geometry": {"type": "Point", "coordinates": [106.92446333, 48.0015815]}, "geometry_name": "geom", "properties": {"guid": 1605, "id": 1605, "object_no": null, "object_name": null, "layer_type_id": 209, "valid_to": null, "address_no": null, "border_type": "solid", "border_width": null, "border_color": null, "border_opacity": null, "border_wellknown": "horizline", "fill_type": "color", "fill_color": "#6a329f", "fill_opacity": 1, "fill_wellknown": "horizline", "fill_shape_color": null, "fill_shape_width": null, "fill_shape_size": null, "fill_img_url": null, "marker_img_url": null}},{"type": "Feature", "id": "layer_data_map.fid--27e80436_1a098b908f8_77d2", "geometry": {"type": "Point", "coordinates": [106.82640361, 47.88841879]}, "geometry_name": "geom", "properties": {"guid": 1606, "id": 1606, "object_no": null, "object_name": null, "layer_type_id": 209, "valid_to": null, "address_no": null, "border_type": "solid", "border_width": null, "border_color": null, "border_opacity": null, "border_wellknown": "horizline", "fill_type": "color", "fill_color": "#6a329f", "fill_opacity": 1, "fill_wellknown": "horizline", "fill_shape_color": null, "fill_shape_width": null, "fill_shape_size": null, "fill_img_url": null, "marker_img_url": null}},{"type": "Feature", "id": "layer_data_map.fid--27e80436_1a098b908f8_77d3", "geometry": {"type": "Point", "coordinates": [106.78891716, 47.87775093]}, "geometry_name": "geom", "properties": {"guid": 1607, "id": 1607, "object_no": null, "object_name": null, "layer_type_id": 209, "valid_to": null, "address_no": null, "border_type": "solid", "border_width": null, "border_color": null, "border_opacity": null, "border_wellknown": "horizline", "fill_type": "color", "fill_color": "#6a329f", "fill_opacity": 1, "fill_wellknown": "horizline", "fill_shape_color": null, "fill_shape_width": null, "fill_shape_size": null, "fill_img_url": null, "marker_img_url": null}},{"type": "Feature", "id": "layer_data_map.fid--27e80436_1a098b908f8_77d4", "geometry": {"type": "Point", "coordinates": [106.78765311, 47.87629729]}, "geometry_name": "geom", "properties": {"guid": 1608, "id": 1608, "object_no": null, "object_name": null, "layer_type_id": 209, "valid_to": null, "address_no": null, "border_type": "solid", "border_width": null, "border_color": null, "border_opacity": null, "border_wellknown": "horizline", "fill_type": "color", "fill_color": "#6a329f", "fill_opacity": 1, "fill_wellknown": "horizline", "fill_shape_color": null, "fill_shape_width": null, "fill_shape_size": null, "fill_img_url": null, "marker_img_url": null}},{"type": "Feature", "id": "layer_data_map.fid--27e80436_1a098b908f8_77d5", "geometry": {"type": "Point", "coordinates": [106.77070365, 47.87556711]}, "geometry_name": "geom", "properties": {"guid": 1609, "id": 1609, "object_no": null, "object_name": null, "layer_type_id": 209, "valid_to": null, "address_no": null, "border_type": "solid", "border_width": null, "border_color": null, "border_opacity": null, "border_wellknown": "horizline", "fill_type": "color", "fill_color": "#6a329f", "fill_opacity": 1, "fill_wellknown": "horizline", "fill_shape_color": null, "fill_shape_width": null, "fill_shape_size": null, "fill_img_url": null, "marker_img_url": null}},{"type": "Feature", "id": "layer_data_map.fid--27e80436_1a098b908f8_77d6", "geometry": {"type": "Point", "coordinates": [106.68132815, 47.86253006]}, "geometry_name": "geom", "properties": {"guid": 1610, "id": 1610, "object_no": null, "object_name": null, "layer_type_id": 209, "valid_to": null, "address_no": null, "border_type": "solid", "border_width": null, "border_color": null, "border_opacity": null, "border_wellknown": "horizline", "fill_type": "color", "fill_color": "#6a329f", "fill_opacity": 1, "fill_wellknown": "horizline", "fill_shape_color": null, "fill_shape_width": null, "fill_shape_size": null, "fill_img_url": null, "marker_img_url": null}},{"type": "Feature", "id": "layer_data_map.fid--27e80436_1a098b908f8_77d7", "geometry": {"type": "Point", "coordinates": [106.79872153, 47.92786893]}, "geometry_name": "geom", "properties": {"guid": 1611, "id": 1611, "object_no": null, "object_name": null, "layer_type_id": 209, "valid_to": null, "address_no": null, "border_type": "solid", "border_width": null, "border_color": null, "border_opacity": null, "border_wellknown": "horizline", "fill_type": "color", "fill_color": "#6a329f", "fill_opacity": 1, "fill_wellknown": "horizline", "fill_shape_color": null, "fill_shape_width": null, "fill_shape_size": null, "fill_img_url": null, "marker_img_url": null}},{"type": "Feature", "id": "layer_data_map.fid--27e80436_1a098b908f8_77d8", "geometry": {"type": "Point", "coordinates": [106.77944625, 47.92549196]}, "geometry_name": "geom", "properties": {"guid": 1612, "id": 1612, "object_no": null, "object_name": null, "layer_type_id": 209, "valid_to": null, "address_no": null, "border_type": "solid", "border_width": null, "border_color": null, "border_opacity": null, "border_wellknown": "horizline", "fill_type": "color", "fill_color": "#6a329f", "fill_opacity": 1, "fill_wellknown": "horizline", "fill_shape_color": null, "fill_shape_width": null, "fill_shape_size": null, "fill_img_url": null, "marker_img_url": null}},{"type": "Feature", "id": "layer_data_map.fid--27e80436_1a098b908f8_77d9", "geometry": {"type": "Point", "coordinates": [106.82776129, 47.93071574]}, "geometry_name": "geom", "properties": {"guid": 1613, "id": 1613, "object_no": null, "object_name": null, "layer_type_id": 209, "valid_to": null, "address_no": null, "border_type": "solid", "border_width": null, "border_color": null, "border_opacity": null, "border_wellknown": "horizline", "fill_type": "color", "fill_color": "#6a329f", "fill_opacity": 1, "fill_wellknown": "horizline", "fill_shape_color": null, "fill_shape_width": null, "fill_shape_size": null, "fill_img_url": null, "marker_img_url": null}},{"type": "Feature", "id": "layer_data_map.fid--27e80436_1a098b908f8_77da", "geometry": {"type": "Point", "coordinates": [106.82751433, 47.97593053]}, "geometry_name": "geom", "properties": {"guid": 1614, "id": 1614, "object_no": null, "object_name": null, "layer_type_id": 209, "valid_to": null, "address_no": null, "border_type": "solid", "border_width": null, "border_color": null, "border_opacity": null, "border_wellknown": "horizline", "fill_type": "color", "fill_color": "#6a329f", "fill_opacity": 1, "fill_wellknown": "horizline", "fill_shape_color": null, "fill_shape_width": null, "fill_shape_size": null, "fill_img_url": null, "marker_img_url": null}},{"type": "Feature", "id": "layer_data_map.fid--27e80436_1a098b908f8_77db", "geometry": {"type": "Point", "coordinates": [107.07351654, 47.90652353]}, "geometry_name": "geom", "properties": {"guid": 1615, "id": 1615, "object_no": null, "object_name": null, "layer_type_id": 209, "valid_to": null, "address_no": null, "border_type": "solid", "border_width": null, "border_color": null, "border_opacity": null, "border_wellknown": "horizline", "fill_type": "color", "fill_color": "#6a329f", "fill_opacity": 1, "fill_wellknown": "horizline", "fill_shape_color": null, "fill_shape_width": null, "fill_shape_size": null, "fill_img_url": null, "marker_img_url": null}},{"type": "Feature", "id": "layer_data_map.fid--27e80436_1a098b908f8_77dc", "geometry": {"type": "Point", "coordinates": [107.03603836, 47.92603972]}, "geometry_name": "geom", "properties": {"guid": 1616, "id": 1616, "object_no": null, "object_name": null, "layer_type_id": 209, "valid_to": null, "address_no": null, "border_type": "solid", "border_width": null, "border_color": null, "border_opacity": null, "border_wellknown": "horizline", "fill_type": "color", "fill_color": "#6a329f", "fill_opacity": 1, "fill_wellknown": "horizline", "fill_shape_color": null, "fill_shape_width": null, "fill_shape_size": null, "fill_img_url": null, "marker_img_url": null}},{"type": "Feature", "id": "layer_data_map.fid--27e80436_1a098b908f8_77dd", "geometry": {"type": "Point", "coordinates": [107.02024527, 47.92423041]}, "geometry_name": "geom", "properties": {"guid": 1617, "id": 1617, "object_no": null, "object_name": null, "layer_type_id": 209, "valid_to": null, "address_no": null, "border_type": "solid", "border_width": null, "border_color": null, "border_opacity": null, "border_wellknown": "horizline", "fill_type": "color", "fill_color": "#6a329f", "fill_opacity": 1, "fill_wellknown": "horizline", "fill_shape_color": null, "fill_shape_width": null, "fill_shape_size": null, "fill_img_url": null, "marker_img_url": null}},{"type": "Feature", "id": "layer_data_map.fid--27e80436_1a098b908f8_77de", "geometry": {"type": "Point", "coordinates": [106.99429377, 47.93175429]}, "geometry_name": "geom", "properties": {"guid": 1618, "id": 1618, "object_no": null, "object_name": null, "layer_type_id": 209, "valid_to": null, "address_no": null, "border_type": "solid", "border_width": null, "border_color": null, "border_opacity": null, "border_wellknown": "horizline", "fill_type": "color", "fill_color": "#6a329f", "fill_opacity": 1, "fill_wellknown": "horizline", "fill_shape_color": null, "fill_shape_width": null, "fill_shape_size": null, "fill_img_url": null, "marker_img_url": null}},{"type": "Feature", "id": "layer_data_map.fid--27e80436_1a098b908f8_77df", "geometry": {"type": "Point", "coordinates": [107.00111277, 47.93188723]}, "geometry_name": "geom", "properties": {"guid": 1619, "id": 1619, "object_no": null, "object_name": null, "layer_type_id": 209, "valid_to": null, "address_no": null, "border_type": "solid", "border_width": null, "border_color": null, "border_opacity": null, "border_wellknown": "horizline", "fill_type": "color", "fill_color": "#6a329f", "fill_opacity": 1, "fill_wellknown": "horizline", "fill_shape_color": null, "fill_shape_width": null, "fill_shape_size": null, "fill_img_url": null, "marker_img_url": null}},{"type": "Feature", "id": "layer_data_map.fid--27e80436_1a098b908f8_77e0", "geometry": {"type": "Point", "coordinates": [106.94210667, 47.92736859]}, "geometry_name": "geom", "properties": {"guid": 1620, "id": 1620, "object_no": null, "object_name": null, "layer_type_id": 209, "valid_to": null, "address_no": null, "border_type": "solid", "border_width": null, "border_color": null, "border_opacity": null, "border_wellknown": "horizline", "fill_type": "color", "fill_color": "#6a329f", "fill_opacity": 1, "fill_wellknown": "horizline", "fill_shape_color": null, "fill_shape_width": null, "fill_shape_size": null, "fill_img_url": null, "marker_img_url": null}},{"type": "Feature", "id": "layer_data_map.fid--27e80436_1a098b908f8_77e1", "geometry": {"type": "Point", "coordinates": [106.76588273, 47.91880584]}, "geometry_name": "geom", "properties": {"guid": 1621, "id": 1621, "object_no": null, "object_name": null, "layer_type_id": 209, "valid_to": null, "address_no": null, "border_type": "solid", "border_width": null, "border_color": null, "border_opacity": null, "border_wellknown": "horizline", "fill_type": "color", "fill_color": "#6a329f", "fill_opacity": 1, "fill_wellknown": "horizline", "fill_shape_color": null, "fill_shape_width": null, "fill_shape_size": null, "fill_img_url": null, "marker_img_url": null}},{"type": "Feature", "id": "layer_data_map.fid--27e80436_1a098b908f8_77e2", "geometry": {"type": "Point", "coordinates": [106.76529446, 47.92517992]}, "geometry_name": "geom", "properties": {"guid": 1622, "id": 1622, "object_no": null, "object_name": null, "layer_type_id": 209, "valid_to": null, "address_no": null, "border_type": "solid", "border_width": null, "border_color": null, "border_opacity": null, "border_wellknown": "horizline", "fill_type": "color", "fill_color": "#6a329f", "fill_opacity": 1, "fill_wellknown": "horizline", "fill_shape_color": null, "fill_shape_width": null, "fill_shape_size": null, "fill_img_url": null, "marker_img_url": null}},{"type": "Feature", "id": "layer_data_map.fid--27e80436_1a098b908f8_77e3", "geometry": {"type": "Point", "coordinates": [106.75164026, 47.91552917]}, "geometry_name": "geom", "properties": {"guid": 1623, "id": 1623, "object_no": null, "object_name": null, "layer_type_id": 209, "valid_to": null, "address_no": null, "border_type": "solid", "border_width": null, "border_color": null, "border_opacity": null, "border_wellknown": "horizline", "fill_type": "color", "fill_color": "#6a329f", "fill_opacity": 1, "fill_wellknown": "horizline", "fill_shape_color": null, "fill_shape_width": null, "fill_shape_size": null, "fill_img_url": null, "marker_img_url": null}},{"type": "Feature", "id": "layer_data_map.fid--27e80436_1a098b908f8_77e4", "geometry": {"type": "Point", "coordinates": [106.76558874, 47.91198045]}, "geometry_name": "geom", "properties": {"guid": 1624, "id": 1624, "object_no": null, "object_name": null, "layer_type_id": 209, "valid_to": null, "address_no": null, "border_type": "solid", "border_width": null, "border_color": null, "border_opacity": null, "border_wellknown": "horizline", "fill_type": "color", "fill_color": "#6a329f", "fill_opacity": 1, "fill_wellknown": "horizline", "fill_shape_color": null, "fill_shape_width": null, "fill_shape_size": null, "fill_img_url": null, "marker_img_url": null}},{"type": "Feature", "id": "layer_data_map.fid--27e80436_1a098b908f8_77e5", "geometry": {"type": "Point", "coordinates": [106.76584228, 47.93321781]}, "geometry_name": "geom", "properties": {"guid": 1625, "id": 1625, "object_no": null, "object_name": null, "layer_type_id": 209, "valid_to": null, "address_no": null, "border_type": "solid", "border_width": null, "border_color": null, "border_opacity": null, "border_wellknown": "horizline", "fill_type": "color", "fill_color": "#6a329f", "fill_opacity": 1, "fill_wellknown": "horizline", "fill_shape_color": null, "fill_shape_width": null, "fill_shape_size": null, "fill_img_url": null, "marker_img_url": null}},{"type": "Feature", "id": "layer_data_map.fid--27e80436_1a098b908f8_77e6", "geometry": {"type": "Point", "coordinates": [106.76593325, 47.92290035]}, "geometry_name": "geom", "properties": {"guid": 1626, "id": 1626, "object_no": null, "object_name": null, "layer_type_id": 209, "valid_to": null, "address_no": null, "border_type": "solid", "border_width": null, "border_color": null, "border_opacity": null, "border_wellknown": "horizline", "fill_type": "color", "fill_color": "#6a329f", "fill_opacity": 1, "fill_wellknown": "horizline", "fill_shape_color": null, "fill_shape_width": null, "fill_shape_size": null, "fill_img_url": null, "marker_img_url": null}},{"type": "Feature", "id": "layer_data_map.fid--27e80436_1a098b908f8_77e7", "geometry": {"type": "Point", "coordinates": [106.78045625, 47.91416296]}, "geometry_name": "geom", "properties": {"guid": 1627, "id": 1627, "object_no": null, "object_name": null, "layer_type_id": 209, "valid_to": null, "address_no": null, "border_type": "solid", "border_width": null, "border_color": null, "border_opacity": null, "border_wellknown": "horizline", "fill_type": "color", "fill_color": "#6a329f", "fill_opacity": 1, "fill_wellknown": "horizline", "fill_shape_color": null, "fill_shape_width": null, "fill_shape_size": null, "fill_img_url": null, "marker_img_url": null}},{"type": "Feature", "id": "layer_data_map.fid--27e80436_1a098b908f8_77e8", "geometry": {"type": "Point", "coordinates": [106.77198255, 47.91707873]}, "geometry_name": "geom", "properties": {"guid": 1628, "id": 1628, "object_no": null, "object_name": null, "layer_type_id": 209, "valid_to": null, "address_no": null, "border_type": "solid", "border_width": null, "border_color": null, "border_opacity": null, "border_wellknown": "horizline", "fill_type": "color", "fill_color": "#6a329f", "fill_opacity": 1, "fill_wellknown": "horizline", "fill_shape_color": null, "fill_shape_width": null, "fill_shape_size": null, "fill_img_url": null, "marker_img_url": null}},{"type": "Feature", "id": "layer_data_map.fid--27e80436_1a098b908f8_77e9", "geometry": {"type": "Point", "coordinates": [106.76616224, 47.92074757]}, "geometry_name": "geom", "properties": {"guid": 1629, "id": 1629, "object_no": null, "object_name": null, "layer_type_id": 209, "valid_to": null, "address_no": null, "border_type": "solid", "border_width": null, "border_color": null, "border_opacity": null, "border_wellknown": "horizline", "fill_type": "color", "fill_color": "#6a329f", "fill_opacity": 1, "fill_wellknown": "horizline", "fill_shape_color": null, "fill_shape_width": null, "fill_shape_size": null, "fill_img_url": null, "marker_img_url": null}},{"type": "Feature", "id": "layer_data_map.fid--27e80436_1a098b908f8_77ea", "geometry": {"type": "Point", "coordinates": [106.78068431, 47.91633621]}, "geometry_name": "geom", "properties": {"guid": 1630, "id": 1630, "object_no": null, "object_name": null, "layer_type_id": 209, "valid_to": null, "address_no": null, "border_type": "solid", "border_width": null, "border_color": null, "border_opacity": null, "border_wellknown": "horizline", "fill_type": "color", "fill_color": "#6a329f", "fill_opacity": 1, "fill_wellknown": "horizline", "fill_shape_color": null, "fill_shape_width": null, "fill_shape_size": null, "fill_img_url": null, "marker_img_url": null}},{"type": "Feature", "id": "layer_data_map.fid--27e80436_1a098b908f8_77eb", "geometry": {"type": "Point", "coordinates": [106.78217288, 47.91914433]}, "geometry_name": "geom", "properties": {"guid": 1631, "id": 1631, "object_no": null, "object_name": null, "layer_type_id": 209, "valid_to": null, "address_no": null, "border_type": "solid", "border_width": null, "border_color": null, "border_opacity": null, "border_wellknown": "horizline", "fill_type": "color", "fill_color": "#6a329f", "fill_opacity": 1, "fill_wellknown": "horizline", "fill_shape_color": null, "fill_shape_width": null, "fill_shape_size": null, "fill_img_url": null, "marker_img_url": null}},{"type": "Feature", "id": "layer_data_map.fid--27e80436_1a098b908f8_77ec", "geometry": {"type": "Point", "coordinates": [106.76590272, 47.92315875]}, "geometry_name": "geom", "properties": {"guid": 1632, "id": 1632, "object_no": null, "object_name": null, "layer_type_id": 209, "valid_to": null, "address_no": null, "border_type": "solid", "border_width": null, "border_color": null, "border_opacity": null, "border_wellknown": "horizline", "fill_type": "color", "fill_color": "#6a329f", "fill_opacity": 1, "fill_wellknown": "horizline", "fill_shape_color": null, "fill_shape_width": null, "fill_shape_size": null, "fill_img_url": null, "marker_img_url": null}},{"type": "Feature", "id": "layer_data_map.fid--27e80436_1a098b908f8_77ed", "geometry": {"type": "Point", "coordinates": [106.78111968, 47.91596071]}, "geometry_name": "geom", "properties": {"guid": 1633, "id": 1633, "object_no": null, "object_name": null, "layer_type_id": 209, "valid_to": null, "address_no": null, "border_type": "solid", "border_width": null, "border_color": null, "border_opacity": null, "border_wellknown": "horizline", "fill_type": "color", "fill_color": "#6a329f", "fill_opacity": 1, "fill_wellknown": "horizline", "fill_shape_color": null, "fill_shape_width": null, "fill_shape_size": null, "fill_img_url": null, "marker_img_url": null}},{"type": "Feature", "id": "layer_data_map.fid--27e80436_1a098b908f8_77ee", "geometry": {"type": "Point", "coordinates": [106.7811459, 47.91728597]}, "geometry_name": "geom", "properties": {"guid": 1634, "id": 1634, "object_no": null, "object_name": null, "layer_type_id": 209, "valid_to": null, "address_no": null, "border_type": "solid", "border_width": null, "border_color": null, "border_opacity": null, "border_wellknown": "horizline", "fill_type": "color", "fill_color": "#6a329f", "fill_opacity": 1, "fill_wellknown": "horizline", "fill_shape_color": null, "fill_shape_width": null, "fill_shape_size": null, "fill_img_url": null, "marker_img_url": null}},{"type": "Feature", "id": "layer_data_map.fid--27e80436_1a098b908f8_77ef", "geometry": {"type": "Point", "coordinates": [106.79315701, 47.92273621]}, "geometry_name": "geom", "properties": {"guid": 1635, "id": 1635, "object_no": null, "object_name": null, "layer_type_id": 209, "valid_to": null, "address_no": null, "border_type": "solid", "border_width": null, "border_color": null, "border_opacity": null, "border_wellknown": "horizline", "fill_type": "color", "fill_color": "#6a329f", "fill_opacity": 1, "fill_wellknown": "horizline", "fill_shape_color": null, "fill_shape_width": null, "fill_shape_size": null, "fill_img_url": null, "marker_img_url": null}},{"type": "Feature", "id": "layer_data_map.fid--27e80436_1a098b908f8_77f0", "geometry": {"type": "Point", "coordinates": [106.79572362, 47.92055054]}, "geometry_name": "geom", "properties": {"guid": 1636, "id": 1636, "object_no": null, "object_name": null, "layer_type_id": 209, "valid_to": null, "address_no": null, "border_type": "solid", "border_width": null, "border_color": null, "border_opacity": null, "border_wellknown": "horizline", "fill_type": "color", "fill_color": "#6a329f", "fill_opacity": 1, "fill_wellknown": "horizline", "fill_shape_color": null, "fill_shape_width": null, "fill_shape_size": null, "fill_img_url": null, "marker_img_url": null}},{"type": "Feature", "id": "layer_data_map.fid--27e80436_1a098b908f8_77f1", "geometry": {"type": "Point", "coordinates": [106.79594181, 47.92056142]}, "geometry_name": "geom", "properties": {"guid": 1637, "id": 1637, "object_no": null, "object_name": null, "layer_type_id": 209, "valid_to": null, "address_no": null, "border_type": "solid", "border_width": null, "border_color": null, "border_opacity": null, "border_wellknown": "horizline", "fill_type": "color", "fill_color": "#6a329f", "fill_opacity": 1, "fill_wellknown": "horizline", "fill_shape_color": null, "fill_shape_width": null, "fill_shape_size": null, "fill_img_url": null, "marker_img_url": null}},{"type": "Feature", "id": "layer_data_map.fid--27e80436_1a098b908f8_77f2", "geometry": {"type": "Point", "coordinates": [106.7937763, 47.91991987]}, "geometry_name": "geom", "properties": {"guid": 1638, "id": 1638, "object_no": null, "object_name": null, "layer_type_id": 209, "valid_to": null, "address_no": null, "border_type": "solid", "border_width": null, "border_color": null, "border_opacity": null, "border_wellknown": "horizline", "fill_type": "color", "fill_color": "#6a329f", "fill_opacity": 1, "fill_wellknown": "horizline", "fill_shape_color": null, "fill_shape_width": null, "fill_shape_size": null, "fill_img_url": null, "marker_img_url": null}},{"type": "Feature", "id": "layer_data_map.fid--27e80436_1a098b908f8_77f3", "geometry": {"type": "Point", "coordinates": [106.78648464, 47.91949859]}, "geometry_name": "geom", "properties": {"guid": 1639, "id": 1639, "object_no": null, "object_name": null, "layer_type_id": 209, "valid_to": null, "address_no": null, "border_type": "solid", "border_width": null, "border_color": null, "border_opacity": null, "border_wellknown": "horizline", "fill_type": "color", "fill_color": "#6a329f", "fill_opacity": 1, "fill_wellknown": "horizline", "fill_shape_color": null, "fill_shape_width": null, "fill_shape_size": null, "fill_img_url": null, "marker_img_url": null}},{"type": "Feature", "id": "layer_data_map.fid--27e80436_1a098b908f8_77f4", "geometry": {"type": "Point", "coordinates": [106.79505986, 47.92825826]}, "geometry_name": "geom", "properties": {"guid": 1640, "id": 1640, "object_no": null, "object_name": null, "layer_type_id": 209, "valid_to": null, "address_no": null, "border_type": "solid", "border_width": null, "border_color": null, "border_opacity": null, "border_wellknown": "horizline", "fill_type": "color", "fill_color": "#6a329f", "fill_opacity": 1, "fill_wellknown": "horizline", "fill_shape_color": null, "fill_shape_width": null, "fill_shape_size": null, "fill_img_url": null, "marker_img_url": null}},{"type": "Feature", "id": "layer_data_map.fid--27e80436_1a098b908f8_77f5", "geometry": {"type": "Polygon", "coordinates": [[[106.82117379, 47.92254591], [106.82118952, 47.92230236], [106.8213884, 47.92230154], [106.82137745, 47.92254967], [106.82117379, 47.92254591]]]}, "geometry_name": "geom", "properties": {"guid": 1443345, "id": 1443345, "object_no": null, "object_name": null, "layer_type_id": 209, "valid_to": null, "address_no": null, "border_type": "solid", "border_width": null, "border_color": null, "border_opacity": null, "border_wellknown": "horizline", "fill_type": "color", "fill_color": "#6a329f", "fill_opacity": 1, "fill_wellknown": "horizline", "fill_shape_color": null, "fill_shape_width": null, "fill_shape_size": null, "fill_img_url": null, "marker_img_url": null}},{"type": "Feature", "id": "layer_data_map.fid--27e80436_1a098b908f8_77f6", "geometry": {"type": "Polygon", "coordinates": [[[106.78433356, 47.85999064], [106.78439147, 47.85984713], [106.78444132, 47.85984644], [106.78449164, 47.85982065], [106.78451839, 47.85979738], [106.78453664, 47.85977208], [106.78483799, 47.85985755], [106.78575891, 47.86011406], [106.78573565, 47.86015302], [106.78620206, 47.86029864], [106.78590941, 47.86077423], [106.78422852, 47.86028812], [106.78433356, 47.85999064]]]}, "geometry_name": "geom", "properties": {"guid": 1443346, "id": 1443346, "object_no": null, "object_name": null, "layer_type_id": 209, "valid_to": null, "address_no": null, "border_type": "solid", "border_width": null, "border_color": null, "border_opacity": null, "border_wellknown": "horizline", "fill_type": "color", "fill_color": "#6a329f", "fill_opacity": 1, "fill_wellknown": "horizline", "fill_shape_color": null, "fill_shape_width": null, "fill_shape_size": null, "fill_img_url": null, "marker_img_url": null}},{"type": "Feature", "id": "layer_data_map.fid--27e80436_1a098b908f8_77f7", "geometry": {"type": "Polygon", "coordinates": [[[106.82117379, 47.92254591], [106.82118952, 47.92230236], [106.8213884, 47.92230154], [106.82137745, 47.92254967], [106.82117379, 47.92254591]]]}, "geometry_name": "geom", "properties": {"guid": 1443347, "id": 1443347, "object_no": null, "object_name": null, "layer_type_id": 209, "valid_to": null, "address_no": null, "border_type": "solid", "border_width": null, "border_color": null, "border_opacity": null, "border_wellknown": "horizline", "fill_type": "color", "fill_color": "#6a329f", "fill_opacity": 1, "fill_wellknown": "horizline", "fill_shape_color": null, "fill_shape_width": null, "fill_shape_size": null, "fill_img_url": null, "marker_img_url": null}},{"type": "Feature", "id": "layer_data_map.fid--27e80436_1a098b908f8_77f8", "geometry": {"type": "Polygon", "coordinates": [[[106.78433356, 47.85999064], [106.78439147, 47.85984713], [106.78444132, 47.85984644], [106.78449164, 47.85982065], [106.78451839, 47.85979738], [106.78453664, 47.85977208], [106.78483799, 47.85985755], [106.78575891, 47.86011406], [106.78573565, 47.86015302], [106.78620206, 47.86029864], [106.78590941, 47.86077423], [106.78422852, 47.86028812], [106.78433356, 47.85999064]]]}, "geometry_name": "geom", "properties": {"guid": 1443348, "id": 1443348, "object_no": null, "object_name": null, "layer_type_id": 209, "valid_to": null, "address_no": null, "border_type": "solid", "border_width": null, "border_color": null, "border_opacity": null, "border_wellknown": "horizline", "fill_type": "color", "fill_color": "#6a329f", "fill_opacity": 1, "fill_wellknown": "horizline", "fill_shape_color": null, "fill_shape_width": null, "fill_shape_size": null, "fill_img_url": null, "marker_img_url": null}},{"type": "Feature", "id": "layer_data_map.fid--27e80436_1a098b908f8_77f9", "geometry": {"type": "Polygon", "coordinates": [[[106.82117379, 47.92254591], [106.82118952, 47.92230236], [106.8213884, 47.92230154], [106.82137745, 47.92254967], [106.82117379, 47.92254591]]]}, "geometry_name": "geom", "properties": {"guid": 1443349, "id": 1443349, "object_no": null, "object_name": null, "layer_type_id": 209, "valid_to": null, "address_no": null, "border_type": "solid", "border_width": null, "border_color": null, "border_opacity": null, "border_wellknown": "horizline", "fill_type": "color", "fill_color": "#6a329f", "fill_opacity": 1, "fill_wellknown": "horizline", "fill_shape_color": null, "fill_shape_width": null, "fill_shape_size": null, "fill_img_url": null, "marker_img_url": null}},{"type": "Feature", "id": "layer_data_map.fid--27e80436_1a098b908f8_77fa", "geometry": {"type": "Polygon", "coordinates": [[[106.78433356, 47.85999064], [106.78439147, 47.85984713], [106.78444132, 47.85984644], [106.78449164, 47.85982065], [106.78451839, 47.85979738], [106.78453664, 47.85977208], [106.78483799, 47.85985755], [106.78575891, 47.86011406], [106.78573565, 47.86015302], [106.78620206, 47.86029864], [106.78590941, 47.86077423], [106.78422852, 47.86028812], [106.78433356, 47.85999064]]]}, "geometry_name": "geom", "properties": {"guid": 1443350, "id": 1443350, "object_no": null, "object_name": null, "layer_type_id": 209, "valid_to": null, "address_no": null, "border_type": "solid", "border_width": null, "border_color": null, "border_opacity": null, "border_wellknown": "horizline", "fill_type": "color", "fill_color": "#6a329f", "fill_opacity": 1, "fill_wellknown": "horizline", "fill_shape_color": null, "fill_shape_width": null, "fill_shape_size": null, "fill_img_url": null, "marker_img_url": null}},{"type": "Feature", "id": "layer_data_map.fid--27e80436_1a098b908f8_77fb", "geometry": {"type": "Polygon", "coordinates": [[[106.82117379, 47.92254591], [106.82118952, 47.92230236], [106.8213884, 47.92230154], [106.82137745, 47.92254967], [106.82117379, 47.92254591]]]}, "geometry_name": "geom", "properties": {"guid": 1443351, "id": 1443351, "object_no": null, "object_name": null, "layer_type_id": 209, "valid_to": null, "address_no": null, "border_type": "solid", "border_width": null, "border_color": null, "border_opacity": null, "border_wellknown": "horizline", "fill_type": "color", "fill_color": "#6a329f", "fill_opacity": 1, "fill_wellknown": "horizline", "fill_shape_color": null, "fill_shape_width": null, "fill_shape_size": null, "fill_img_url": null, "marker_img_url": null}},{"type": "Feature", "id": "layer_data_map.fid--27e80436_1a098b908f8_77fc", "geometry": {"type": "Polygon", "coordinates": [[[106.78433356, 47.85999064], [106.78439147, 47.85984713], [106.78444132, 47.85984644], [106.78449164, 47.85982065], [106.78451839, 47.85979738], [106.78453664, 47.85977208], [106.78483799, 47.85985755], [106.78575891, 47.86011406], [106.78573565, 47.86015302], [106.78620206, 47.86029864], [106.78590941, 47.86077423], [106.78422852, 47.86028812], [106.78433356, 47.85999064]]]}, "geometry_name": "geom", "properties": {"guid": 1443352, "id": 1443352, "object_no": null, "object_name": null, "layer_type_id": 209, "valid_to": null, "address_no": null, "border_type": "solid", "border_width": null, "border_color": null, "border_opacity": null, "border_wellknown": "horizline", "fill_type": "color", "fill_color": "#6a329f", "fill_opacity": 1, "fill_wellknown": "horizline", "fill_shape_color": null, "fill_shape_width": null, "fill_shape_size": null, "fill_img_url": null, "marker_img_url": null}}]}